{"version": 0.6, "generator": "Overpass API 0.7.62.7 375dc00a", "osm3s": {"timestamp_osm_base": "2025-06-10T04:22:30Z", "copyright": "The data included in this document is from www.openstreetmap.org. The data is made available under ODbL."}, "elements": [{"type": "node", "id": 60879475, "lat": 14.7246624, "lon": -17.4827304, "tags": {"bus": "yes", "highway": "bus_stop", "network": "Dakar Dem Dikk", "operator": "Dakar Dem Dikk", "public_transport": "platform", "shelter": "no", "source": "bing;survey"}}, {"type": "node", "id": 60880845, "lat": 14.7255546, "lon": -17.4716078, "tags": {"description": "ligne 1 , ligne 218", "highway": "bus_stop", "name": "Arr\u00eat DDD", "public_transport": "stop_position"}}, {"type": "node", "id": 560149694, "lat": 14.6510408, "lon": -17.433456, "tags": {"bus": "yes", "highway": "bus_stop", "name": "Gare Palais 1", "network": "Dakar Dem Dikk", "operator": "Dakar Dem Dikk", "public_transport": "platform"}}, {"type": "node", "id": 622365165, "lat": 14.7326101, "lon": -17.4930023, "tags": {"bus": "yes", "highway": "bus_stop", "public_transport": "platform"}}, {"type": "node", "id": 711879106, "lat": 14.6696986, "lon": -17.4302712, "tags": {"bus": "yes", "highway": "bus_stop", "public_transport": "platform"}}, {"type": "node", "id": 711879113, "lat": 14.6664791, "lon": -17.4370311, "tags": {"bus": "yes", "highway": "bus_stop", "public_transport": "platform"}}, {"type": "node", "id": 711879117, "lat": 14.6706184, "lon": -17.4371376, "tags": {"bus": "yes", "highway": "bus_stop", "local_ref": "centre ville", "name": "centre ville", "public_transport": "platform"}}, {"type": "node", "id": 711879175, "lat": 14.6658025, "lon": -17.4375668, "tags": {"bus": "yes", "highway": "bus_stop", "public_transport": "platform"}}, {"type": "node", "id": 711879185, "lat": 14.6666121, "lon": -17.439498, "tags": {"bench": "yes", "bin": "no", "bus": "yes", "highway": "bus_stop", "public_transport": "platform", "shelter": "yes"}}, {"type": "node", "id": 711879188, "lat": 14.6675877, "lon": -17.4423304, "tags": {"bench": "yes", "bin": "no", "bus": "yes", "highway": "bus_stop", "public_transport": "platform", "shelter": "yes"}}, {"type": "node", "id": 711879244, "lat": 14.6693378, "lon": -17.4365554, "tags": {"bench": "yes", "bin": "no", "bus": "yes", "highway": "bus_stop", "public_transport": "platform", "shelter": "yes"}}, {"type": "node", "id": 711879280, "lat": 14.6695598, "lon": -17.4334469, "tags": {"highway": "bus_stop"}}, {"type": "node", "id": 2115182802, "lat": 14.7501951, "lon": -17.4591565, "tags": {"bus": "yes", "highway": "bus_stop", "local_ref": "L34", "public_transport": "platform"}}, {"type": "node", "id": 2115182804, "lat": 14.7518136, "lon": -17.459929, "tags": {"bus": "yes", "highway": "bus_stop", "local_ref": "L34", "public_transport": "platform"}}, {"type": "node", "id": 2115182805, "lat": 14.7542206, "lon": -17.4619996, "tags": {"bus": "yes", "highway": "bus_stop", "local_ref": "L34", "name": "Terminus ligne 34", "public_transport": "platform"}}, {"type": "node", "id": 2121628909, "lat": 14.6969311, "lon": -17.4663919, "tags": {"bench": "no", "bin": "no", "bus": "yes", "highway": "bus_stop", "name": "Arr\u00eat  mini bus (39,24 46,58,4,29,47,38)", "public_transport": "platform", "shelter": "no"}}, {"type": "node", "id": 2121628913, "lat": 14.6914463, "lon": -17.459925, "tags": {"bench": "no", "bin": "no", "bus": "yes", "highway": "bus_stop", "public_transport": "platform", "shelter": "no"}}, {"type": "node", "id": 2133676484, "lat": 14.6981768, "lon": -17.4673712, "tags": {"bus": "yes", "highway": "bus_stop", "public_transport": "platform"}}, {"type": "node", "id": 2162802397, "lat": 14.758749, "lon": -17.4292332, "tags": {"bench": "no", "bus": "yes", "highway": "bus_stop", "name": "Arret bus tata 26-29-30-36", "public_transport": "platform", "shelter": "no"}}, {"type": "node", "id": 2162824094, "lat": 14.7589813, "lon": -17.4298108, "tags": {"bench": "no", "bus": "yes", "highway": "bus_stop", "name": "Arret Bus Tata 26-36", "public_transport": "platform", "shelter": "no", "tactile_paving": "no"}}, {"type": "node", "id": 2173614350, "lat": 14.6791825, "lon": -17.464925, "tags": {"bench": "yes", "bus": "yes", "highway": "bus_stop", "public_transport": "platform", "shelter": "yes", "tactile_paving": "no"}}, {"type": "node", "id": 2175197258, "lat": 14.6837603, "lon": -17.4575791, "tags": {"bench": "no", "bus": "yes", "highway": "bus_stop", "name": "Arret bus 18 / 39", "public_transport": "platform", "shelter": "no", "tactile_paving": "no"}}, {"type": "node", "id": 2175273854, "lat": 14.6838516, "lon": -17.4591595, "tags": {"bus": "yes", "highway": "bus_stop", "public_transport": "platform", "source": "bing"}}, {"type": "node", "id": 2532220922, "lat": 14.7157702, "lon": -17.4831511, "tags": {"bus": "yes", "highway": "bus_stop", "public_transport": "platform", "shelter": "no"}}, {"type": "node", "id": 2637247631, "lat": 14.7100542, "lon": -17.4576138, "tags": {"bench": "yes", "bus": "yes", "highway": "bus_stop", "network": "Dakar Dem Dikk", "operator": "Dakar Dem Dikk", "public_transport": "platform", "shelter": "yes"}}, {"type": "node", "id": 2637248411, "lat": 14.7109609, "lon": -17.4541347, "tags": {"bench": "yes", "bus": "yes", "highway": "bus_stop", "operator": "dakar-dem-dikk", "public_transport": "platform", "shelter": "yes", "source": "survey"}}, {"type": "node", "id": 2637254630, "lat": 14.7062674, "lon": -17.4592194, "tags": {"bench": "no", "bus": "yes", "highway": "bus_stop", "operator": "GIE;Dakar Dem Dikk", "public_transport": "platform", "shelter": "no"}}, {"type": "node", "id": 2637255107, "lat": 14.7042938, "lon": -17.4575411, "tags": {"bus": "yes", "highway": "bus_stop", "operator": "dakar-dem-dikk", "public_transport": "platform", "source": "survey"}}, {"type": "node", "id": 2637255966, "lat": 14.7055553, "lon": -17.4523011, "tags": {"bench": "yes", "bus": "yes", "highway": "bus_stop", "operator": "Dakar-dem-dikk", "public_transport": "platform", "shelter": "yes", "source": "survey"}}, {"type": "node", "id": 2637258856, "lat": 14.7012781, "lon": -17.4549957, "tags": {"bus": "yes", "highway": "bus_stop", "operator": "dakar-dem-dikk", "public_transport": "platform", "source": "survey"}}, {"type": "node", "id": 2637268039, "lat": 14.7021634, "lon": -17.4525377, "tags": {"bus": "yes", "highway": "bus_stop", "public_transport": "platform", "source": "survey"}}, {"type": "node", "id": 3060110541, "lat": 14.7236436, "lon": -17.5014671, "tags": {"bus": "yes", "highway": "bus_stop", "name": "Phare de Mamelle", "public_transport": "platform"}}, {"type": "node", "id": 3186318883, "lat": 14.7014188, "lon": -17.4471638, "tags": {"bus": "yes", "highway": "bus_stop", "operator": "Dakar-Dem-Dikk", "public_transport": "platform", "source": "bing"}}, {"type": "node", "id": 3199922809, "lat": 14.6977347, "lon": -17.450698, "tags": {"bus": "yes", "highway": "bus_stop", "operator": "GIE", "public_transport": "platform"}}, {"type": "node", "id": 3199922810, "lat": 14.6984171, "lon": -17.4479317, "tags": {"bus": "yes", "highway": "bus_stop", "operator": "GIE", "public_transport": "platform"}}, {"type": "node", "id": 3199922812, "lat": 14.6995536, "lon": -17.4472839, "tags": {"bus": "yes", "highway": "bus_stop", "operator": "GIE", "public_transport": "platform"}}, {"type": "node", "id": 3199922813, "lat": 14.7006501, "lon": -17.4544693, "tags": {"bus": "yes", "highway": "bus_stop", "name": "Tata", "operator": "GIE", "public_transport": "platform", "route_ref": "31"}}, {"type": "node", "id": 3199922815, "lat": 14.7026421, "lon": -17.4488622, "tags": {"bus": "yes", "highway": "bus_stop", "operator": "GIE", "public_transport": "platform"}}, {"type": "node", "id": 3199928566, "lat": 14.7067171, "lon": -17.4559933, "tags": {"bus": "yes", "highway": "bus_stop", "operator": "GIE", "public_transport": "platform"}}, {"type": "node", "id": 3199928567, "lat": 14.7070008, "lon": -17.456851, "tags": {"bus": "yes", "highway": "bus_stop", "operator": "GIE", "public_transport": "platform"}}, {"type": "node", "id": 3199928568, "lat": 14.7074884, "lon": -17.4559187, "tags": {"bus": "yes", "highway": "bus_stop", "operator": "GIE", "public_transport": "platform"}}, {"type": "node", "id": 3199928570, "lat": 14.708663, "lon": -17.4574433, "tags": {"bus": "yes", "highway": "bus_stop", "operator": "GIE", "public_transport": "platform"}}, {"type": "node", "id": 3199931294, "lat": 14.706142, "lon": -17.452489, "tags": {"bus": "yes", "highway": "bus_stop", "operator": "GIE", "public_transport": "platform"}}, {"type": "node", "id": 3199931295, "lat": 14.7075387, "lon": -17.4529878, "tags": {"bus": "yes", "highway": "bus_stop", "operator": "GIE", "public_transport": "platform"}}, {"type": "node", "id": 3199931296, "lat": 14.7079316, "lon": -17.4543464, "tags": {"bus": "yes", "highway": "bus_stop", "operator": "GIE", "public_transport": "platform"}}, {"type": "node", "id": 3199931297, "lat": 14.7080787, "lon": -17.4542405, "tags": {"bus": "yes", "highway": "bus_stop", "operator": "GIE", "public_transport": "platform"}}, {"type": "node", "id": 3199931298, "lat": 14.708996, "lon": -17.4534683, "tags": {"bus": "yes", "highway": "bus_stop", "operator": "GIE;Dakar Dem Dikk", "public_transport": "platform", "shelter": "no"}}, {"type": "node", "id": 3199933230, "lat": 14.7025765, "lon": -17.4554898, "tags": {"bus": "yes", "highway": "bus_stop", "operator": "GIE", "public_transport": "platform"}}, {"type": "node", "id": 3199933231, "lat": 14.7032098, "lon": -17.4559026, "tags": {"bus": "yes", "highway": "bus_stop", "operator": "GIE", "public_transport": "platform"}}, {"type": "node", "id": 3199933232, "lat": 14.7036683, "lon": -17.4570292, "tags": {"bus": "yes", "highway": "bus_stop", "operator": "GIE;Dakar Dem Dikk", "public_transport": "platform"}}, {"type": "node", "id": 3199933233, "lat": 14.7042836, "lon": -17.4553617, "tags": {"bus": "yes", "highway": "bus_stop", "operator": "GIE", "public_transport": "platform"}}, {"type": "node", "id": 3199933234, "lat": 14.7044691, "lon": -17.4522851, "tags": {"bus": "yes", "highway": "bus_stop", "operator": "GIE", "public_transport": "platform"}}, {"type": "node", "id": 3199933235, "lat": 14.7056742, "lon": -17.4555895, "tags": {"bus": "yes", "highway": "bus_stop", "operator": "GIE", "public_transport": "platform"}}, {"type": "node", "id": 3199933859, "lat": 14.7040021, "lon": -17.4512874, "tags": {"bus": "yes", "highway": "bus_stop", "operator": "GIE", "public_transport": "platform"}}, {"type": "node", "id": 3199936046, "lat": 14.7115201, "lon": -17.4543279, "tags": {"bus": "yes", "highway": "bus_stop", "operator": "GIE", "public_transport": "platform"}}, {"type": "node", "id": 3199936047, "lat": 14.7119901, "lon": -17.4557081, "tags": {"bus": "yes", "highway": "bus_stop", "name": "Arr\u00eat bus AFTU", "operator": "GIE", "public_transport": "platform"}}, {"type": "node", "id": 3202927798, "lat": 14.7175347, "lon": -17.4862242, "tags": {"bus": "yes", "highway": "bus_stop", "public_transport": "platform"}}, {"type": "node", "id": 3434206994, "lat": 14.7269246, "lon": -17.5012368, "tags": {"bench": "yes", "bus": "yes", "highway": "bus_stop", "name": "Arret bus Mamelles", "network": "Dakar Dem Dikk", "operator": "Dakar Dem Dikk", "public_transport": "platform", "shelter": "yes"}}, {"type": "node", "id": 3473319955, "lat": 14.6848608, "lon": -17.4403545, "tags": {"bus": "yes", "highway": "bus_stop", "name": "Gare Routi\u00e8re \"Les Pompiers\"", "public_transport": "platform"}}, {"type": "node", "id": 3564577821, "lat": 14.719558, "lon": -17.4654392, "tags": {"addr:street": "boulevard du Kowe\u00eft", "bus": "yes", "highway": "bus_stop", "opening_hours": "06:00-21:00", "public_transport": "platform"}}, {"type": "node", "id": 3663505260, "lat": 14.7138547, "lon": -17.4716615, "tags": {"bus": "yes", "highway": "bus_stop", "public_transport": "stop_position"}}, {"type": "node", "id": 3663999733, "lat": 14.7204755, "lon": -17.4872961, "tags": {"bus": "yes", "highway": "bus_stop", "note": "lignes 3,42,44", "public_transport": "stop_position"}}, {"type": "node", "id": 3664240558, "lat": 14.6930828, "lon": -17.4619718, "tags": {"bus": "yes", "highway": "bus_stop", "public_transport": "stop_position"}}, {"type": "node", "id": 3700784824, "lat": 14.7056399, "lon": -17.4699807, "tags": {"bus": "yes", "highway": "bus_stop", "public_transport": "platform"}}, {"type": "node", "id": 3962190626, "lat": 14.7465592, "lon": -17.4085046, "tags": {"bus": "yes", "highway": "bus_stop", "public_transport": "platform"}}, {"type": "node", "id": 3962190808, "lat": 14.7468568, "lon": -17.4081537, "tags": {"bus": "yes", "highway": "bus_stop", "public_transport": "platform"}}, {"type": "node", "id": 3962630677, "lat": 14.675201, "lon": -17.4533282, "tags": {"bench": "yes", "bin": "no", "highway": "bus_stop", "shelter": "yes"}}, {"type": "node", "id": 3965135057, "lat": 14.7193278, "lon": -17.4714819, "tags": {"bench": "yes", "bin": "no", "bus": "yes", "highway": "bus_stop", "public_transport": "platform", "shelter": "yes"}}, {"type": "node", "id": 4044836611, "lat": 14.7399054, "lon": -17.4717838, "tags": {"highway": "bus_stop", "public_transport": "stop_position"}}, {"type": "node", "id": 4044837299, "lat": 14.7400525, "lon": -17.4714484, "tags": {"highway": "bus_stop", "public_transport": "stop_position"}}, {"type": "node", "id": 4044890993, "lat": 14.7398644, "lon": -17.4687826, "tags": {"bus": "yes", "highway": "bus_stop", "public_transport": "platform"}}, {"type": "node", "id": 4044891090, "lat": 14.7295953, "lon": -17.4580511, "tags": {"bus": "yes", "departures_board": "no", "highway": "bus_stop", "name": "Arr\u00eat de Bus Tata", "network": "AFTU", "public_transport": "platform"}}, {"type": "node", "id": 4044891091, "lat": 14.7377609, "lon": -17.465412, "tags": {"bus": "yes", "highway": "bus_stop", "public_transport": "platform"}}, {"type": "node", "id": 4044891189, "lat": 14.7381593, "lon": -17.4657239, "tags": {"bus": "yes", "highway": "bus_stop", "public_transport": "platform"}}, {"type": "node", "id": 4209977299, "lat": 14.7596385, "lon": -17.4527135, "tags": {"highway": "bus_stop", "name": "terminus Diamalaye", "network": "TATA", "source": "survey 2014"}}, {"type": "node", "id": 4223949589, "lat": 14.7076639, "lon": -17.4347978, "tags": {"bench": "no", "bus": "yes", "highway": "bus_stop", "network": "Dakar Dem Dikk", "operator": "Dakar Dem Dikk", "public_transport": "platform", "route_ref": "15;16B", "shelter": "no"}}, {"type": "node", "id": 4223949590, "lat": 14.7106466, "lon": -17.4339806, "tags": {"bus": "yes", "highway": "bus_stop", "network": "Dakar Dem Dikk", "operator": "Dakar Dem Dikk", "public_transport": "platform", "route_ref": "15;16B", "shelter": "no"}}, {"type": "node", "id": 4223949591, "lat": 14.7128526, "lon": -17.4336301, "tags": {"bus": "yes", "highway": "bus_stop", "network": "Dakar Dem Dikk", "operator": "Dakar Dem Dikk", "public_transport": "platform", "route_ref": "15;16B", "shelter": "no"}}, {"type": "node", "id": 4223949593, "lat": 14.7195663, "lon": -17.4336302, "tags": {"bench": "no", "bus": "yes", "highway": "bus_stop", "network": "Dakar Dem Dikk", "operator": "Dakar Dem Dikk", "public_transport": "platform", "route_ref": "12", "shelter": "no"}}, {"type": "node", "id": 4223949594, "lat": 14.7209181, "lon": -17.4350831, "tags": {"bus": "yes", "highway": "bus_stop", "network": "Dakar Dem Dikk", "operator": "Dakar Dem Dikk", "public_transport": "platform", "route_ref": "12", "shelter": "no"}}, {"type": "node", "id": 4223949596, "lat": 14.7222751, "lon": -17.4366184, "tags": {"bench": "no", "bus": "yes", "highway": "bus_stop", "name": "Arret DDD", "network": "Dakar Dem Dikk", "operator": "Dakar Dem Dikk", "public_transport": "platform", "route_ref": "12", "shelter": "no"}}, {"type": "node", "id": 4223949598, "lat": 14.7243785, "lon": -17.4378165, "tags": {"bench": "no", "bus": "yes", "highway": "bus_stop", "network": "Dakar Dem Dikk", "operator": "Dakar Dem Dikk", "public_transport": "platform", "route_ref": "232", "shelter": "no"}}, {"type": "node", "id": 4223949599, "lat": 14.7256872, "lon": -17.4294771, "tags": {"bus": "yes", "highway": "bus_stop", "name": "Arret DDD", "network": "Dakar Dem Dikk", "operator": "Dakar Dem Dikk", "public_transport": "platform", "route_ref": "12;15;16B", "shelter": "no"}}, {"type": "node", "id": 4223959275, "lat": 14.7029501, "lon": -17.4361645, "tags": {"bench": "no", "bus": "yes", "highway": "bus_stop", "network": "Dakar Dem Dikk", "operator": "Dakar Dem Dikk", "public_transport": "platform", "route_ref": "15;16B", "shelter": "no", "tram": "no"}}, {"type": "node", "id": 4223959276, "lat": 14.7076185, "lon": -17.4349135, "tags": {"bench": "no", "bus": "yes", "highway": "bus_stop", "network": "Dakar Dem Dikk", "operator": "Dakar Dem Dikk", "public_transport": "platform", "route_ref": "15;16B", "shelter": "no"}}, {"type": "node", "id": 4223959277, "lat": 14.7128794, "lon": -17.4338033, "tags": {"bus": "yes", "highway": "bus_stop", "network": "Dakar Dem Dikk", "operator": "Dakar Dem Dikk", "public_transport": "platform", "route_ref": "15;16B", "shelter": "no"}}, {"type": "node", "id": 4223959278, "lat": 14.7198561, "lon": -17.4323356, "tags": {"bench": "no", "bus": "yes", "highway": "bus_stop", "network": "Dakar Dem Dikk", "operator": "Dakar Dem Dikk", "public_transport": "platform", "route_ref": "12;15;16B", "shelter": "no", "tram": "no"}}, {"type": "node", "id": 4223959279, "lat": 14.7204872, "lon": -17.434832, "tags": {"bench": "no", "bus": "yes", "highway": "bus_stop", "network": "Dakar Dem Dikk", "operator": "Dakar Dem Dikk", "public_transport": "platform", "route_ref": "12", "shelter": "no"}}, {"type": "node", "id": 4223959280, "lat": 14.7233694, "lon": -17.43082, "tags": {"bench": "no", "bus": "yes", "highway": "bus_stop", "network": "Dakar Dem Dikk", "operator": "Dakar Dem Dikk", "public_transport": "platform", "route_ref": "12;15;16B", "shelter": "no"}}, {"type": "node", "id": 4223959281, "lat": 14.720335, "lon": -17.4377619, "tags": {"bus": "yes", "highway": "bus_stop", "network": "Dakar Dem Dikk", "operator": "Dakar Dem Dikk", "public_transport": "platform", "route_ref": "12", "tram": "no"}}, {"type": "node", "id": 4223959282, "lat": 14.7243431, "lon": -17.4379887, "tags": {"bench": "no", "bus": "yes", "highway": "bus_stop", "network": "Dakar Dem Dikk", "operator": "Dakar Dem Dikk", "public_transport": "platform", "route_ref": "232", "share_taxi": "yes", "shelter": "no"}}, {"type": "node", "id": 4223959283, "lat": 14.7309525, "lon": -17.4238241, "tags": {"bench": "no", "bus": "yes", "highway": "bus_stop", "network": "Dakar Dem Dikk", "operator": "Dakar Dem Dikk", "public_transport": "platform", "route_ref": "12;15;16B", "shelter": "no"}}, {"type": "node", "id": 4223959284, "lat": 14.7331418, "lon": -17.4202466, "tags": {"bus": "yes", "highway": "bus_stop", "network": "Dakar Dem Dikk", "operator": "Dakar Dem Dikk", "public_transport": "platform", "route_ref": "12;15;16B", "shelter": "no"}}, {"type": "node", "id": 4234120889, "lat": 14.7209996, "lon": -17.4317379, "tags": {"bus": "yes", "highway": "bus_stop", "network": "Dakar Dem Dikk", "operator": "Dakar Dem Dikk", "public_transport": "platform", "route_ref": "12;15;16B", "shelter": "no"}}, {"type": "node", "id": 4234120892, "lat": 14.7297491, "lon": -17.4255391, "tags": {"bus": "yes", "highway": "bus_stop", "network": "Dakar Dem Dikk", "operator": "Dakar Dem Dikk", "public_transport": "platform", "route_ref": "12;15;16B", "shelter": "no"}}, {"type": "node", "id": 4234120893, "lat": 14.7309057, "lon": -17.4235858, "tags": {"bus": "yes", "highway": "bus_stop", "network": "Dakar Dem Dikk", "operator": "Dakar Dem Dikk", "public_transport": "platform", "route_ref": "12;15;16B", "shelter": "no"}}, {"type": "node", "id": 4234120894, "lat": 14.7335351, "lon": -17.4191894, "tags": {"bus": "yes", "highway": "bus_stop", "network": "Dakar Dem Dikk", "operator": "Dakar Dem Dikk", "public_transport": "platform", "route_ref": "12;15;16B;232", "shelter": "no"}}, {"type": "node", "id": 4234120895, "lat": 14.7354486, "lon": -17.4161783, "tags": {"bus": "yes", "highway": "bus_stop", "name": "Yarakh", "network": "Dakar Dem Dikk", "operator": "Dakar Dem Dikk", "public_transport": "platform", "route_ref": "12;15;16B;232", "shelter": "no"}}, {"type": "node", "id": 4234120896, "lat": 14.7355984, "lon": -17.4162012, "tags": {"bus": "yes", "highway": "bus_stop", "name": "Yarakh", "network": "Dakar Dem Dikk", "operator": "Dakar Dem Dikk", "public_transport": "platform", "route_ref": "12;15;16B;232", "shelter": "no"}}, {"type": "node", "id": 4241761696, "lat": 14.7605525, "lon": -17.4295313, "tags": {"bus": "yes", "highway": "bus_stop", "name": "gare serigne mourtala", "public_transport": "platform", "shelter": "yes", "wheelchair": "no"}}, {"type": "node", "id": 4258281389, "lat": 14.7000011, "lon": -17.4687975, "tags": {"bus": "yes", "highway": "bus_stop", "public_transport": "platform"}}, {"type": "node", "id": 4305613595, "lat": 14.7123449, "lon": -17.4555452, "tags": {"bus": "yes", "highway": "bus_stop", "name": "Arr\u00eat bus AFTU", "public_transport": "platform"}}, {"type": "node", "id": 4305613596, "lat": 14.7103599, "lon": -17.4535166, "tags": {"bus": "yes", "highway": "bus_stop", "name": "Dakar Dem Dikk", "operator": "P9  P6", "public_transport": "platform"}}, {"type": "node", "id": 4323807978, "lat": 14.7270333, "lon": -17.4829157, "tags": {"bus": "yes", "highway": "bus_stop", "network": "Dakar Dem Dikk", "operator": "Dakar Dem Dikk", "public_transport": "platform", "shelter": "no", "source": "bing;survey"}}, {"type": "node", "id": 4323807979, "lat": 14.7271022, "lon": -17.4831566, "tags": {"bench": "yes", "bus": "yes", "highway": "bus_stop", "network": "Dakar Dem Dikk", "operator": "Dakar Dem Dikk", "public_transport": "platform", "shelter": "yes", "source": "bing;survey"}}, {"type": "node", "id": 4323807980, "lat": 14.7273725, "lon": -17.485296, "tags": {"bus": "yes", "highway": "bus_stop", "network": "Dakar Dem Dikk", "operator": "Dakar Dem Dikk", "public_transport": "platform", "shelter": "no", "source": "bing;survey"}}, {"type": "node", "id": 4323807981, "lat": 14.727429, "lon": -17.4852022, "tags": {"bus": "yes", "highway": "bus_stop", "network": "Dakar Dem Dikk", "operator": "Dakar Dem Dikk", "public_transport": "platform", "shelter": "no", "source": "bing;survey"}}, {"type": "node", "id": 4323807982, "lat": 14.7275147, "lon": -17.4504501, "tags": {"highway": "bus_stop", "network": "Dakar Dem Dikk", "operator": "Dakar Dem Dikk", "public_transport": "platform", "shelter": "no", "source": "bing;survey"}}, {"type": "node", "id": 4323807983, "lat": 14.7277439, "lon": -17.4881273, "tags": {"bus": "yes", "highway": "bus_stop", "network": "Dakar Dem Dikk", "operator": "Dakar Dem Dikk", "public_transport": "platform", "shelter": "no", "source": "bing;survey"}}, {"type": "node", "id": 4323807984, "lat": 14.728102, "lon": -17.4879707, "tags": {"bus": "yes", "highway": "bus_stop", "network": "Dakar Dem Dikk", "operator": "Dakar Dem Dikk", "public_transport": "platform", "shelter": "no", "source": "bing;survey"}}, {"type": "node", "id": 4323807985, "lat": 14.7281273, "lon": -17.4531514, "tags": {"bus": "yes", "highway": "bus_stop", "name": "Arr\u00eat Limite Khar YALLA", "network": "Dakar Dem Dikk", "operator": "Dakar Dem Dikk", "public_transport": "platform", "ref": "Ligne 23", "shelter": "no", "source": "bing;survey"}}, {"type": "node", "id": 4323807986, "lat": 14.7292485, "lon": -17.4463871, "tags": {"bus": "yes", "highway": "bus_stop", "network": "Dakar Dem Dikk", "operator": "Dakar Dem Dikk", "public_transport": "platform", "shelter": "no", "source": "bing;survey"}}, {"type": "node", "id": 4323807987, "lat": 14.7293903, "lon": -17.491141, "tags": {"bus": "yes", "highway": "bus_stop", "network": "Dakar Dem Dikk", "operator": "Dakar Dem Dikk", "public_transport": "platform", "shelter": "no", "source": "bing;survey"}}, {"type": "node", "id": 4323807988, "lat": 14.7296843, "lon": -17.4925647, "tags": {"bus": "yes", "highway": "bus_stop", "network": "Dakar Dem Dikk", "operator": "Dakar Dem Dikk", "public_transport": "platform", "shelter": "no", "source": "bing;survey"}}, {"type": "node", "id": 4323838489, "lat": 14.7296803, "lon": -17.4582078, "tags": {"bench": "no", "bin": "no", "bus": "yes", "check_date:shelter": "2023-07-04", "highway": "bus_stop", "network": "Dakar Dem Dikk", "operator": "Dakar Dem Dikk", "public_transport": "platform", "shelter": "no", "source": "bing;survey"}}, {"type": "node", "id": 4323838490, "lat": 14.7299174, "lon": -17.4579721, "tags": {"highway": "bus_stop", "network": "Dakar Dem Dikk", "operator": "Dakar Dem Dikk", "public_transport": "platform", "shelter": "no", "source": "bing;survey"}}, {"type": "node", "id": 4323838491, "lat": 14.7304528, "lon": -17.4464314, "tags": {"bus": "yes", "highway": "bus_stop", "network": "Dakar Dem Dikk", "operator": "Dakar Dem Dikk", "public_transport": "platform", "shelter": "no"}}, {"type": "node", "id": 4323838492, "lat": 14.73069, "lon": -17.4947442, "tags": {"bus": "yes", "highway": "bus_stop", "network": "Dakar Dem Dikk", "operator": "Dakar Dem Dikk", "public_transport": "platform", "shelter": "no", "source": "bing;survey"}}, {"type": "node", "id": 4323838493, "lat": 14.7308875, "lon": -17.4565734, "tags": {"bus": "yes", "highway": "bus_stop", "name": "Arret Rond Point 6", "network": "Dakar Dem Dikk", "operator": "Dakar Dem Dikk", "public_transport": "platform", "ref": "Ligne 23", "shelter": "no", "source": "bing;survey"}}, {"type": "node", "id": 4323838494, "lat": 14.7310037, "lon": -17.4936008, "tags": {"bus": "yes", "highway": "bus_stop", "network": "Dakar Dem Dikk", "operator": "Dakar Dem Dikk", "public_transport": "platform", "shelter": "no", "source": "bing;survey"}}, {"type": "node", "id": 4323838495, "lat": 14.7311092, "lon": -17.4566575, "tags": {"bus": "yes", "highway": "bus_stop", "name": "Arr\u00eat Khar Yalla", "network": "Dakar Dem Dikk", "operator": "Dakar Dem Dikk", "public_transport": "platform", "ref": "Ligne 23", "shelter": "no", "source": "bing;survey"}}, {"type": "node", "id": 4323838496, "lat": 14.7316664, "lon": -17.4951195, "tags": {"bus": "yes", "highway": "bus_stop", "network": "Dakar Dem Dikk", "operator": "Dakar Dem Dikk", "public_transport": "platform", "shelter": "no", "source": "bing;survey"}}, {"type": "node", "id": 4323838497, "lat": 14.7317885, "lon": -17.4594349, "tags": {"bus": "yes", "highway": "bus_stop", "network": "Dakar Dem Dikk", "operator": "Dakar Dem Dikk", "public_transport": "platform", "shelter": "no", "source": "bing;survey"}}, {"type": "node", "id": 4323838498, "lat": 14.7319838, "lon": -17.4600071, "tags": {"bench": "no", "bin": "no", "bus": "yes", "check_date:bench": "2023-07-04", "check_date:shelter": "2023-07-04", "highway": "bus_stop", "network": "Dakar Dem Dikk", "operator": "Dakar Dem Dikk", "public_transport": "platform", "shelter": "no", "source": "bing;survey"}}, {"type": "node", "id": 4323838499, "lat": 14.7323064, "lon": -17.446184, "tags": {"bench": "yes", "bus": "yes", "highway": "bus_stop", "network": "Dakar Dem Dikk", "operator": "Dakar Dem Dikk", "public_transport": "platform", "shelter": "yes", "source": "bing;survey"}}, {"type": "node", "id": 4323838500, "lat": 14.73247, "lon": -17.4462797, "tags": {"bus": "yes", "highway": "bus_stop", "network": "Dakar Dem Dikk", "operator": "Dakar Dem Dikk", "public_transport": "platform", "shelter": "no"}}, {"type": "node", "id": 4323838501, "lat": 14.7324566, "lon": -17.4929819, "tags": {"bench": "yes", "bus": "yes", "highway": "bus_stop", "network": "Dakar Dem Dikk", "operator": "Dakar Dem Dikk", "public_transport": "platform", "shelter": "yes", "source": "bing;survey"}}, {"type": "node", "id": 4323838502, "lat": 14.7336896, "lon": -17.4613669, "tags": {"bench": "yes", "bin": "no", "bus": "yes", "highway": "bus_stop", "network": "Dakar Dem Dikk", "operator": "Dakar Dem Dikk", "public_transport": "platform", "shelter": "no", "source": "bing;survey"}}, {"type": "node", "id": 4323838503, "lat": 14.7339096, "lon": -17.4460673, "tags": {"bus": "yes", "highway": "bus_stop", "network": "Dakar Dem Dikk", "operator": "Dakar Dem Dikk", "public_transport": "platform", "shelter": "no"}}, {"type": "node", "id": 4323838504, "lat": 14.7342296, "lon": -17.461321, "tags": {"bus": "yes", "highway": "bus_stop", "network": "Dakar Dem Dikk", "operator": "Dakar Dem Dikk", "public_transport": "platform", "shelter": "no", "source": "bing;survey"}}, {"type": "node", "id": 4323838505, "lat": 14.7345017, "lon": -17.4461626, "tags": {"bus": "yes", "highway": "bus_stop", "network": "Dakar Dem Dikk", "operator": "Dakar Dem Dikk", "public_transport": "platform", "shelter": "no"}}, {"type": "node", "id": 4323838506, "lat": 14.7346495, "lon": -17.508795, "tags": {"bus": "yes", "highway": "bus_stop", "network": "Dakar Dem Dikk", "operator": "Dakar Dem Dikk", "public_transport": "platform", "shelter": "no", "source": "bing;survey"}}, {"type": "node", "id": 4323838507, "lat": 14.7348828, "lon": -17.4730452, "tags": {"bench": "yes", "highway": "bus_stop", "network": "Dakar Dem Dikk", "operator": "Dakar Dem Dikk", "public_transport": "platform", "shelter": "yes", "source": "bing;survey"}}, {"type": "node", "id": 4323838508, "lat": 14.7351706, "lon": -17.4560045, "tags": {"bus": "yes", "highway": "bus_stop", "network": "Dakar Dem Dikk", "operator": "Dakar Dem Dikk", "public_transport": "platform", "shelter": "no", "source": "bing;survey"}}, {"type": "node", "id": 4323838509, "lat": 14.7351958, "lon": -17.4615452, "tags": {"bus": "yes", "highway": "bus_stop", "network": "Dakar Dem Dikk", "operator": "Dakar Dem Dikk", "public_transport": "platform", "ref": "L 121", "shelter": "no", "source": "survey;bing;Dakar Dem Dikk"}}, {"type": "node", "id": 4323838510, "lat": 14.735423, "lon": -17.5087949, "tags": {"bus": "yes", "highway": "bus_stop", "network": "Dakar Dem Dikk", "operator": "Dakar Dem Dikk", "public_transport": "platform", "shelter": "no", "source": "bing;survey"}}, {"type": "node", "id": 4323838511, "lat": 14.7354522, "lon": -17.455744, "tags": {"bus": "yes", "highway": "bus_stop", "name": "Arr\u00eat Credit Mutuel", "network": "Dakar Dem Dikk", "operator": "Dakar Dem Dikk", "public_transport": "platform", "ref": "Ligne 23", "shelter": "no", "source": "bing;survey"}}, {"type": "node", "id": 4323838512, "lat": 14.7357947, "lon": -17.4733169, "tags": {"highway": "bus_stop", "network": "Dakar Dem Dikk", "operator": "Dakar Dem Dikk", "public_transport": "platform", "shelter": "no", "source": "bing;survey"}}, {"type": "node", "id": 4323838513, "lat": 14.735806, "lon": -17.4609084, "tags": {"bus": "yes", "highway": "bus_stop", "network": "Dakar Dem Dikk", "operator": "Dakar Dem Dikk", "public_transport": "platform", "shelter": "no", "source": "bing;survey"}}, {"type": "node", "id": 4323838514, "lat": 14.7367457, "lon": -17.4452548, "tags": {"bus": "yes", "highway": "bus_stop", "network": "Dakar Dem Dikk", "operator": "Dakar Dem Dikk", "public_transport": "platform", "shelter": "no"}}, {"type": "node", "id": 4323838515, "lat": 14.7367617, "lon": -17.4450984, "tags": {"highway": "bus_stop", "network": "Dakar Dem Dikk", "operator": "Dakar Dem Dikk", "public_transport": "platform", "shelter": "no"}}, {"type": "node", "id": 4323838516, "lat": 14.7377573, "lon": -17.4656438, "tags": {"bench": "no", "bin": "no", "bus": "yes", "check_date:shelter": "2023-07-04", "highway": "bus_stop", "network": "Dakar Dem Dikk", "operator": "Dakar Dem Dikk", "public_transport": "platform", "shelter": "no", "source": "bing;survey"}}, {"type": "node", "id": 4323838517, "lat": 14.7381489, "lon": -17.4655507, "tags": {"bench": "yes", "bus": "yes", "highway": "bus_stop", "network": "Dakar Dem Dikk", "operator": "Dakar Dem Dikk", "public_transport": "platform", "shelter": "yes", "source": "bing;survey"}}, {"type": "node", "id": 4323838518, "lat": 14.7382712, "lon": -17.4590123, "tags": {"bus": "yes", "highway": "bus_stop", "network": "Dakar Dem Dikk", "operator": "Dakar Dem Dikk", "public_transport": "platform", "ref": "L 121", "shelter": "no", "source": "bing;survey"}}, {"type": "node", "id": 4323838519, "lat": 14.7381756, "lon": -17.4589334, "tags": {"highway": "bus_stop", "network": "Dakar Dem Dikk", "operator": "Dakar Dem Dikk", "public_transport": "platform", "shelter": "no", "source": "bing;survey"}}, {"type": "node", "id": 4323838520, "lat": 14.7384341, "lon": -17.4433343, "tags": {"highway": "bus_stop", "network": "Dakar Dem Dikk", "operator": "Dakar Dem Dikk", "public_transport": "platform", "shelter": "no", "source": "bing;survey"}}, {"type": "node", "id": 4323838521, "lat": 14.7384641, "lon": -17.4431547, "tags": {"highway": "bus_stop", "network": "Dakar Dem Dikk", "operator": "Dakar Dem Dikk", "public_transport": "platform", "shelter": "no", "source": "bing;survey"}}, {"type": "node", "id": 4323838522, "lat": 14.7387536, "lon": -17.4541104, "tags": {"bus": "yes", "highway": "bus_stop", "name": "Arr\u00eat Sen Carreaux 2000", "network": "Dakar Dem Dikk", "operator": "Dakar Dem Dikk", "public_transport": "platform", "ref": "Ligne 23", "shelter": "no", "source": "bing;survey"}}, {"type": "node", "id": 4323838523, "lat": 14.7389544, "lon": -17.5100541, "tags": {"bus": "yes", "highway": "bus_stop", "network": "Dakar Dem Dikk", "operator": "Dakar Dem Dikk", "public_transport": "platform", "shelter": "no", "source": "bing;survey"}}, {"type": "node", "id": 4323838524, "lat": 14.7394378, "lon": -17.5101102, "tags": {"bus": "yes", "highway": "bus_stop", "network": "Dakar Dem Dikk", "operator": "Dakar Dem Dikk", "public_transport": "platform", "shelter": "no", "source": "bing;survey"}}, {"type": "node", "id": 4323838525, "lat": 14.7395481, "lon": -17.4686992, "tags": {"bench": "no", "bin": "no", "check_date:shelter": "2023-07-04", "highway": "bus_stop", "network": "Dakar Dem Dikk", "operator": "Dakar Dem Dikk", "public_transport": "platform", "shelter": "no", "source": "bing;survey"}}, {"type": "node", "id": 4323838526, "lat": 14.7396452, "lon": -17.4532981, "tags": {"bus": "yes", "highway": "bus_stop", "name": "Arr\u00eat Mosqu\u00e9e Arafat5", "network": "Dakar Dem Dikk", "operator": "Dakar Dem Dikk", "public_transport": "platform", "ref": "Ligne 23", "shelter": "no", "source": "bing;survey"}}, {"type": "node", "id": 4323838527, "lat": 14.739886, "lon": -17.4686121, "tags": {"highway": "bus_stop", "network": "Dakar Dem Dikk", "operator": "Dakar Dem Dikk", "public_transport": "platform", "shelter": "no", "source": "bing;survey"}}, {"type": "node", "id": 4323838528, "lat": 14.7399196, "lon": -17.4714007, "tags": {"highway": "bus_stop", "network": "Dakar Dem Dikk", "operator": "Dakar Dem Dikk", "public_transport": "platform", "shelter": "no", "source": "bing;survey"}}, {"type": "node", "id": 4323838529, "lat": 14.7401543, "lon": -17.4717586, "tags": {"highway": "bus_stop", "network": "Dakar Dem Dikk", "operator": "Dakar Dem Dikk", "public_transport": "platform", "shelter": "no", "source": "bing;survey"}}, {"type": "node", "id": 4323838530, "lat": 14.7402156, "lon": -17.4573675, "tags": {"bus": "yes", "highway": "bus_stop", "network": "Dakar Dem Dikk", "operator": "Dakar Dem Dikk", "public_transport": "platform", "ref": "L 121", "shelter": "no", "source": "bing;survey"}}, {"type": "node", "id": 4323838531, "lat": 14.7406364, "lon": -17.4568789, "tags": {"bus": "yes", "highway": "bus_stop", "network": "Dakar Dem Dikk", "operator": "Dakar Dem Dikk", "public_transport": "platform", "ref": "L 121", "shelter": "no", "source": "bing;survey"}}, {"type": "node", "id": 4323838532, "lat": 14.7415756, "lon": -17.4514354, "tags": {"highway": "bus_stop", "network": "Dakar Dem Dikk", "operator": "Dakar Dem Dikk", "public_transport": "platform", "shelter": "no", "source": "bing;survey"}}, {"type": "node", "id": 4323838533, "lat": 14.7420478, "lon": -17.450522, "tags": {"bus": "yes", "highway": "bus_stop", "network": "Dakar Dem Dikk", "operator": "Dakar Dem Dikk", "public_transport": "platform", "shelter": "no", "source": "bing;survey"}}, {"type": "node", "id": 4323838534, "lat": 14.7423711, "lon": -17.4502809, "tags": {"highway": "bus_stop", "network": "Dakar Dem Dikk", "operator": "Dakar Dem Dikk", "public_transport": "platform", "shelter": "no", "source": "bing;survey"}}, {"type": "node", "id": 4323838535, "lat": 14.742548, "lon": -17.4553236, "tags": {"highway": "bus_stop", "network": "Dakar Dem Dikk", "operator": "Dakar Dem Dikk", "public_transport": "platform", "ref": "L 121", "shelter": "no", "source": "bing;survey"}}, {"type": "node", "id": 4323838536, "lat": 14.742562, "lon": -17.4428146, "tags": {"highway": "bus_stop", "network": "Dakar Dem Dikk", "operator": "Dakar Dem Dikk", "public_transport": "platform", "shelter": "no", "source": "bing;survey"}}, {"type": "node", "id": 4323838537, "lat": 14.7426107, "lon": -17.4426507, "tags": {"highway": "bus_stop", "network": "Dakar Dem Dikk", "operator": "Dakar Dem Dikk", "public_transport": "platform", "shelter": "no", "source": "bing;survey"}}, {"type": "node", "id": 4323838538, "lat": 14.7427868, "lon": -17.4702049, "tags": {"highway": "bus_stop", "network": "Dakar Dem Dikk", "operator": "Dakar Dem Dikk", "public_transport": "platform", "shelter": "no", "source": "bing;survey"}}, {"type": "node", "id": 4323838539, "lat": 14.742791, "lon": -17.4552786, "tags": {"bus": "yes", "highway": "bus_stop", "network": "Dakar Dem Dikk", "operator": "Dakar Dem Dikk", "public_transport": "platform", "ref": "L 121", "shelter": "no", "source": "bing;survey"}}, {"type": "node", "id": 4323838540, "lat": 14.7428587, "lon": -17.4485287, "tags": {"bus": "yes", "highway": "bus_stop", "network": "Dakar Dem Dikk", "operator": "Dakar Dem Dikk", "public_transport": "platform", "shelter": "no", "source": "bing;survey"}}, {"type": "node", "id": 4323838541, "lat": 14.7430073, "lon": -17.4435518, "tags": {"bench": "no", "bin": "no", "bus": "yes", "highway": "bus_stop", "name": "ARRET JARDIN PATTE D'OIE", "network": "Dakar Dem Dikk", "operator": "Dakar Dem Dikk", "public_transport": "platform", "ref": "L5", "shelter": "no", "source": "bing;survey"}}, {"type": "node", "id": 4323838542, "lat": 14.743365, "lon": -17.4437747, "tags": {"bench": "no", "bus": "yes", "highway": "bus_stop", "name": "ARRET JARDIN PATTE D'OIE", "network": "Dakar Dem Dikk", "operator": "Dakar Dem Dikk", "public_transport": "platform", "ref": "L5", "shelter": "no", "source": "bing;survey"}}, {"type": "node", "id": 4323838543, "lat": 14.7443194, "lon": -17.4512197, "tags": {"bus": "yes", "highway": "bus_stop", "network": "Dakar Dem Dikk", "operator": "Dakar Dem Dikk", "public_transport": "platform", "shelter": "no"}}, {"type": "node", "id": 4323838544, "lat": 14.744412, "lon": -17.4501218, "tags": {"bench": "yes", "bus": "yes", "highway": "bus_stop", "network": "Dakar Dem Dikk", "operator": "Dakar Dem Dikk", "public_transport": "platform", "shelter": "yes", "source": "bing;survey"}}, {"type": "node", "id": 4323838545, "lat": 14.7449, "lon": -17.4690971, "tags": {"bench": "yes", "bin": "no", "highway": "bus_stop", "network": "Dakar Dem Dikk", "operator": "Dakar Dem Dikk", "public_transport": "platform", "shelter": "yes", "source": "bing;survey"}}, {"type": "node", "id": 4323838546, "lat": 14.7446856, "lon": -17.5123799, "tags": {"bus": "yes", "highway": "bus_stop", "network": "Dakar Dem Dikk", "operator": "Dakar Dem Dikk", "public_transport": "platform", "shelter": "no", "source": "bing;survey"}}, {"type": "node", "id": 4323838547, "lat": 14.7447118, "lon": -17.5123566, "tags": {"bus": "yes", "highway": "bus_stop", "network": "Dakar Dem Dikk", "operator": "Dakar Dem Dikk", "public_transport": "platform", "shelter": "no", "source": "bing;survey"}}, {"type": "node", "id": 4323838548, "lat": 14.7449696, "lon": -17.4552925, "tags": {"bus": "yes", "highway": "bus_stop", "network": "Dakar Dem Dikk", "operator": "Dakar Dem Dikk", "public_transport": "platform", "shelter": "no"}}, {"type": "node", "id": 4323838549, "lat": 14.7451462, "lon": -17.4547695, "tags": {"highway": "bus_stop", "name": "Telenco", "network": "Dakar Dem Dikk", "operator": "Dakar Dem Dikk", "public_transport": "platform", "shelter": "no", "source": "bing;survey"}}, {"type": "node", "id": 4323838550, "lat": 14.7460636, "lon": -17.443079, "tags": {"bus": "yes", "highway": "bus_stop", "network": "Dakar Dem Dikk", "operator": "Dakar Dem Dikk", "public_transport": "platform", "shelter": "no", "source": "bing;survey"}}, {"type": "node", "id": 4323838551, "lat": 14.746175, "lon": -17.4668121, "tags": {"bench": "yes", "highway": "bus_stop", "network": "Dakar Dem Dikk", "operator": "Dakar Dem Dikk", "public_transport": "platform", "shelter": "yes", "source": "bing;survey"}}, {"type": "node", "id": 4323838552, "lat": 14.746366, "lon": -17.5095772, "tags": {"bus": "yes", "highway": "bus_stop", "network": "Dakar Dem Dikk", "operator": "Dakar Dem Dikk", "public_transport": "platform", "shelter": "no", "source": "bing;survey"}}, {"type": "node", "id": 4323838553, "lat": 14.7465748, "lon": -17.5131596, "tags": {"bus": "yes", "highway": "bus_stop", "network": "Dakar Dem Dikk", "operator": "Dakar Dem Dikk", "public_transport": "platform", "shelter": "no", "source": "bing;survey"}}, {"type": "node", "id": 4323838554, "lat": 14.746577, "lon": -17.4662977, "tags": {"bench": "no", "check_date:shelter": "2023-07-04", "highway": "bus_stop", "network": "Dakar Dem Dikk", "operator": "Dakar Dem Dikk", "public_transport": "platform", "shelter": "no", "source": "bing;survey"}}, {"type": "node", "id": 4323838555, "lat": 14.7462716, "lon": -17.4456089, "tags": {"bus": "yes", "highway": "bus_stop", "name": "ARRET CITE MONTAGNE PARCELLES", "network": "Dakar Dem Dikk", "operator": "Dakar Dem Dikk", "public_transport": "platform", "shelter": "no", "source": "bing;survey"}}, {"type": "node", "id": 4323838556, "lat": 14.7469855, "lon": -17.4453966, "tags": {"bus": "yes", "highway": "bus_stop", "name": "ARRET CITE MONTAGNE PARCELLES", "network": "Dakar Dem Dikk", "operator": "Dakar Dem Dikk", "public_transport": "platform", "ref": "L5", "shelter": "no", "source": "bing;survey"}}, {"type": "node", "id": 4323838557, "lat": 14.7481037, "lon": -17.5076943, "tags": {"bus": "yes", "highway": "bus_stop", "network": "Dakar Dem Dikk", "operator": "Dakar Dem Dikk", "public_transport": "platform", "shelter": "no", "source": "bing;survey"}}, {"type": "node", "id": 4323838558, "lat": 14.7481252, "lon": -17.4902804, "tags": {"bench": "no", "bus": "yes", "highway": "bus_stop", "network": "Dakar Dem Dikk", "operator": "Dakar Dem Dikk", "public_transport": "platform", "shelter": "no", "source": "bing;survey"}}, {"type": "node", "id": 4323838559, "lat": 14.7484281, "lon": -17.514309, "tags": {"bus": "yes", "highway": "bus_stop", "network": "Dakar Dem Dikk", "operator": "Dakar Dem Dikk", "public_transport": "platform", "shelter": "no", "source": "bing;survey"}}, {"type": "node", "id": 4323838560, "lat": 14.7485016, "lon": -17.4438396, "tags": {"bus": "yes", "highway": "bus_stop", "name": "ARRET TALLY BOU BESS PARCELLES", "network": "Dakar Dem Dikk", "operator": "Dakar Dem Dikk", "public_transport": "platform", "ref": "L5;L23", "shelter": "no", "source": "bing;survey"}}, {"type": "node", "id": 4323838561, "lat": 14.748502, "lon": -17.4440421, "tags": {"bus": "yes", "highway": "bus_stop", "name": "ARRET TALLY BOU BESS PARCELLES", "network": "Dakar Dem Dikk", "operator": "Dakar Dem Dikk", "public_transport": "platform", "ref": "L5;L23", "shelter": "no", "source": "bing;survey"}}, {"type": "node", "id": 4323838562, "lat": 14.7489545, "lon": -17.4912109, "tags": {"bench": "no", "bin": "no", "bus": "yes", "highway": "bus_stop", "network": "Dakar Dem Dikk", "operator": "Dakar Dem Dikk", "public_transport": "platform", "shelter": "no", "source": "bing;survey"}}, {"type": "node", "id": 4323838563, "lat": 14.7490052, "lon": -17.5065781, "tags": {"bus": "yes", "highway": "bus_stop", "network": "Dakar Dem Dikk", "operator": "Dakar Dem Dikk", "public_transport": "platform", "shelter": "no", "source": "bing;survey"}}, {"type": "node", "id": 4323838564, "lat": 14.7496337, "lon": -17.5050898, "tags": {"bus": "yes", "highway": "bus_stop", "network": "Dakar Dem Dikk", "operator": "Dakar Dem Dikk", "public_transport": "platform", "shelter": "no", "source": "bing;survey"}}, {"type": "node", "id": 4323838565, "lat": 14.7498692, "lon": -17.4472462, "tags": {"bus": "yes", "highway": "bus_stop", "network": "Dakar Dem Dikk", "operator": "Dakar Dem Dikk", "public_transport": "platform", "shelter": "no", "source": "bing;survey"}}, {"type": "node", "id": 4323838567, "lat": 14.7500365, "lon": -17.4476287, "tags": {"bus": "yes", "highway": "bus_stop", "network": "Dakar Dem Dikk", "operator": "Dakar Dem Dikk", "public_transport": "platform", "shelter": "no", "source": "bing;survey"}}, {"type": "node", "id": 4323838568, "lat": 14.7502388, "lon": -17.4578768, "tags": {"bus": "yes", "highway": "bus_stop", "network": "Dakar Dem Dikk", "operator": "Dakar Dem Dikk", "public_transport": "platform", "shelter": "no", "source": "bing;survey"}}, {"type": "node", "id": 4323838569, "lat": 14.7502665, "lon": -17.4493677, "tags": {"bus": "yes", "highway": "bus_stop", "network": "Dakar Dem Dikk", "operator": "Dakar Dem Dikk", "public_transport": "platform", "shelter": "no", "source": "bing;survey"}}, {"type": "node", "id": 4323838570, "lat": 14.7503656, "lon": -17.4574637, "tags": {"bus": "yes", "highway": "bus_stop", "network": "Dakar Dem Dikk", "operator": "Dakar Dem Dikk", "public_transport": "platform", "shelter": "no", "source": "bing;survey"}}, {"type": "node", "id": 4323838571, "lat": 14.7503782, "lon": -17.4406336, "tags": {"bus": "yes", "highway": "bus_stop", "name": "ARRET POLICE PARCELLES", "network": "Dakar Dem Dikk", "operator": "Dakar Dem Dikk", "public_transport": "platform", "ref": "L5;L23", "shelter": "no", "source": "bing;survey"}}, {"type": "node", "id": 4323838572, "lat": 14.7503999, "lon": -17.4410409, "tags": {"bench": "yes", "bus": "yes", "highway": "bus_stop", "name": "ARRET POLICE PARCELLES", "network": "Dakar Dem Dikk", "operator": "Dakar Dem Dikk", "public_transport": "platform", "ref": "L5", "shelter": "yes", "source": "bing;survey"}}, {"type": "node", "id": 4323838573, "lat": 14.7504075, "lon": -17.4496372, "tags": {"bus": "yes", "highway": "bus_stop", "network": "Dakar Dem Dikk", "operator": "Dakar Dem Dikk", "public_transport": "platform", "shelter": "no", "source": "bing;survey"}}, {"type": "node", "id": 4323838574, "lat": 14.750514, "lon": -17.4890139, "tags": {"bench": "no", "bus": "yes", "highway": "bus_stop", "network": "Dakar Dem Dikk", "operator": "Dakar Dem Dikk", "public_transport": "platform", "shelter": "no", "source": "bing;survey"}}, {"type": "node", "id": 4323838576, "lat": 14.7507031, "lon": -17.465075, "tags": {"bus": "yes", "highway": "bus_stop", "network": "Dakar Dem Dikk", "operator": "Dakar Dem Dikk", "public_transport": "platform", "shelter": "no"}}, {"type": "node", "id": 4323838577, "lat": 14.7507912, "lon": -17.4465134, "tags": {"bus": "yes", "highway": "bus_stop", "network": "Dakar Dem Dikk", "operator": "Dakar Dem Dikk", "public_transport": "platform", "shelter": "no", "source": "bing;survey"}}, {"type": "node", "id": 4323838578, "lat": 14.7509898, "lon": -17.4523487, "tags": {"bus": "yes", "highway": "bus_stop", "network": "Dakar Dem Dikk", "operator": "Dakar Dem Dikk", "public_transport": "platform", "shelter": "no", "source": "bing;survey"}}, {"type": "node", "id": 4323838579, "lat": 14.7510573, "lon": -17.4884121, "tags": {"bench": "yes", "bin": "yes", "bus": "yes", "highway": "bus_stop", "network": "Dakar Dem Dikk", "operator": "Dakar Dem Dikk", "public_transport": "platform", "shelter": "yes"}}, {"type": "node", "id": 4323838580, "lat": 14.7510963, "lon": -17.4463771, "tags": {"bus": "yes", "highway": "bus_stop", "network": "Dakar Dem Dikk", "operator": "Dakar Dem Dikk", "public_transport": "platform", "shelter": "no", "source": "bing;survey"}}, {"type": "node", "id": 4323838581, "lat": 14.7513002, "lon": -17.4559995, "tags": {"bus": "yes", "highway": "bus_stop", "network": "Dakar Dem Dikk", "operator": "Dakar Dem Dikk", "public_transport": "platform", "shelter": "no", "source": "bing;survey"}}, {"type": "node", "id": 4323838582, "lat": 14.7513781, "lon": -17.4560503, "tags": {"bus": "yes", "highway": "bus_stop", "network": "Dakar Dem Dikk", "operator": "Dakar Dem Dikk", "public_transport": "platform", "shelter": "no", "source": "bing;survey"}}, {"type": "node", "id": 4323838583, "lat": 14.7518506, "lon": -17.4541757, "tags": {"bench": "yes", "bus": "yes", "highway": "bus_stop", "network": "Dakar Dem Dikk", "operator": "Dakar Dem Dikk", "public_transport": "platform", "shelter": "yes", "source": "bing;survey"}}, {"type": "node", "id": 4323838584, "lat": 14.7518652, "lon": -17.4366257, "tags": {"bus": "yes", "highway": "bus_stop", "name": "ARRET CITE SOPRIM", "network": "Dakar Dem Dikk", "operator": "Dakar Dem Dikk", "public_transport": "platform", "ref": "L5;L23", "shelter": "no", "source": "bing;survey"}}, {"type": "node", "id": 4323838585, "lat": 14.7519786, "lon": -17.4931153, "tags": {"bench": "yes", "bus": "yes", "highway": "bus_stop", "network": "Dakar Dem Dikk", "operator": "Dakar Dem Dikk", "public_transport": "platform", "shelter": "no", "source": "bing;survey"}}, {"type": "node", "id": 4323838586, "lat": 14.7522522, "lon": -17.4362465, "tags": {"bus": "yes", "highway": "bus_stop", "name": "ARRET CITE SOPRIM", "network": "Dakar Dem Dikk", "operator": "Dakar Dem Dikk", "public_transport": "platform", "ref": "L5;L23", "shelter": "no", "source": "bing;survey"}}, {"type": "node", "id": 4323838587, "lat": 14.7527632, "lon": -17.4934814, "tags": {"bus": "yes", "highway": "bus_stop", "network": "Dakar Dem Dikk", "operator": "Dakar Dem Dikk", "public_transport": "platform", "shelter": "no", "source": "bing;survey"}}, {"type": "node", "id": 4323838588, "lat": 14.7538047, "lon": -17.4351526, "tags": {"bus": "yes", "highway": "bus_stop", "name": "Arr\u00eat DDD L23", "network": "Dakar Dem Dikk", "operator": "Dakar Dem Dikk", "public_transport": "platform", "ref": "Ligne 23", "shelter": "no", "source": "bing;surve"}}, {"type": "node", "id": 4323839189, "lat": 14.7537572, "lon": -17.4965176, "tags": {"bench": "no", "bin": "no", "bus": "yes", "highway": "bus_stop", "network": "Dakar Dem Dikk", "operator": "Dakar Dem Dikk", "public_transport": "platform", "shelter": "no", "source": "bing;survey"}}, {"type": "node", "id": 4323839190, "lat": 14.7537739, "lon": -17.4337351, "tags": {"bus": "yes", "highway": "bus_stop", "name": "ARRET 22", "network": "Dakar Dem Dikk", "operator": "Dakar Dem Dikk", "public_transport": "platform", "ref": "L5;L7;L23", "shelter": "no", "source": "bing;surve"}}, {"type": "node", "id": 4323839191, "lat": 14.754016, "lon": -17.4466517, "tags": {"bus": "yes", "highway": "bus_stop", "network": "Dakar Dem Dikk", "operator": "Dakar Dem Dikk", "public_transport": "platform", "shelter": "no", "source": "bing;survey"}}, {"type": "node", "id": 4323839192, "lat": 14.7540906, "lon": -17.4962435, "tags": {"bench": "yes", "bus": "yes", "highway": "bus_stop", "network": "Dakar Dem Dikk", "operator": "Dakar Dem Dikk", "public_transport": "platform", "shelter": "yes", "source": "bing;survey"}}, {"type": "node", "id": 4323839193, "lat": 14.7540589, "lon": -17.4329962, "tags": {"bus": "yes", "highway": "bus_stop", "name": "ARRET CASE BI", "network": "Dakar Dem Dikk", "operator": "Dakar Dem Dikk", "public_transport": "platform", "ref": "L5", "shelter": "no", "source": "bing;surve"}}, {"type": "node", "id": 4323839194, "lat": 14.7541614, "lon": -17.4868123, "tags": {"bus": "yes", "highway": "bus_stop", "network": "Dakar Dem Dikk", "operator": "Dakar Dem Dikk", "public_transport": "platform", "shelter": "no", "source": "bing;survey"}}, {"type": "node", "id": 4323839195, "lat": 14.7543956, "lon": -17.487011, "tags": {"bus": "yes", "highway": "bus_stop", "network": "Dakar Dem Dikk", "operator": "Dakar Dem Dikk", "public_transport": "platform", "shelter": "no", "source": "bing;survey"}}, {"type": "node", "id": 4323839196, "lat": 14.7544646, "lon": -17.446897, "tags": {"bus": "yes", "highway": "bus_stop", "network": "Dakar Dem Dikk", "operator": "Dakar Dem Dikk", "public_transport": "platform", "shelter": "no", "source": "bing;survey"}}, {"type": "node", "id": 4323839197, "lat": 14.7552231, "lon": -17.4745416, "tags": {"bus": "yes", "highway": "bus_stop", "network": "Dakar Dem Dikk", "operator": "Dakar Dem Dikk", "public_transport": "platform", "shelter": "no", "source": "bing;survey"}}, {"type": "node", "id": 4323839198, "lat": 14.755592, "lon": -17.4457662, "tags": {"bus": "yes", "highway": "bus_stop", "name": "Arr\u00eat rue PA-21-05", "network": "Dakar Dem Dikk", "operator": "Dakar Dem Dikk", "public_transport": "platform", "ref": "Ligne 23", "shelter": "no", "source": "bing;survey"}}, {"type": "node", "id": 4323839199, "lat": 14.7556592, "lon": -17.4741892, "tags": {"bus": "yes", "highway": "bus_stop", "network": "Dakar Dem Dikk", "operator": "Dakar Dem Dikk", "public_transport": "platform", "shelter": "no"}}, {"type": "node", "id": 4323839200, "lat": 14.7555965, "lon": -17.4462618, "tags": {"bus": "yes", "highway": "bus_stop", "name": "Arr\u00eat PA U21", "network": "Dakar Dem Dikk", "operator": "Dakar Dem Dikk", "public_transport": "platform", "ref": "Ligne 23", "shelter": "no", "source": "bing;survey"}}, {"type": "node", "id": 4323839201, "lat": 14.7556417, "lon": -17.4357892, "tags": {"bus": "yes", "highway": "bus_stop", "name": "Arr\u00eat Ecole Elite", "network": "Dakar Dem Dikk", "operator": "Dakar Dem Dikk", "public_transport": "platform", "ref": "Ligne 23", "shelter": "no", "source": "bing;surve"}}, {"type": "node", "id": 4323839202, "lat": 14.7557106, "lon": -17.4356977, "tags": {"bus": "yes", "highway": "bus_stop", "name": "Arret PA U08", "network": "Dakar Dem Dikk", "operator": "Dakar Dem Dikk", "public_transport": "platform", "ref": "Ligen 23", "shelter": "no", "source": "bing;surve"}}, {"type": "node", "id": 4323839203, "lat": 14.7557442, "lon": -17.4681105, "tags": {"bus": "yes", "highway": "bus_stop", "network": "Dakar Dem Dikk", "operator": "Dakar Dem Dikk", "public_transport": "platform", "shelter": "no", "source": "bing;survey"}}, {"type": "node", "id": 4323839204, "lat": 14.7558066, "lon": -17.4471002, "tags": {"bus": "yes", "highway": "bus_stop", "name": "Arr\u00eat PA U24", "network": "Dakar Dem Dikk", "operator": "Dakar Dem Dikk", "public_transport": "platform", "ref": "Ligne 23", "shelter": "no", "source": "bing;survey"}}, {"type": "node", "id": 4323839205, "lat": 14.7558198, "lon": -17.4671708, "tags": {"bus": "yes", "highway": "bus_stop", "network": "Dakar Dem Dikk", "operator": "Dakar Dem Dikk", "public_transport": "platform", "shelter": "no", "source": "bing;survey"}}, {"type": "node", "id": 4323839206, "lat": 14.7558753, "lon": -17.4671822, "tags": {"bus": "yes", "highway": "bus_stop", "network": "Dakar Dem Dikk", "operator": "Dakar Dem Dikk", "public_transport": "platform", "shelter": "no", "source": "bing;survey"}}, {"type": "node", "id": 4323839207, "lat": 14.7559508, "lon": -17.4701423, "tags": {"bus": "yes", "highway": "bus_stop", "network": "Dakar Dem Dikk", "operator": "Dakar Dem Dikk", "public_transport": "platform", "shelter": "no", "source": "bing;survey"}}, {"type": "node", "id": 4323839208, "lat": 14.7560153, "lon": -17.4472442, "tags": {"bus": "yes", "highway": "bus_stop", "name": "Arr\u00eat Terrain-Acapes", "network": "Dakar Dem Dikk", "operator": "Dakar Dem Dikk", "public_transport": "platform", "ref": "Ligne 23;Ligne 1", "shelter": "no", "source": "bing;survey"}}, {"type": "node", "id": 4323839209, "lat": 14.7560945, "lon": -17.4438067, "tags": {"bus": "yes", "highway": "bus_stop", "network": "Dakar Dem Dikk", "operator": "Dakar Dem Dikk", "public_transport": "platform", "shelter": "no", "source": "bing;survey"}}, {"type": "node", "id": 4323839210, "lat": 14.7561093, "lon": -17.4712023, "tags": {"bus": "yes", "highway": "bus_stop", "network": "Dakar Dem Dikk", "operator": "Dakar Dem Dikk", "public_transport": "platform", "shelter": "no", "source": "bing;survey"}}, {"type": "node", "id": 4323839211, "lat": 14.7561617, "lon": -17.4750534, "tags": {"bus": "yes", "highway": "bus_stop", "network": "Dakar Dem Dikk", "operator": "Dakar Dem Dikk", "public_transport": "platform", "shelter": "no", "source": "bing;survey"}}, {"type": "node", "id": 4323839212, "lat": 14.7561659, "lon": -17.442934, "tags": {"bus": "yes", "highway": "bus_stop", "name": "Arr\u00eat Rue Mame Abdou Aziz Sy", "network": "Dakar Dem Dikk", "operator": "Dakar Dem Dikk", "public_transport": "platform", "ref": "Ligen 23", "shelter": "no", "source": "bing;survey"}}, {"type": "node", "id": 4323839213, "lat": 14.7562395, "lon": -17.4773998, "tags": {"bus": "yes", "highway": "bus_stop", "network": "Dakar Dem Dikk", "operator": "Dakar Dem Dikk", "public_transport": "platform", "shelter": "no"}}, {"type": "node", "id": 4323839214, "lat": 14.7561852, "lon": -17.4298612, "tags": {"bus": "yes", "highway": "bus_stop", "name": "ARRET CASE BI", "network": "Dakar Dem Dikk", "operator": "Dakar Dem Dikk", "public_transport": "platform", "ref": "L5", "shelter": "no", "source": "bing;surve"}}, {"type": "node", "id": 4323839215, "lat": 14.7564126, "lon": -17.4733764, "tags": {"bus": "yes", "highway": "bus_stop", "network": "Dakar Dem Dikk", "operator": "Dakar Dem Dikk", "public_transport": "platform", "shelter": "no", "source": "bing;survey"}}, {"type": "node", "id": 4323839216, "lat": 14.7566196, "lon": -17.474159, "tags": {"bus": "yes", "highway": "bus_stop", "network": "Dakar Dem Dikk", "operator": "Dakar Dem Dikk", "public_transport": "platform", "shelter": "no", "source": "bing;survey"}}, {"type": "node", "id": 4323839217, "lat": 14.7567899, "lon": -17.4402797, "tags": {"bus": "yes", "highway": "bus_stop", "name": "Arr\u00eat PA U17", "network": "Dakar Dem Dikk", "operator": "Dakar Dem Dikk", "public_transport": "platform", "ref": "L23", "shelter": "no", "source": "bing;survey"}}, {"type": "node", "id": 4323839218, "lat": 14.7569209, "lon": -17.4778475, "tags": {"bus": "yes", "highway": "bus_stop", "network": "Dakar Dem Dikk", "operator": "Dakar Dem Dikk", "public_transport": "platform", "shelter": "no", "source": "bing;survey"}}, {"type": "node", "id": 4323839219, "lat": 14.756932, "lon": -17.4391782, "tags": {"highway": "bus_stop", "network": "Dakar Dem Dikk", "operator": "Dakar Dem Dikk", "public_transport": "platform", "shelter": "no", "source": "bing;survey"}}, {"type": "node", "id": 4323839220, "lat": 14.75702, "lon": -17.4664801, "tags": {"bus": "yes", "highway": "bus_stop", "network": "Dakar Dem Dikk", "operator": "Dakar Dem Dikk", "public_transport": "platform", "shelter": "no", "source": "bing;survey"}}, {"type": "node", "id": 4323839221, "lat": 14.7570502, "lon": -17.4665082, "tags": {"bus": "yes", "highway": "bus_stop", "network": "Dakar Dem Dikk", "operator": "Dakar Dem Dikk", "public_transport": "platform", "shelter": "no", "source": "bing;survey"}}, {"type": "node", "id": 4323839222, "lat": 14.7573403, "lon": -17.4371918, "tags": {"bus": "yes", "highway": "bus_stop", "name": "Arr\u00eat PA U 13", "network": "Dakar Dem Dikk", "operator": "Dakar Dem Dikk", "public_transport": "platform", "ref": "Ligne 23", "shelter": "no", "source": "bing;survey"}}, {"type": "node", "id": 4323839223, "lat": 14.757473, "lon": -17.4369906, "tags": {"bus": "yes", "highway": "bus_stop", "name": "Arr\u00eat Mairie Parcelles Assainies", "network": "Dakar Dem Dikk", "operator": "Dakar Dem Dikk", "public_transport": "platform", "ref": "Ligne 23", "shelter": "no", "source": "bing;survey"}}, {"type": "node", "id": 4323839224, "lat": 14.757617, "lon": -17.428799, "tags": {"bus": "yes", "highway": "bus_stop", "network": "Dakar Dem Dikk", "operator": "Dakar Dem Dikk", "public_transport": "platform", "shelter": "no", "source": "bing;survey"}}, {"type": "node", "id": 4323839225, "lat": 14.7584613, "lon": -17.4656867, "tags": {"bus": "yes", "highway": "bus_stop", "network": "Dakar Dem Dikk", "operator": "Dakar Dem Dikk", "public_transport": "platform", "shelter": "no", "source": "bing;survey"}}, {"type": "node", "id": 4323839226, "lat": 14.7585829, "lon": -17.4655717, "tags": {"bus": "yes", "highway": "bus_stop", "network": "Dakar Dem Dikk", "operator": "Dakar Dem Dikk", "public_transport": "platform", "shelter": "no", "source": "bing;survey"}}, {"type": "node", "id": 4323839227, "lat": 14.7586742, "lon": -17.4291683, "tags": {"bus": "yes", "highway": "bus_stop", "network": "Dakar Dem Dikk", "operator": "Dakar Dem Dikk", "public_transport": "platform", "shelter": "no", "source": "bing;survey"}}, {"type": "node", "id": 4323839228, "lat": 14.758819, "lon": -17.4484495, "tags": {"bus": "yes", "highway": "bus_stop", "name": "Arr\u00eat Chez Joe", "network": "Dakar Dem Dikk", "operator": "Dakar Dem Dikk", "public_transport": "platform", "ref": "Arr\u00eat Chez Joe*", "shelter": "no", "source": "bing;survey"}}, {"type": "node", "id": 4323839229, "lat": 14.7588649, "lon": -17.4363713, "tags": {"bus": "yes", "highway": "bus_stop", "network": "Dakar Dem Dikk", "operator": "Dakar Dem Dikk", "public_transport": "platform", "shelter": "no", "source": "bing;survey"}}, {"type": "node", "id": 4323839230, "lat": 14.7589183, "lon": -17.482319, "tags": {"bench": "no", "bin": "no", "bus": "yes", "check_date:shelter": "2022-04-24", "highway": "bus_stop", "network": "Dakar Dem Dikk", "operator": "Dakar Dem Dikk", "public_transport": "platform", "shelter": "no"}}, {"type": "node", "id": 4323839231, "lat": 14.758949, "lon": -17.4508272, "tags": {"bus": "yes", "highway": "bus_stop", "name": "Arr\u00eat DDD L23", "network": "Dakar Dem Dikk", "operator": "Dakar Dem Dikk", "public_transport": "platform", "ref": "Ligne 23", "shelter": "no", "source": "bing;survey"}}, {"type": "node", "id": 4323839232, "lat": 14.7589589, "lon": -17.4510514, "tags": {"bus": "yes", "highway": "bus_stop", "name": "Arr\u00eat Croisement BrioheD'or\u00e9e Diamalaye", "network": "Dakar Dem Dikk", "operator": "Dakar Dem Dikk", "public_transport": "platform", "ref": "Ligne 23", "shelter": "no", "source": "bing;survey"}}, {"type": "node", "id": 4323839233, "lat": 14.7590235, "lon": -17.4471448, "tags": {"highway": "bus_stop", "name": "Arr\u00eat \u00e9cole Dior", "network": "Dakar Dem Dikk", "operator": "Dakar Dem Dikk", "public_transport": "platform", "ref": "Arr\u00eat \u00e9cole Dior", "shelter": "no", "source": "bing;survey"}}, {"type": "node", "id": 4323839234, "lat": 14.7591249, "lon": -17.4825116, "tags": {"bench": "no", "bin": "no", "check_date:shelter": "2022-04-24", "highway": "bus_stop", "network": "Dakar Dem Dikk", "operator": "Dakar Dem Dikk", "public_transport": "platform", "shelter": "no"}}, {"type": "node", "id": 4323839235, "lat": 14.7594648, "lon": -17.4526044, "tags": {"highway": "bus_stop", "network": "Dakar Dem Dikk", "operator": "Dakar Dem Dikk", "public_transport": "platform", "shelter": "no", "source": "bing;survey"}}, {"type": "node", "id": 4323839236, "lat": 14.7595475, "lon": -17.4444913, "tags": {"highway": "bus_stop", "name": "Arr\u00eat  PA U20", "network": "Dakar Dem Dikk", "operator": "Dakar Dem Dikk", "public_transport": "platform", "ref": "Arr\u00eat PA U20", "shelter": "no", "source": "bing;survey"}}, {"type": "node", "id": 4323839237, "lat": 14.7595621, "lon": -17.4579692, "tags": {"highway": "bus_stop", "network": "Dakar Dem Dikk", "operator": "Dakar Dem Dikk", "public_transport": "platform", "shelter": "no", "source": "bing;surve"}}, {"type": "node", "id": 4323839238, "lat": 14.7595631, "lon": -17.4523611, "tags": {"highway": "bus_stop", "network": "Dakar Dem Dikk", "operator": "Dakar Dem Dikk", "public_transport": "platform", "shelter": "no", "source": "bing;survey"}}, {"type": "node", "id": 4323839239, "lat": 14.7604762, "lon": -17.4482103, "tags": {"highway": "bus_stop", "name": "Arr\u00eat PA U19", "network": "Dakar Dem Dikk", "operator": "Dakar Dem Dikk", "public_transport": "platform", "ref": "Ligne 23;Ligne 1", "shelter": "no", "source": "bing;survey"}}, {"type": "node", "id": 4323839240, "lat": 14.7596749, "lon": -17.4629371, "tags": {"highway": "bus_stop", "network": "Dakar Dem Dikk", "operator": "Dakar Dem Dikk", "public_transport": "platform", "shelter": "no", "source": "bing;survey"}}, {"type": "node", "id": 4323839241, "lat": 14.7596927, "lon": -17.4614023, "tags": {"highway": "bus_stop", "network": "Dakar Dem Dikk", "operator": "Dakar Dem Dikk", "public_transport": "platform", "shelter": "no", "source": "bing;survey"}}, {"type": "node", "id": 4323839242, "lat": 14.7597215, "lon": -17.458577, "tags": {"highway": "bus_stop", "network": "Dakar Dem Dikk", "operator": "Dakar Dem Dikk", "public_transport": "platform", "shelter": "no", "source": "bing;surve"}}, {"type": "node", "id": 4323839243, "lat": 14.75973, "lon": -17.4626912, "tags": {"highway": "bus_stop", "network": "Dakar Dem Dikk", "operator": "Dakar Dem Dikk", "public_transport": "platform", "shelter": "no", "source": "bing;survey"}}, {"type": "node", "id": 4323839244, "lat": 14.7598113, "lon": -17.4436344, "tags": {"highway": "bus_stop", "name": "Arr\u00eat Parcelles U20", "network": "Dakar Dem Dikk", "operator": "Dakar Dem Dikk", "public_transport": "platform", "ref": "Arr\u00eat Parcelles U20", "shelter": "no", "source": "bing;survey"}}, {"type": "node", "id": 4323839245, "lat": 14.7601966, "lon": -17.4412137, "tags": {"highway": "bus_stop", "name": "Arr\u00eat Parcelles U17", "network": "Dakar Dem Dikk", "operator": "Dakar Dem Dikk", "public_transport": "platform", "ref": "Arr\u00eat Parcelles U17", "shelter": "no", "source": "bing;survey"}}, {"type": "node", "id": 4323839246, "lat": 14.7603778, "lon": -17.4407327, "tags": {"bus": "yes", "highway": "bus_stop", "name": "Arr\u00eat Parcelles U16", "network": "Dakar Dem Dikk", "operator": "Dakar Dem Dikk", "public_transport": "platform", "ref": "Arret Parcelles U16", "shelter": "no", "source": "bing;survey"}}, {"type": "node", "id": 4323839247, "lat": 14.7609468, "lon": -17.4376822, "tags": {"bus": "yes", "highway": "bus_stop", "network": "Dakar Dem Dikk", "operator": "Dakar Dem Dikk", "public_transport": "platform", "shelter": "no", "source": "bing;survey"}}, {"type": "node", "id": 4323839248, "lat": 14.7610729, "lon": -17.4374258, "tags": {"bus": "yes", "highway": "bus_stop", "network": "Dakar Dem Dikk", "operator": "Dakar Dem Dikk", "public_transport": "platform", "shelter": "no", "source": "bing;survey"}}, {"type": "node", "id": 4323839249, "lat": 14.7612249, "lon": -17.4482508, "tags": {"highway": "bus_stop", "name": "Arr\u00eat PA U23", "network": "Dakar Dem Dikk", "operator": "Dakar Dem Dikk", "public_transport": "platform", "ref": "Ligne 23", "shelter": "no", "source": "bing;survey"}}, {"type": "node", "id": 4323839250, "lat": 14.761341, "lon": -17.4369089, "tags": {"bus": "yes", "highway": "bus_stop", "network": "Dakar Dem Dikk", "operator": "Dakar Dem Dikk", "public_transport": "platform", "shelter": "no", "source": "bing;survey"}}, {"type": "node", "id": 4323839251, "lat": 14.7613501, "lon": -17.4505563, "tags": {"bus": "yes", "highway": "bus_stop", "name": "Arr\u00eat croisement Diamalaye-HLM Grand Medine", "network": "Dakar Dem Dikk", "operator": "Dakar Dem Dikk", "public_transport": "platform", "ref": "Ligne 23", "shelter": "no", "source": "bing;survey"}}, {"type": "node", "id": 4323839252, "lat": 14.7614477, "lon": -17.4294346, "tags": {"bus": "yes", "highway": "bus_stop", "network": "Dakar Dem Dikk", "operator": "Dakar Dem Dikk", "public_transport": "platform", "shelter": "no", "source": "bing;survey"}}, {"type": "node", "id": 4323839253, "lat": 14.7615654, "lon": -17.4297053, "tags": {"bus": "yes", "highway": "bus_stop", "network": "Dakar Dem Dikk", "operator": "Dakar Dem Dikk", "public_transport": "platform", "shelter": "no", "source": "bing;survey"}}, {"type": "node", "id": 4323839254, "lat": 14.7615744, "lon": -17.4496769, "tags": {"bus": "yes", "highway": "bus_stop", "name": "Arr\u00eat Ecole Elementaire", "network": "Dakar Dem Dikk", "operator": "Dakar Dem Dikk", "public_transport": "platform", "ref": "Ligne 23", "shelter": "no", "source": "bing;surve"}}, {"type": "node", "id": 4323839255, "lat": 14.761637, "lon": -17.4488446, "tags": {"highway": "bus_stop", "name": "ligne 23 DDD", "network": "Dakar Dem Dikk", "operator": "Dakar Dem Dikk", "public_transport": "platform", "ref": "Arr\u00eat HLM Grand M\u00e9dine", "shelter": "no", "source": "bing;surve"}}, {"type": "node", "id": 4323839256, "lat": 14.7627153, "lon": -17.4471612, "tags": {"highway": "bus_stop", "network": "Dakar Dem Dikk", "operator": "Dakar Dem Dikk", "public_transport": "platform", "shelter": "no", "source": "bing;surve"}}, {"type": "node", "id": 4323839257, "lat": 14.7628108, "lon": -17.4471032, "tags": {"highway": "bus_stop", "network": "Dakar Dem Dikk", "operator": "Dakar Dem Dikk", "public_transport": "platform", "shelter": "no", "source": "bing;surve"}}, {"type": "node", "id": 4323839258, "lat": 14.763146, "lon": -17.4372684, "tags": {"bus": "yes", "highway": "bus_stop", "network": "Dakar Dem Dikk", "operator": "Dakar Dem Dikk", "public_transport": "platform", "shelter": "no", "source": "bing;survey"}}, {"type": "node", "id": 4323839259, "lat": 14.7632345, "lon": -17.4374054, "tags": {"bus": "yes", "highway": "bus_stop", "network": "Dakar Dem Dikk", "operator": "Dakar Dem Dikk", "public_transport": "platform", "shelter": "no", "source": "bing;survey"}}, {"type": "node", "id": 4323839260, "lat": 14.7634113, "lon": -17.4437128, "tags": {"highway": "bus_stop", "network": "Dakar Dem Dikk", "operator": "Dakar Dem Dikk", "public_transport": "platform", "shelter": "no", "source": "bing;surve"}}, {"type": "node", "id": 4323839261, "lat": 14.7635263, "lon": -17.4437019, "tags": {"highway": "bus_stop", "network": "Dakar Dem Dikk", "operator": "Dakar Dem Dikk", "public_transport": "platform", "shelter": "no", "source": "bing;surve"}}, {"type": "node", "id": 4323839262, "lat": 14.7641799, "lon": -17.4400067, "tags": {"highway": "bus_stop", "network": "Dakar Dem Dikk", "operator": "Dakar Dem Dikk", "public_transport": "platform", "shelter": "no", "source": "bing;surve"}}, {"type": "node", "id": 4323839263, "lat": 14.764266, "lon": -17.4400021, "tags": {"highway": "bus_stop", "network": "Dakar Dem Dikk", "operator": "Dakar Dem Dikk", "public_transport": "platform", "shelter": "no", "source": "bing;surve"}}, {"type": "node", "id": 4323839264, "lat": 14.7648269, "lon": -17.4300026, "tags": {"bus": "yes", "highway": "bus_stop", "network": "Dakar Dem Dikk", "operator": "Dakar Dem Dikk", "public_transport": "platform", "shelter": "no", "source": "bing;survey"}}, {"type": "node", "id": 4323839265, "lat": 14.7648655, "lon": -17.4300858, "tags": {"bus": "yes", "highway": "bus_stop", "network": "Dakar Dem Dikk", "operator": "Dakar Dem Dikk", "public_transport": "platform", "shelter": "no", "source": "bing;survey"}}, {"type": "node", "id": 4323839266, "lat": 14.7694006, "lon": -17.4299093, "tags": {"bus": "yes", "highway": "bus_stop", "network": "Dakar Dem Dikk", "operator": "Dakar Dem Dikk", "public_transport": "platform", "shelter": "no", "source": "bing;survey"}}, {"type": "node", "id": 4323839267, "lat": 14.7694395, "lon": -17.4299974, "tags": {"bus": "yes", "highway": "bus_stop", "network": "Dakar Dem Dikk", "operator": "Dakar Dem Dikk", "public_transport": "platform", "shelter": "no", "source": "bing;survey"}}, {"type": "node", "id": 4323839268, "lat": 14.7703529, "lon": -17.4282784, "tags": {"bus": "yes", "highway": "bus_stop", "network": "Dakar Dem Dikk", "operator": "Dakar Dem Dikk", "public_transport": "platform", "shelter": "no", "source": "bing;survey"}}, {"type": "node", "id": 4323839269, "lat": 14.7703948, "lon": -17.4282768, "tags": {"bus": "yes", "highway": "bus_stop", "network": "Dakar Dem Dikk", "operator": "Dakar Dem Dikk", "public_transport": "platform", "shelter": "no", "source": "bing;survey"}}, {"type": "node", "id": 4323839270, "lat": 14.7706098, "lon": -17.4248349, "tags": {"bus": "yes", "highway": "bus_stop", "network": "Dakar Dem Dikk", "operator": "Dakar Dem Dikk", "public_transport": "platform", "shelter": "no", "source": "bing;survey"}}, {"type": "node", "id": 4323839271, "lat": 14.7706327, "lon": -17.424887, "tags": {"bus": "yes", "highway": "bus_stop", "network": "Dakar Dem Dikk", "operator": "Dakar Dem Dikk", "public_transport": "platform", "shelter": "no", "source": "bing;survey"}}, {"type": "node", "id": 4323839272, "lat": 14.7709572, "lon": -17.4230785, "tags": {"bus": "yes", "highway": "bus_stop", "network": "Dakar Dem Dikk", "operator": "Dakar Dem Dikk", "public_transport": "platform", "shelter": "no", "source": "bing;survey"}}, {"type": "node", "id": 4323839273, "lat": 14.7711325, "lon": -17.4227926, "tags": {"bus": "yes", "highway": "bus_stop", "network": "Dakar Dem Dikk", "operator": "Dakar Dem Dikk", "public_transport": "platform", "shelter": "no", "source": "bing;survey"}}, {"type": "node", "id": 4323839274, "lat": 14.7723201, "lon": -17.4212498, "tags": {"bus": "yes", "highway": "bus_stop", "network": "Dakar Dem Dikk", "operator": "Dakar Dem Dikk", "public_transport": "platform", "shelter": "no", "source": "bing;survey"}}, {"type": "node", "id": 4323839275, "lat": 14.7725234, "lon": -17.4210349, "tags": {"bus": "yes", "highway": "bus_stop", "network": "Dakar Dem Dikk", "operator": "Dakar Dem Dikk", "public_transport": "platform", "shelter": "no", "source": "bing;survey"}}, {"type": "node", "id": 4323839276, "lat": 14.7730721, "lon": -17.4194452, "tags": {"bus": "yes", "highway": "bus_stop", "network": "Dakar Dem Dikk", "operator": "Dakar Dem Dikk", "public_transport": "platform", "shelter": "no", "source": "bing;survey"}}, {"type": "node", "id": 4323839277, "lat": 14.7734182, "lon": -17.418291, "tags": {"bus": "yes", "highway": "bus_stop", "network": "Dakar Dem Dikk", "operator": "Dakar Dem Dikk", "public_transport": "platform", "shelter": "no", "source": "bing;survey"}}, {"type": "node", "id": 4333867188, "lat": 14.7281264, "lon": -17.4880224, "tags": {"bus": "yes", "highway": "bus_stop", "public_transport": "platform"}}, {"type": "node", "id": 4363241075, "lat": 14.6835741, "lon": -17.4372388, "tags": {"bus": "yes", "highway": "bus_stop", "network": "Dakar Dem Dikk", "operator": "Dakar Dem Dikk", "public_transport": "platform", "shelter": "no", "source": "bing;survey"}}, {"type": "node", "id": 4363241076, "lat": 14.6866177, "lon": -17.4366379, "tags": {"bus": "yes", "highway": "bus_stop", "network": "Dakar Dem Dikk", "operator": "Dakar Dem Dikk", "public_transport": "platform", "shelter": "no", "source": "bing;survey"}}, {"type": "node", "id": 4363241077, "lat": 14.6874578, "lon": -17.4360354, "tags": {"bench": "yes", "bus": "yes", "highway": "bus_stop", "network": "Dakar Dem Dikk", "operator": "Dakar Dem Dikk", "public_transport": "platform", "shelter": "yes", "source": "bing;survey"}}, {"type": "node", "id": 4363241084, "lat": 14.6978423, "lon": -17.4445699, "tags": {"bus": "yes", "highway": "bus_stop", "network": "Dakar Dem Dikk", "operator": "Dakar Dem Dikk", "public_transport": "platform", "shelter": "no", "source": "bing;survey"}}, {"type": "node", "id": 4363241085, "lat": 14.6978801, "lon": -17.4385361, "tags": {"bus": "yes", "highway": "bus_stop", "network": "Dakar Dem Dikk", "operator": "Dakar Dem Dikk", "public_transport": "platform", "shelter": "no", "source": "bing;survey"}}, {"type": "node", "id": 4363241086, "lat": 14.6980434, "lon": -17.4390532, "tags": {"bus": "yes", "highway": "bus_stop", "network": "Dakar Dem Dikk", "operator": "Dakar Dem Dikk", "public_transport": "platform", "shelter": "no", "source": "bing;survey"}}, {"type": "node", "id": 4363241087, "lat": 14.6986541, "lon": -17.4687186, "tags": {"bus": "yes", "highway": "bus_stop", "network": "Dakar Dem Dikk", "operator": "Dakar Dem Dikk", "public_transport": "platform", "shelter": "no", "source": "bing;survey"}}, {"type": "node", "id": 4363241088, "lat": 14.699719, "lon": -17.4368745, "tags": {"bus": "yes", "highway": "bus_stop", "network": "Dakar Dem Dikk", "operator": "Dakar Dem Dikk", "public_transport": "platform", "shelter": "no", "source": "bing;survey"}}, {"type": "node", "id": 4363241789, "lat": 14.6999576, "lon": -17.4701113, "tags": {"bus": "yes", "highway": "bus_stop", "network": "Dakar Dem Dikk", "operator": "Dakar Dem Dikk", "public_transport": "platform", "shelter": "no", "source": "bing;survey"}}, {"type": "node", "id": 4363241790, "lat": 14.700289, "lon": -17.4366309, "tags": {"bus": "yes", "highway": "bus_stop", "network": "Dakar Dem Dikk", "operator": "Dakar Dem Dikk", "public_transport": "platform", "shelter": "no", "source": "bing;survey"}}, {"type": "node", "id": 4363241791, "lat": 14.7010565, "lon": -17.4688285, "tags": {"bench": "no", "bin": "no", "bus": "yes", "highway": "bus_stop", "network": "Dakar Dem Dikk", "operator": "Dakar Dem Dikk", "public_transport": "platform", "shelter": "no", "source": "bing;survey"}}, {"type": "node", "id": 4363241792, "lat": 14.7022496, "lon": -17.4730557, "tags": {"bus": "yes", "highway": "bus_stop", "network": "Dakar Dem Dikk", "operator": "Dakar Dem Dikk", "public_transport": "platform", "shelter": "no", "source": "bing;survey"}}, {"type": "node", "id": 4363241793, "lat": 14.7027722, "lon": -17.4733993, "tags": {"bus": "yes", "departures_board": "no", "highway": "bus_stop", "name": "Deuxi\u00e8me porte Mermoz", "name:fr": "Deuxi\u00e8me porte Mermoz", "network": "Dakar Dem Dikk", "operator": "Dakar Dem Dikk", "public_transport": "platform", "shelter": "yes", "source": "bing;survey"}}, {"type": "node", "id": 4363241795, "lat": 14.7032422, "lon": -17.4359178, "tags": {"bus": "yes", "highway": "bus_stop", "network": "Dakar Dem Dikk", "operator": "Dakar Dem Dikk", "public_transport": "platform", "shelter": "no", "source": "bing;survey"}}, {"type": "node", "id": 4363241796, "lat": 14.7033062, "lon": -17.4468801, "tags": {"bus": "yes", "highway": "bus_stop", "network": "Dakar Dem Dikk", "operator": "Dakar Dem Dikk", "public_transport": "platform", "shelter": "no", "source": "bing;survey"}}, {"type": "node", "id": 4363241797, "lat": 14.7035585, "lon": -17.4469904, "tags": {"bus": "yes", "highway": "bus_stop", "network": "Dakar Dem Dikk", "operator": "Dakar Dem Dikk", "public_transport": "platform", "shelter": "no", "source": "bing;survey"}}, {"type": "node", "id": 4363241798, "lat": 14.7046508, "lon": -17.4702192, "tags": {"bus": "yes", "highway": "bus_stop", "network": "Dakar Dem Dikk", "operator": "Dakar Dem Dikk", "public_transport": "platform", "shelter": "no", "source": "bing;survey"}}, {"type": "node", "id": 4363241799, "lat": 14.704813, "lon": -17.4634205, "tags": {"bus": "yes", "highway": "bus_stop", "network": "Dakar Dem Dikk", "operator": "Dakar Dem Dikk", "public_transport": "platform", "shelter": "no", "source": "bing;survey"}}, {"type": "node", "id": 4363241801, "lat": 14.7055116, "lon": -17.4699749, "tags": {"bench": "yes", "bus": "yes", "highway": "bus_stop", "network": "Dakar Dem Dikk", "operator": "Dakar Dem Dikk", "public_transport": "platform", "shelter": "no", "source": "bing;survey"}}, {"type": "node", "id": 4363241802, "lat": 14.7057205, "lon": -17.4519536, "tags": {"bus": "yes", "highway": "bus_stop", "network": "Dakar Dem Dikk", "operator": "Dakar Dem Dikk", "public_transport": "platform", "shelter": "no", "source": "bing;survey"}}, {"type": "node", "id": 4363241803, "lat": 14.7057375, "lon": -17.4786676, "tags": {"bench": "no", "bus": "yes", "highway": "bus_stop", "network": "Dakar Dem Dikk", "operator": "Dakar Dem Dikk", "public_transport": "platform", "shelter": "no", "source": "bing;survey"}}, {"type": "node", "id": 4363241805, "lat": 14.7063809, "lon": -17.446671, "tags": {"bench": "yes", "bus": "yes", "highway": "bus_stop", "network": "Dakar Dem Dikk", "operator": "Dakar Dem Dikk", "public_transport": "platform", "shelter": "yes", "source": "bing;survey"}}, {"type": "node", "id": 4363241806, "lat": 14.7066147, "lon": -17.465049, "tags": {"bench": "no", "bin": "no", "bus": "yes", "highway": "bus_stop", "network": "Dakar Dem Dikk", "operator": "Dakar Dem Dikk", "public_transport": "platform", "shelter": "no", "source": "bing;survey"}}, {"type": "node", "id": 4363241807, "lat": 14.7067245, "lon": -17.4468027, "tags": {"bus": "yes", "highway": "bus_stop", "network": "Dakar Dem Dikk", "operator": "Dakar Dem Dikk", "public_transport": "platform", "shelter": "no", "source": "bing;survey"}}, {"type": "node", "id": 4363241808, "lat": 14.707182, "lon": -17.4350647, "tags": {"bench": "yes", "highway": "bus_stop", "network": "Dakar Dem Dikk", "operator": "Dakar Dem Dikk", "public_transport": "platform", "shelter": "yes"}}, {"type": "node", "id": 4363241810, "lat": 14.7077655, "lon": -17.4662402, "tags": {"bench": "no", "bus": "yes", "highway": "bus_stop", "network": "Dakar Dem Dikk", "operator": "Dakar Dem Dikk", "public_transport": "platform", "shelter": "no", "source": "bing;survey"}}, {"type": "node", "id": 4363241811, "lat": 14.7079872, "lon": -17.4593132, "tags": {"bench": "yes", "bus": "yes", "highway": "bus_stop", "operator": "GIE;Dakar Dem Dikk", "public_transport": "platform", "shelter": "yes"}}, {"type": "node", "id": 4363241812, "lat": 14.7082078, "lon": -17.4807072, "tags": {"bus": "yes", "highway": "bus_stop", "network": "Dakar Dem Dikk", "operator": "Dakar Dem Dikk", "public_transport": "platform", "shelter": "no", "source": "bing;survey"}}, {"type": "node", "id": 4363241813, "lat": 14.7083993, "lon": -17.4528395, "tags": {"bus": "yes", "highway": "bus_stop", "network": "Dakar Dem Dikk", "operator": "Dakar Dem Dikk", "public_transport": "platform", "shelter": "no", "source": "bing;survey"}}, {"type": "node", "id": 4363241814, "lat": 14.7087827, "lon": -17.4813822, "tags": {"bus": "yes", "highway": "bus_stop", "network": "Dakar Dem Dikk", "operator": "Dakar Dem Dikk", "public_transport": "platform", "shelter": "no", "source": "bing;survey"}}, {"type": "node", "id": 4363241816, "lat": 14.7090432, "lon": -17.4712905, "tags": {"bus": "yes", "highway": "bus_stop", "network": "Dakar Dem Dikk", "operator": "Dakar Dem Dikk", "public_transport": "platform", "shelter": "no", "source": "bing;survey"}}, {"type": "node", "id": 4363241817, "lat": 14.7092798, "lon": -17.4708659, "tags": {"bus": "yes", "highway": "bus_stop", "network": "Dakar Dem Dikk", "operator": "Dakar Dem Dikk", "public_transport": "platform", "shelter": "no", "source": "bing;survey"}}, {"type": "node", "id": 4363241818, "lat": 14.7094342, "lon": -17.4464776, "tags": {"bench": "yes", "bus": "yes", "highway": "bus_stop", "network": "Dakar Dem Dikk", "operator": "Dakar Dem Dikk", "public_transport": "platform", "shelter": "yes", "source": "bing;survey"}}, {"type": "node", "id": 4363241821, "lat": 14.7106303, "lon": -17.4807323, "tags": {"bench": "yes", "bin": "no", "bus": "yes", "highway": "bus_stop", "network": "Dakar Dem Dikk", "operator": "Dakar Dem Dikk", "public_transport": "platform", "shelter": "no", "source": "bing;survey"}}, {"type": "node", "id": 4363241822, "lat": 14.7107288, "lon": -17.4465294, "tags": {"bench": "yes", "bus": "yes", "highway": "bus_stop", "network": "Dakar Dem Dikk", "operator": "Dakar Dem Dikk", "public_transport": "platform", "shelter": "yes", "source": "bing;survey"}}, {"type": "node", "id": 4363241823, "lat": 14.7117859, "lon": -17.4718828, "tags": {"bus": "yes", "highway": "bus_stop", "network": "Dakar Dem Dikk", "operator": "Dakar Dem Dikk", "public_transport": "platform", "shelter": "no", "source": "bing;survey"}}, {"type": "node", "id": 4363241824, "lat": 14.7119073, "lon": -17.4776326, "tags": {"bench": "no", "bin": "no", "bus": "yes", "highway": "bus_stop", "network": "Dakar Dem Dikk", "operator": "Dakar Dem Dikk", "public_transport": "platform", "shelter": "no", "source": "bing;survey"}}, {"type": "node", "id": 4363241825, "lat": 14.7122868, "lon": -17.4774732, "tags": {"bench": "yes", "bin": "no", "bus": "yes", "highway": "bus_stop", "network": "Dakar Dem Dikk", "operator": "Dakar Dem Dikk", "public_transport": "platform", "shelter": "no", "source": "bing;survey"}}, {"type": "node", "id": 4363241826, "lat": 14.7124355, "lon": -17.446282, "tags": {"bus": "yes", "highway": "bus_stop", "network": "Dakar Dem Dikk", "operator": "Dakar Dem Dikk", "public_transport": "platform", "shelter": "no", "source": "bing;survey"}}, {"type": "node", "id": 4363241828, "lat": 14.7125995, "lon": -17.4609466, "tags": {"bus": "yes", "highway": "bus_stop", "network": "Dakar Dem Dikk", "operator": "Dakar Dem Dikk", "public_transport": "platform", "shelter": "no", "source": "bing;survey"}}, {"type": "node", "id": 4363241829, "lat": 14.7125868, "lon": -17.4464024, "tags": {"bus": "yes", "highway": "bus_stop", "network": "Dakar Dem Dikk", "operator": "Dakar Dem Dikk", "public_transport": "platform", "shelter": "no", "source": "bing;survey"}}, {"type": "node", "id": 4363241830, "lat": 14.7127505, "lon": -17.4623919, "tags": {"bus": "yes", "highway": "bus_stop", "network": "Dakar Dem Dikk", "operator": "Dakar Dem Dikk", "public_transport": "platform", "shelter": "no", "source": "bing;survey"}}, {"type": "node", "id": 4363241831, "lat": 14.7128349, "lon": -17.4612136, "tags": {"bus": "yes", "highway": "bus_stop", "network": "Dakar Dem Dikk", "operator": "Dakar Dem Dikk", "public_transport": "platform", "shelter": "no", "source": "bing;survey"}}, {"type": "node", "id": 4363241832, "lat": 14.7130246, "lon": -17.4622302, "tags": {"bus": "yes", "highway": "bus_stop", "network": "Dakar Dem Dikk", "operator": "Dakar Dem Dikk", "public_transport": "platform", "shelter": "no", "source": "bing;survey"}}, {"type": "node", "id": 4363241834, "lat": 14.713857, "lon": -17.4551338, "tags": {"bench": "yes", "bus": "yes", "highway": "bus_stop", "network": "Dakar Dem Dikk", "operator": "Dakar Dem Dikk", "public_transport": "platform", "shelter": "yes", "source": "bing;survey"}}, {"type": "node", "id": 4363241835, "lat": 14.7139766, "lon": -17.4539967, "tags": {"bus": "yes", "highway": "bus_stop", "network": "Dakar Dem Dikk", "operator": "Dakar Dem Dikk", "public_transport": "platform", "shelter": "no", "source": "bing;survey"}}, {"type": "node", "id": 4363241836, "lat": 14.7139824, "lon": -17.4547329, "tags": {"bus": "yes", "highway": "bus_stop", "network": "Dakar Dem Dikk", "operator": "Dakar Dem Dikk", "public_transport": "platform", "shelter": "no", "source": "bing;survey"}}, {"type": "node", "id": 4363241837, "lat": 14.7141799, "lon": -17.4733954, "tags": {"bus": "yes", "highway": "bus_stop", "network": "Dakar Dem Dikk", "operator": "Dakar Dem Dikk", "public_transport": "platform", "shelter": "no", "source": "bing;survey"}}, {"type": "node", "id": 4363241838, "lat": 14.7142181, "lon": -17.473733, "tags": {"bus": "yes", "highway": "bus_stop", "network": "Dakar Dem Dikk", "operator": "Dakar Dem Dikk", "public_transport": "platform", "shelter": "no", "source": "bing;survey"}}, {"type": "node", "id": 4363241839, "lat": 14.7146611, "lon": -17.4819844, "tags": {"bus": "yes", "highway": "bus_stop", "network": "Dakar Dem Dikk", "operator": "Dakar Dem Dikk", "public_transport": "platform", "shelter": "no", "source": "bing;survey"}}, {"type": "node", "id": 4363241840, "lat": 14.7151059, "lon": -17.4531973, "tags": {"bus": "yes", "highway": "bus_stop", "network": "Dakar Dem Dikk", "operator": "Dakar Dem Dikk", "public_transport": "platform", "shelter": "no", "source": "bing;survey"}}, {"type": "node", "id": 4363241841, "lat": 14.715238, "lon": -17.4654538, "tags": {"bus": "yes", "highway": "bus_stop", "name": "Arret Terrain Sacre coeur", "network": "Dakar Dem Dikk", "operator": "Dakar Dem Dikk", "public_transport": "platform", "ref": "9", "route_ref": "9", "shelter": "no", "source": "bing;survey"}}, {"type": "node", "id": 4363241842, "lat": 14.7153309, "lon": -17.4603043, "tags": {"bench": "yes", "bus": "yes", "highway": "bus_stop", "network": "Dakar Dem Dikk", "operator": "Dakar Dem Dikk", "public_transport": "platform", "shelter": "yes", "source": "bing;survey"}}, {"type": "node", "id": 4363241843, "lat": 14.7155583, "lon": -17.465288, "tags": {"bus": "yes", "highway": "bus_stop", "network": "Dakar Dem Dikk", "operator": "Dakar Dem Dikk", "public_transport": "platform", "shelter": "no", "source": "bing;survey"}}, {"type": "node", "id": 4363241844, "lat": 14.7156395, "lon": -17.4663872, "tags": {"bus": "yes", "highway": "bus_stop", "name": "Arret Sacre coeur - BEM", "network": "Dakar Dem Dikk", "operator": "Dakar Dem Dikk", "public_transport": "platform", "ref": "9;121", "route_ref": "9;121", "shelter": "no", "source": "bing;survey"}}, {"type": "node", "id": 4363241845, "lat": 14.7156545, "lon": -17.4830728, "tags": {"bench": "yes", "bus": "yes", "highway": "bus_stop", "network": "Dakar Dem Dikk", "operator": "Dakar Dem Dikk", "public_transport": "platform", "shelter": "yes", "source": "bing;survey"}}, {"type": "node", "id": 4363241846, "lat": 14.7157229, "lon": -17.4460939, "tags": {"bench": "yes", "bus": "yes", "highway": "bus_stop", "network": "Dakar Dem Dikk", "operator": "Dakar Dem Dikk", "public_transport": "platform", "shelter": "yes", "source": "bing;survey"}}, {"type": "node", "id": 4363241847, "lat": 14.71573, "lon": -17.4597468, "tags": {"bus": "yes", "highway": "bus_stop", "network": "Dakar Dem Dikk", "operator": "Dakar Dem Dikk", "public_transport": "platform", "shelter": "no", "source": "bing;survey"}}, {"type": "node", "id": 4363241848, "lat": 14.7159191, "lon": -17.4704548, "tags": {"bus": "yes", "highway": "bus_stop", "network": "Dakar Dem Dikk", "operator": "Dakar Dem Dikk", "public_transport": "platform", "shelter": "no", "source": "bing;survey"}}, {"type": "node", "id": 4363241849, "lat": 14.7160514, "lon": -17.4700585, "tags": {"bus": "yes", "highway": "bus_stop", "network": "Dakar Dem Dikk", "operator": "Dakar Dem Dikk", "public_transport": "platform", "shelter": "no", "source": "bing;survey"}}, {"type": "node", "id": 4363241850, "lat": 14.7162015, "lon": -17.4461722, "tags": {"bench": "yes", "bus": "yes", "highway": "bus_stop", "network": "Dakar Dem Dikk", "operator": "Dakar Dem Dikk", "public_transport": "platform", "shelter": "yes", "source": "bing;survey"}}, {"type": "node", "id": 4363241851, "lat": 14.7163545, "lon": -17.4663856, "tags": {"bus": "yes", "highway": "bus_stop", "name": "Arret sacr\u00e9 coeur - BEM", "network": "Dakar Dem Dikk", "operator": "Dakar Dem Dikk", "public_transport": "platform", "ref": "9", "route_ref": "9", "shelter": "no", "source": "bing;survey"}}, {"type": "node", "id": 4363241852, "lat": 14.7165293, "lon": -17.4560585, "tags": {"bus": "yes", "highway": "bus_stop", "network": "Dakar Dem Dikk", "operator": "Dakar Dem Dikk", "public_transport": "platform", "shelter": "no", "source": "bing;survey"}}, {"type": "node", "id": 4363241853, "lat": 14.7167429, "lon": -17.4640648, "tags": {"bus": "yes", "highway": "bus_stop", "name": "Arret College sacre coeur", "network": "Dakar Dem Dikk", "operator": "Dakar Dem Dikk", "public_transport": "platform", "ref": "9", "shelter": "no", "source": "bing;survey"}}, {"type": "node", "id": 4363241854, "lat": 14.7168467, "lon": -17.4557191, "tags": {"bus": "yes", "highway": "bus_stop", "network": "Dakar Dem Dikk", "operator": "Dakar Dem Dikk", "public_transport": "platform", "shelter": "no", "source": "bing;survey"}}, {"type": "node", "id": 4363241855, "lat": 14.7169689, "lon": -17.4847422, "tags": {"bench": "no", "bin": "no", "bus": "yes", "highway": "bus_stop", "network": "Dakar Dem Dikk", "operator": "Dakar Dem Dikk", "public_transport": "platform", "shelter": "no", "source": "bing;survey"}}, {"type": "node", "id": 4363241856, "lat": 14.7173775, "lon": -17.4673452, "tags": {"highway": "bus_stop", "network": "Dakar Dem Dikk", "operator": "Dakar Dem Dikk", "public_transport": "platform", "shelter": "no", "source": "bing;survey"}}, {"type": "node", "id": 4363241857, "lat": 14.7173654, "lon": -17.4582692, "tags": {"bus": "yes", "highway": "bus_stop", "network": "Dakar Dem Dikk", "operator": "Dakar Dem Dikk", "public_transport": "platform", "shelter": "no", "source": "bing;survey"}}, {"type": "node", "id": 4363241858, "lat": 14.7173997, "lon": -17.4860079, "tags": {"bus": "yes", "highway": "bus_stop", "network": "Dakar Dem Dikk", "operator": "Dakar Dem Dikk", "public_transport": "platform", "shelter": "no", "source": "bing;survey"}}, {"type": "node", "id": 4363241859, "lat": 14.7174249, "lon": -17.4509834, "tags": {"bus": "yes", "highway": "bus_stop", "network": "Dakar Dem Dikk", "operator": "Dakar Dem Dikk", "public_transport": "platform", "shelter": "no", "source": "bing;survey"}}, {"type": "node", "id": 4363241860, "lat": 14.7174878, "lon": -17.4582746, "tags": {"bus": "yes", "highway": "bus_stop", "network": "Dakar Dem Dikk", "operator": "Dakar Dem Dikk", "public_transport": "platform", "shelter": "no", "source": "bing;survey"}}, {"type": "node", "id": 4363241861, "lat": 14.7176779, "lon": -17.4634261, "tags": {"bus": "yes", "highway": "bus_stop", "network": "Dakar Dem Dikk", "operator": "Dakar Dem Dikk", "public_transport": "platform", "shelter": "no", "source": "bing;survey"}}, {"type": "node", "id": 4363241862, "lat": 14.7177996, "lon": -17.4670066, "tags": {"highway": "bus_stop", "network": "Dakar Dem Dikk", "operator": "Dakar Dem Dikk", "public_transport": "platform", "shelter": "no", "source": "bing;survey"}}, {"type": "node", "id": 4363241863, "lat": 14.7181804, "lon": -17.4710771, "tags": {"bench": "no", "bin": "no", "bus": "yes", "highway": "bus_stop", "network": "Dakar Dem Dikk", "operator": "Dakar Dem Dikk", "public_transport": "platform", "shelter": "no", "source": "bing;survey"}}, {"type": "node", "id": 4363241864, "lat": 14.7182202, "lon": -17.4561966, "tags": {"bus": "yes", "highway": "bus_stop", "network": "Dakar Dem Dikk", "operator": "Dakar Dem Dikk", "public_transport": "platform", "shelter": "no", "source": "bing;survey"}}, {"type": "node", "id": 4363241865, "lat": 14.7183385, "lon": -17.4626316, "tags": {"bus": "yes", "highway": "bus_stop", "network": "Dakar Dem Dikk", "operator": "Dakar Dem Dikk", "public_transport": "platform", "shelter": "no", "source": "bing;survey"}}, {"type": "node", "id": 4363241866, "lat": 14.718377, "lon": -17.4567156, "tags": {"bus": "yes", "highway": "bus_stop", "network": "Dakar Dem Dikk", "operator": "Dakar Dem Dikk", "public_transport": "platform", "shelter": "no", "source": "bing;survey"}}, {"type": "node", "id": 4363241867, "lat": 14.7184255, "lon": -17.4327026, "tags": {"highway": "bus_stop", "network": "Dakar Dem Dikk", "operator": "Dakar Dem Dikk", "public_transport": "platform", "shelter": "no", "source": "bing;survey"}}, {"type": "node", "id": 4363241868, "lat": 14.7184398, "lon": -17.4503465, "tags": {"bus": "yes", "highway": "bus_stop", "network": "Dakar Dem Dikk", "operator": "Dakar Dem Dikk", "public_transport": "platform", "shelter": "no", "source": "bing;survey"}}, {"type": "node", "id": 4363241869, "lat": 14.718557, "lon": -17.4883156, "tags": {"bus": "yes", "highway": "bus_stop", "network": "Dakar Dem Dikk", "operator": "Dakar Dem Dikk", "public_transport": "platform", "shelter": "no", "source": "bing;survey"}}, {"type": "node", "id": 4363241870, "lat": 14.7186436, "lon": -17.4887147, "tags": {"bus": "yes", "highway": "bus_stop", "network": "Dakar Dem Dikk", "operator": "Dakar Dem Dikk", "public_transport": "platform", "shelter": "no", "source": "bing;survey"}}, {"type": "node", "id": 4363241871, "lat": 14.7187632, "lon": -17.4869451, "tags": {"bus": "yes", "highway": "bus_stop", "network": "Dakar Dem Dikk", "operator": "Dakar Dem Dikk", "public_transport": "platform", "shelter": "no", "source": "bing;survey"}}, {"type": "node", "id": 4363241872, "lat": 14.7188566, "lon": -17.4546501, "tags": {"bus": "yes", "highway": "bus_stop", "network": "Dakar Dem Dikk", "operator": "Dakar Dem Dikk", "public_transport": "platform", "shelter": "no", "source": "bing;survey"}}, {"type": "node", "id": 4363241873, "lat": 14.7190723, "lon": -17.4537142, "tags": {"bus": "yes", "highway": "bus_stop", "network": "Dakar Dem Dikk", "operator": "Dakar Dem Dikk", "public_transport": "platform", "shelter": "no", "source": "bing;survey"}}, {"type": "node", "id": 4363241874, "lat": 14.7195085, "lon": -17.4901402, "tags": {"bus": "yes", "highway": "bus_stop", "network": "Dakar Dem Dikk", "operator": "Dakar Dem Dikk", "public_transport": "platform", "shelter": "no", "source": "bing;survey"}}, {"type": "node", "id": 4363241875, "lat": 14.7196363, "lon": -17.4650039, "tags": {"bus": "yes", "highway": "bus_stop", "name": "Arret 2 voies Sacr\u00e9 coeur", "network": "Dakar Dem Dikk", "operator": "Dakar Dem Dikk", "public_transport": "platform", "ref": "9", "route_ref": "9", "shelter": "no", "source": "bing;survey"}}, {"type": "node", "id": 4363241876, "lat": 14.7197868, "lon": -17.4902944, "tags": {"bus": "yes", "highway": "bus_stop", "network": "Dakar Dem Dikk", "operator": "Dakar Dem Dikk", "public_transport": "platform", "shelter": "no", "source": "bing;survey"}}, {"type": "node", "id": 4363241878, "lat": 14.7199844, "lon": -17.4650702, "tags": {"bus": "yes", "highway": "bus_stop", "name": "Arret 2 voies sacr\u00e9 coeur", "network": "Dakar Dem Dikk", "operator": "Dakar Dem Dikk", "public_transport": "platform", "ref": "9;121", "route_ref": "9;121", "shelter": "no", "source": "bing;survey"}}, {"type": "node", "id": 4363241879, "lat": 14.7201805, "lon": -17.4468148, "tags": {"bus": "yes", "highway": "bus_stop", "network": "Dakar Dem Dikk", "operator": "Dakar Dem Dikk", "public_transport": "platform", "shelter": "no", "source": "bing;survey"}}, {"type": "node", "id": 4363241880, "lat": 14.7203631, "lon": -17.4484049, "tags": {"bench": "yes", "bus": "yes", "highway": "bus_stop", "network": "Dakar Dem Dikk", "operator": "Dakar Dem Dikk", "public_transport": "platform", "shelter": "yes", "source": "bing;survey"}}, {"type": "node", "id": 4363241881, "lat": 14.7204943, "lon": -17.4606305, "tags": {"bus": "yes", "highway": "bus_stop", "network": "Dakar Dem Dikk", "operator": "Dakar Dem Dikk", "public_transport": "platform", "shelter": "no", "source": "bing;survey"}}, {"type": "node", "id": 4363241883, "lat": 14.7205659, "lon": -17.4574043, "tags": {"bus": "yes", "highway": "bus_stop", "network": "Dakar Dem Dikk", "operator": "Dakar Dem Dikk", "public_transport": "platform", "shelter": "no", "source": "bing;survey"}}, {"type": "node", "id": 4363241884, "lat": 14.7206161, "lon": -17.4570177, "tags": {"bus": "yes", "highway": "bus_stop", "network": "Dakar Dem Dikk", "operator": "Dakar Dem Dikk", "public_transport": "platform", "shelter": "no", "source": "bing;survey"}}, {"type": "node", "id": 4363241885, "lat": 14.7207755, "lon": -17.4606429, "tags": {"highway": "bus_stop", "network": "Dakar Dem Dikk", "operator": "Dakar Dem Dikk", "public_transport": "platform", "shelter": "no", "source": "bing;survey"}}, {"type": "node", "id": 4363241887, "lat": 14.7210135, "lon": -17.4318413, "tags": {"highway": "bus_stop", "network": "Dakar Dem Dikk", "operator": "Dakar Dem Dikk", "public_transport": "platform", "shelter": "no"}}, {"type": "node", "id": 4363241888, "lat": 14.7209994, "lon": -17.485812, "tags": {"bus": "yes", "highway": "bus_stop", "network": "Dakar Dem Dikk", "operator": "Dakar Dem Dikk", "public_transport": "platform", "shelter": "no", "source": "bing;survey"}}, {"type": "node", "id": 4363242490, "lat": 14.7215217, "lon": -17.4482308, "tags": {"bench": "yes", "bus": "yes", "highway": "bus_stop", "network": "Dakar Dem Dikk", "operator": "Dakar Dem Dikk", "public_transport": "platform", "shelter": "yes", "source": "bing;survey"}}, {"type": "node", "id": 4363242491, "lat": 14.7216275, "lon": -17.4533231, "tags": {"bus": "yes", "highway": "bus_stop", "network": "Dakar Dem Dikk", "operator": "Dakar Dem Dikk", "public_transport": "platform", "shelter": "no", "source": "bing;survey"}}, {"type": "node", "id": 4363242492, "lat": 14.7216835, "lon": -17.4874542, "tags": {"bus": "yes", "highway": "bus_stop", "network": "Dakar Dem Dikk", "operator": "Dakar Dem Dikk", "public_transport": "platform", "shelter": "no", "source": "bing;survey"}}, {"type": "node", "id": 4363242493, "lat": 14.7220455, "lon": -17.487618, "tags": {"bus": "yes", "highway": "bus_stop", "network": "Dakar Dem Dikk", "operator": "Dakar Dem Dikk", "public_transport": "platform", "shelter": "no", "source": "bing;survey"}}, {"type": "node", "id": 4363242494, "lat": 14.7221307, "lon": -17.4365836, "tags": {"bus": "yes", "highway": "bus_stop", "network": "Dakar Dem Dikk", "operator": "Dakar Dem Dikk", "public_transport": "platform", "shelter": "no", "source": "bing;survey"}}, {"type": "node", "id": 4363242495, "lat": 14.7221732, "lon": -17.4504479, "tags": {"bus": "yes", "highway": "bus_stop", "network": "Dakar Dem Dikk", "operator": "Dakar Dem Dikk", "public_transport": "platform", "shelter": "no", "source": "bing;survey"}}, {"type": "node", "id": 4363242496, "lat": 14.7222542, "lon": -17.463973, "tags": {"bus": "yes", "highway": "bus_stop", "name": "Arret JVC", "network": "Dakar Dem Dikk", "operator": "Dakar Dem Dikk", "public_transport": "platform", "ref": "9", "route_ref": "9", "shelter": "no", "source": "bing;survey"}}, {"type": "node", "id": 4363242497, "lat": 14.7222251, "lon": -17.4468173, "tags": {"bench": "yes", "bus": "yes", "highway": "bus_stop", "network": "Dakar Dem Dikk", "operator": "Dakar Dem Dikk", "public_transport": "platform", "shelter": "yes", "source": "bing;survey"}}, {"type": "node", "id": 4363242498, "lat": 14.7222886, "lon": -17.4707385, "tags": {"bus": "yes", "highway": "bus_stop", "network": "Dakar Dem Dikk", "operator": "Dakar Dem Dikk", "public_transport": "platform", "shelter": "no", "source": "bing;survey"}}, {"type": "node", "id": 4363242499, "lat": 14.7222878, "lon": -17.4627003, "tags": {"bus": "yes", "highway": "bus_stop", "network": "Dakar Dem Dikk", "operator": "Dakar Dem Dikk", "public_transport": "platform", "shelter": "no", "source": "bing;survey"}}, {"type": "node", "id": 4363242500, "lat": 14.7223125, "lon": -17.4638958, "tags": {"bus": "yes", "highway": "bus_stop", "name": "Arret JVC", "network": "Dakar Dem Dikk", "operator": "Dakar Dem Dikk", "public_transport": "platform", "ref": "9", "route_ref": "9", "shelter": "no", "source": "bing;survey"}}, {"type": "node", "id": 4363242501, "lat": 14.7225027, "lon": -17.484492, "tags": {"bus": "yes", "highway": "bus_stop", "network": "Dakar Dem Dikk", "operator": "Dakar Dem Dikk", "public_transport": "platform", "shelter": "no", "source": "bing;survey"}}, {"type": "node", "id": 4363242502, "lat": 14.7225643, "lon": -17.4712087, "tags": {"bus": "yes", "highway": "bus_stop", "network": "Dakar Dem Dikk", "operator": "Dakar Dem Dikk", "public_transport": "platform", "shelter": "no", "source": "bing;survey"}}, {"type": "node", "id": 4363242503, "lat": 14.7225642, "lon": -17.4627602, "tags": {"bus": "yes", "highway": "bus_stop", "network": "Dakar Dem Dikk", "operator": "Dakar Dem Dikk", "public_transport": "platform", "shelter": "no", "source": "bing;survey"}}, {"type": "node", "id": 4363242504, "lat": 14.7225869, "lon": -17.4525252, "tags": {"bus": "yes", "highway": "bus_stop", "network": "Dakar Dem Dikk", "operator": "Dakar Dem Dikk", "public_transport": "platform", "shelter": "no", "source": "bing;survey"}}, {"type": "node", "id": 4363242506, "lat": 14.7228747, "lon": -17.455286, "tags": {"highway": "bus_stop", "network": "Dakar Dem Dikk", "operator": "Dakar Dem Dikk", "public_transport": "platform", "shelter": "no", "source": "bing;survey"}}, {"type": "node", "id": 4363242507, "lat": 14.7228925, "lon": -17.4583504, "tags": {"bench": "yes", "bus": "yes", "highway": "bus_stop", "network": "Dakar Dem Dikk", "operator": "Dakar Dem Dikk", "public_transport": "platform", "shelter": "yes", "source": "bing;survey"}}, {"type": "node", "id": 4363242508, "lat": 14.722935, "lon": -17.4584512, "tags": {"bus": "yes", "highway": "bus_stop", "network": "Dakar Dem Dikk", "operator": "Dakar Dem Dikk", "public_transport": "platform", "shelter": "no", "source": "bing;survey"}}, {"type": "node", "id": 4363242509, "lat": 14.7232153, "lon": -17.4463499, "tags": {"bus": "yes", "highway": "bus_stop", "network": "Dakar Dem Dikk", "operator": "Dakar Dem Dikk", "public_transport": "platform", "shelter": "no"}}, {"type": "node", "id": 4363242510, "lat": 14.7232211, "lon": -17.4308193, "tags": {"bus": "yes", "highway": "bus_stop", "network": "Dakar Dem Dikk", "operator": "Dakar Dem Dikk", "public_transport": "platform", "shelter": "no", "source": "bing;survey"}}, {"type": "node", "id": 4363242511, "lat": 14.7233511, "lon": -17.4652817, "tags": {"bus": "yes", "highway": "bus_stop", "name": "Arret brioche dor\u00e9e Libert\u00e9 6", "network": "Dakar Dem Dikk", "operator": "Dakar Dem Dikk", "public_transport": "platform", "ref": "9", "route_ref": "9", "shelter": "no", "source": "bing;survey"}}, {"type": "node", "id": 4363242512, "lat": 14.7233982, "lon": -17.4652062, "tags": {"bus": "yes", "highway": "bus_stop", "name": "Arret brioche dor\u00e9e Libert\u00e9 6", "network": "Dakar Dem Dikk", "operator": "Dakar Dem Dikk", "public_transport": "platform", "ref": "9", "route_ref": "9", "shelter": "no", "source": "bing;survey"}}, {"type": "node", "id": 4363242513, "lat": 14.72347, "lon": -17.4529776, "tags": {"bus": "yes", "highway": "bus_stop", "network": "Dakar Dem Dikk", "operator": "Dakar Dem Dikk", "public_transport": "platform", "shelter": "no", "source": "bing;survey"}}, {"type": "node", "id": 4363242514, "lat": 14.7235614, "lon": -17.4382866, "tags": {"bus": "yes", "highway": "bus_stop", "name": "37", "network": "Dakar Dem Dikk", "operator": "Dakar Dem Dikk", "public_transport": "platform", "shelter": "no"}}, {"type": "node", "id": 4363242515, "lat": 14.7240811, "lon": -17.4530524, "tags": {"bus": "yes", "highway": "bus_stop", "network": "Dakar Dem Dikk", "operator": "Dakar Dem Dikk", "public_transport": "platform", "shelter": "no", "source": "bing;survey"}}, {"type": "node", "id": 4363242516, "lat": 14.7241496, "lon": -17.4833228, "tags": {"bus": "yes", "highway": "bus_stop", "network": "Dakar Dem Dikk", "operator": "Dakar Dem Dikk", "public_transport": "platform", "shelter": "no", "source": "bing;survey"}}, {"type": "node", "id": 4363242517, "lat": 14.7243526, "lon": -17.4610569, "tags": {"bus": "yes", "highway": "bus_stop", "network": "Dakar Dem Dikk", "operator": "Dakar Dem Dikk", "public_transport": "platform", "shelter": "no", "source": "bing;survey"}}, {"type": "node", "id": 4363242519, "lat": 14.7245668, "lon": -17.4603588, "tags": {"bus": "yes", "highway": "bus_stop", "network": "Dakar Dem Dikk", "operator": "Dakar Dem Dikk", "public_transport": "platform", "shelter": "no", "source": "bing;survey"}}, {"type": "node", "id": 4363242520, "lat": 14.7246076, "lon": -17.4570776, "tags": {"bus": "yes", "highway": "bus_stop", "network": "Dakar Dem Dikk", "operator": "Dakar Dem Dikk", "public_transport": "platform", "shelter": "no", "source": "bing;survey"}}, {"type": "node", "id": 4363242521, "lat": 14.7249815, "lon": -17.4297204, "tags": {"highway": "bus_stop", "network": "Dakar Dem Dikk", "operator": "Dakar Dem Dikk", "public_transport": "platform", "shelter": "no", "source": "bing;survey"}}, {"type": "node", "id": 4363242522, "lat": 14.7250754, "lon": -17.4880605, "tags": {"bus": "yes", "highway": "bus_stop", "network": "Dakar Dem Dikk", "operator": "Dakar Dem Dikk", "public_transport": "platform", "shelter": "no", "source": "bing;survey"}}, {"type": "node", "id": 4363242523, "lat": 14.7254762, "lon": -17.4882418, "tags": {"bus": "yes", "highway": "bus_stop", "network": "Dakar Dem Dikk", "operator": "Dakar Dem Dikk", "public_transport": "platform", "shelter": "no", "source": "bing;survey"}}, {"type": "node", "id": 4363242524, "lat": 14.7255696, "lon": -17.4448868, "tags": {"bench": "yes", "bus": "yes", "highway": "bus_stop", "network": "Dakar Dem Dikk", "operator": "Dakar Dem Dikk", "public_transport": "platform", "shelter": "yes", "source": "bing;survey"}}, {"type": "node", "id": 4363242525, "lat": 14.7256037, "lon": -17.4827764, "tags": {"bus": "yes", "highway": "bus_stop", "name": "Arret Pharmacie", "network": "Dakar Dem Dikk", "operator": "Dakar Dem Dikk", "public_transport": "platform", "shelter": "no", "source": "bing;survey"}}, {"type": "node", "id": 4363242526, "lat": 14.7256911, "lon": -17.4294773, "tags": {"highway": "bus_stop", "network": "Dakar Dem Dikk", "operator": "Dakar Dem Dikk", "public_transport": "platform", "shelter": "no", "source": "bing;survey"}}, {"type": "node", "id": 4363242527, "lat": 14.72577, "lon": -17.4526697, "tags": {"highway": "bus_stop", "network": "Dakar Dem Dikk", "operator": "Dakar Dem Dikk", "public_transport": "platform", "shelter": "no", "source": "bing;survey"}}, {"type": "node", "id": 4363242528, "lat": 14.7258135, "lon": -17.4636853, "tags": {"bus": "yes", "highway": "bus_stop", "name": "Arret Libert\u00e9 6", "network": "Dakar Dem Dikk", "operator": "Dakar Dem Dikk", "public_transport": "platform", "ref": "9", "route_ref": "9", "shelter": "no", "source": "bing;survey"}}, {"type": "node", "id": 4363242529, "lat": 14.7259445, "lon": -17.4636752, "tags": {"bus": "yes", "highway": "bus_stop", "name": "Arret Liberte 6", "network": "Dakar Dem Dikk", "operator": "Dakar Dem Dikk", "public_transport": "platform", "ref": "9", "route_ref": "9", "shelter": "no", "source": "bing;survey"}}, {"type": "node", "id": 4363242530, "lat": 14.7261725, "lon": -17.444648, "tags": {"bench": "yes", "bus": "yes", "highway": "bus_stop", "network": "Dakar Dem Dikk", "operator": "Dakar Dem Dikk", "public_transport": "platform", "shelter": "yes"}}, {"type": "node", "id": 4363242531, "lat": 14.7263712, "lon": -17.4567227, "tags": {"bus": "yes", "highway": "bus_stop", "network": "Dakar Dem Dikk", "operator": "Dakar Dem Dikk", "public_transport": "platform", "shelter": "no", "source": "bing;survey"}}, {"type": "node", "id": 4363242532, "lat": 14.726695, "lon": -17.5012411, "tags": {"bench": "no", "bin": "no", "bus": "yes", "highway": "bus_stop", "name": "Arret Bus Mamelles", "network": "Dakar Dem Dikk", "notes": "217 and 218", "operator": "Dakar Dem Dikk", "public_transport": "platform", "shelter": "no"}}, {"type": "node", "id": 4363242533, "lat": 14.7268825, "lon": -17.4525677, "tags": {"bus": "yes", "highway": "bus_stop", "network": "Dakar Dem Dikk", "operator": "Dakar Dem Dikk", "public_transport": "platform", "shelter": "no", "source": "bing;survey"}}, {"type": "node", "id": 4363242534, "lat": 14.7268979, "lon": -17.4624771, "tags": {"bus": "yes", "highway": "bus_stop", "name": "Arret Terrain libert\u00e9 6", "network": "Dakar Dem Dikk", "operator": "Dakar Dem Dikk", "public_transport": "platform", "ref": "Arret Terrain libert\u00e9 6", "route_ref": "9", "shelter": "no", "source": "bing;survey"}}, {"type": "node", "id": 4363242536, "lat": 14.7271221, "lon": -17.4583123, "tags": {"bus": "yes", "highway": "bus_stop", "network": "Dakar Dem Dikk", "operator": "Dakar Dem Dikk", "public_transport": "platform", "shelter": "no", "source": "bing;survey"}}, {"type": "node", "id": 4363242537, "lat": 14.7272561, "lon": -17.4566865, "tags": {"bus": "yes", "highway": "bus_stop", "network": "Dakar Dem Dikk", "operator": "Dakar Dem Dikk", "public_transport": "platform", "shelter": "no", "source": "bing;survey"}}, {"type": "node", "id": 4363242538, "lat": 14.7276831, "lon": -17.458075, "tags": {"bus": "yes", "highway": "bus_stop", "network": "Dakar Dem Dikk", "operator": "Dakar Dem Dikk", "public_transport": "platform", "shelter": "no", "source": "bing;survey"}}, {"type": "node", "id": 4363242539, "lat": 14.727741, "lon": -17.4516467, "tags": {"highway": "bus_stop", "network": "Dakar Dem Dikk", "operator": "Dakar Dem Dikk", "public_transport": "platform", "shelter": "no", "source": "bing;survey"}}, {"type": "node", "id": 4363242540, "lat": 14.7279226, "lon": -17.4718998, "tags": {"highway": "bus_stop", "network": "Dakar Dem Dikk", "operator": "Dakar Dem Dikk", "public_transport": "platform", "shelter": "no", "source": "bing;survey"}}, {"type": "node", "id": 4363242541, "lat": 14.7282389, "lon": -17.4556864, "tags": {"bench": "yes", "bus": "yes", "highway": "bus_stop", "network": "Dakar Dem Dikk", "operator": "Dakar Dem Dikk", "public_transport": "platform", "shelter": "yes", "source": "bing;survey"}}, {"type": "node", "id": 4363242542, "lat": 14.7284268, "lon": -17.455351, "tags": {"bus": "yes", "highway": "bus_stop", "name": "Arr\u00eat Avenue Fahd Ben Abdel Aziz", "network": "Dakar Dem Dikk", "operator": "Dakar Dem Dikk", "public_transport": "platform", "ref": "Ligne 23", "shelter": "no", "source": "bing;survey"}}, {"type": "node", "id": 4363242543, "lat": 14.7291084, "lon": -17.4902847, "tags": {"bench": "yes", "bus": "yes", "highway": "bus_stop", "network": "Dakar Dem Dikk", "operator": "Dakar Dem Dikk", "public_transport": "platform", "shelter": "yes", "source": "bing;survey"}}, {"type": "node", "id": 4363242544, "lat": 14.7291693, "lon": -17.4727569, "tags": {"highway": "bus_stop", "network": "Dakar Dem Dikk", "operator": "Dakar Dem Dikk", "public_transport": "platform", "shelter": "no", "source": "bing;survey"}}, {"type": "node", "id": 4363242545, "lat": 14.7291907, "lon": -17.4264541, "tags": {"bus": "yes", "highway": "bus_stop", "network": "Dakar Dem Dikk", "operator": "Dakar Dem Dikk", "public_transport": "platform", "shelter": "no", "source": "bing;survey"}}, {"type": "node", "id": 4363242546, "lat": 14.7298318, "lon": -17.425269, "tags": {"bus": "yes", "highway": "bus_stop", "network": "Dakar Dem Dikk", "operator": "Dakar Dem Dikk", "public_transport": "platform", "shelter": "no", "source": "bing;survey"}}, {"type": "node", "id": 4363242547, "lat": 14.730068, "lon": -17.4991682, "tags": {"bus": "yes", "highway": "bus_stop", "network": "Dakar Dem Dikk", "operator": "Dakar Dem Dikk", "public_transport": "platform", "shelter": "no", "source": "bing;survey"}}, {"type": "node", "id": 4363242548, "lat": 14.730727, "lon": -17.4989676, "tags": {"bus": "yes", "highway": "bus_stop", "network": "Dakar Dem Dikk", "operator": "Dakar Dem Dikk", "public_transport": "platform", "shelter": "no", "source": "bing;survey"}}, {"type": "node", "id": 4408426990, "lat": 14.7400558, "lon": -17.468943, "tags": {"highway": "bus_stop", "name": "Terminus 76", "name:fr": "Terminus 76", "operator": "Bus AFTU"}}, {"type": "node", "id": 4485586689, "lat": 14.7008419, "lon": -17.4264453, "tags": {"highway": "bus_stop", "name": "37"}}, {"type": "node", "id": 4522814695, "lat": 14.7352258, "lon": -17.453225, "tags": {"bus": "yes", "highway": "bus_stop", "public_transport": "platform"}}, {"type": "node", "id": 4522822600, "lat": 14.7154215, "lon": -17.4661979, "tags": {"bus": "yes", "highway": "bus_stop", "public_transport": "platform"}}, {"type": "node", "id": 4522834591, "lat": 14.7351869, "lon": -17.4529162, "tags": {"bus": "yes", "highway": "bus_stop", "public_transport": "platform"}}, {"type": "node", "id": 4666414391, "lat": 14.7603996, "lon": -17.4394029, "tags": {"bus": "yes", "highway": "bus_stop", "name": "Terminus Parcelles-Assainies", "network": "Dakar Dem Dikk", "operator": "Dakar Dem Dikk", "public_transport": "platform", "short_name": "DDD"}}, {"type": "node", "id": 4666430937, "lat": 14.6739709, "lon": -17.4325478, "tags": {"highway": "bus_stop", "name": "Port de Dakar", "network": "Dakar Dem Dikk", "operator": "Dakar Dem Dikk", "public_transport": "platform"}}, {"type": "node", "id": 4666430938, "lat": 14.6718059, "lon": -17.4321923, "tags": {"bus": "yes", "highway": "bus_stop", "name": "H\u00f4tel de ville", "network": "Dakar Dem Dikk", "operator": "Dakar Dem Dikk", "public_transport": "platform"}}, {"type": "node", "id": 4666430939, "lat": 14.6695126, "lon": -17.4315741, "tags": {"bench": "no", "bus": "yes", "highway": "bus_stop", "name": "Place de l\u2019Ind\u00e9pendance", "network": "Dakar Dem Dikk", "operator": "Dakar Dem Dikk", "public_transport": "platform", "shelter": "no"}}, {"type": "node", "id": 4666430940, "lat": 14.6695142, "lon": -17.4326022, "tags": {"highway": "bus_stop", "network": "Dakar Dem Dikk", "operator": "Dakar Dem Dikk", "public_transport": "platform"}}, {"type": "node", "id": 4666430941, "lat": 14.6694418, "lon": -17.4330474, "tags": {"bus": "yes", "highway": "bus_stop", "network": "Dakar Dem Dikk", "operator": "Dakar Dem Dikk", "public_transport": "platform"}}, {"type": "node", "id": 4666430942, "lat": 14.6694574, "lon": -17.4345883, "tags": {"bench": "no", "bin": "no", "bus": "yes", "highway": "bus_stop", "lit": "yes", "name": "Alybaba", "network": "Dakar Dem Dikk", "operator": "Dakar Dem Dikk", "public_transport": "platform", "shelter": "no"}}, {"type": "node", "id": 4666430943, "lat": 14.6692576, "lon": -17.4361145, "tags": {"bench": "no", "bin": "no", "bus": "yes", "highway": "bus_stop", "network": "Dakar Dem Dikk", "operator": "Dakar Dem Dikk", "public_transport": "platform", "shelter": "yes"}}, {"type": "node", "id": 4666430944, "lat": 14.6691169, "lon": -17.4386278, "tags": {"bench": "yes", "bin": "no", "bus": "yes", "highway": "bus_stop", "lit": "yes", "name": "Ville", "network": "Dakar Dem Dikk", "operator": "Dakar Dem Dikk", "public_transport": "platform", "shelter": "yes"}}, {"type": "node", "id": 4666430945, "lat": 14.6705731, "lon": -17.4402706, "tags": {"bench": "no", "bus": "yes", "highway": "bus_stop", "network": "Dakar Dem Dikk", "operator": "Dakar Dem Dikk", "public_transport": "platform", "shelter": "no"}}, {"type": "node", "id": 4666430946, "lat": 14.671611, "lon": -17.4404423, "tags": {"bench": "yes", "bin": "no", "bus": "yes", "highway": "bus_stop", "name": "Arr\u00eat El Malick", "network": "Dakar Dem Dikk", "operator": "Dakar Dem Dikk", "public_transport": "platform", "shelter": "yes"}}, {"type": "node", "id": 4666430947, "lat": 14.6748817, "lon": -17.4433605, "tags": {"bench": "no", "bin": "no", "bus": "yes", "highway": "bus_stop", "network": "Dakar Dem Dikk", "operator": "Dakar Dem Dikk", "public_transport": "platform", "shelter": "no"}}, {"type": "node", "id": 4666430948, "lat": 14.6756718, "lon": -17.4439707, "tags": {"bench": "no", "bin": "no", "bus": "yes", "highway": "bus_stop", "name": "Ville", "network": "Dakar Dem Dikk", "operator": "Dakar Dem Dikk", "public_transport": "platform", "shelter": "no"}}, {"type": "node", "id": 4666430949, "lat": 14.6779668, "lon": -17.4463337, "tags": {"bench": "no", "bin": "no", "bus": "yes", "highway": "bus_stop", "name": "Polyclinique", "network": "Dakar Dem Dikk", "operator": "Dakar Dem Dikk", "public_transport": "platform", "shelter": "no"}}, {"type": "node", "id": 4666430950, "lat": 14.6784889, "lon": -17.4471505, "tags": {"bus": "yes", "highway": "bus_stop", "name": "Stade", "network": "Dakar Dem Dikk", "operator": "Dakar Dem Dikk", "public_transport": "platform"}}, {"type": "node", "id": 4666430951, "lat": 14.6794172, "lon": -17.4481891, "tags": {"bench": "no", "bin": "no", "bus": "yes", "highway": "bus_stop", "name": "March\u00e9 Til\u00e8ne", "network": "Dakar Dem Dikk", "operator": "Dakar Dem Dikk", "public_transport": "platform", "shelter": "no"}}, {"type": "node", "id": 4666430952, "lat": 14.6799822, "lon": -17.4485358, "tags": {"bus": "yes", "highway": "bus_stop", "name": "March\u00e9 Til\u00e8ne", "network": "Dakar Dem Dikk", "operator": "Dakar Dem Dikk", "public_transport": "platform"}}, {"type": "node", "id": 4666430953, "lat": 14.6814319, "lon": -17.4502967, "tags": {"bench": "no", "bin": "no", "bus": "yes", "highway": "bus_stop", "name": "March\u00e9 Til\u00e8ne", "network": "Dakar Dem Dikk", "operator": "Dakar Dem Dikk", "public_transport": "platform", "shelter": "no"}}, {"type": "node", "id": 4666430954, "lat": 14.6820994, "lon": -17.4507748, "tags": {"bus": "yes", "highway": "bus_stop", "name": "March\u00e9 Til\u00e8ne", "network": "Dakar Dem Dikk", "operator": "Dakar Dem Dikk", "public_transport": "platform"}}, {"type": "node", "id": 4666430955, "lat": 14.6833902, "lon": -17.4524284, "tags": {"bus": "yes", "highway": "bus_stop", "name": "Medina", "network": "Dakar Dem Dikk", "operator": "Dakar Dem Dikk", "public_transport": "platform"}}, {"type": "node", "id": 4666430956, "lat": 14.6837606, "lon": -17.4525605, "tags": {"bus": "yes", "highway": "bus_stop", "name": "Medina", "network": "Dakar Dem Dikk", "operator": "Dakar Dem Dikk", "public_transport": "platform"}}, {"type": "node", "id": 4666430957, "lat": 14.6856378, "lon": -17.4542992, "tags": {"bench": "yes", "bin": "yes", "bus": "yes", "highway": "bus_stop", "lit": "yes", "name": "SAHM", "network": "Dakar Dem Dikk", "operator": "Dakar Dem Dikk", "public_transport": "platform", "shelter": "yes"}}, {"type": "node", "id": 4666430958, "lat": 14.6864512, "lon": -17.4554847, "tags": {"bench": "no", "bin": "no", "bus": "yes", "highway": "bus_stop", "lit": "yes", "name": "Eglise Saint Joseph", "network": "Dakar Dem Dikk", "operator": "Dakar Dem Dikk", "public_transport": "platform", "shelter": "no"}}, {"type": "node", "id": 4666430959, "lat": 14.6880625, "lon": -17.4568862, "tags": {"bus": "yes", "highway": "bus_stop", "name": "Manguiers", "network": "Dakar Dem Dikk", "operator": "Dakar Dem Dikk", "public_transport": "platform"}}, {"type": "node", "id": 4666430960, "lat": 14.6890347, "lon": -17.4577499, "tags": {"bus": "yes", "highway": "bus_stop", "name": "Manguiers", "network": "Dakar Dem Dikk", "operator": "Dakar Dem Dikk", "public_transport": "platform"}}, {"type": "node", "id": 4666430961, "lat": 14.6907153, "lon": -17.4589622, "tags": {"bench": "yes", "bin": "no", "bus": "yes", "highway": "bus_stop", "lit": "yes", "name": "Arret Bus Aftu", "network": "Dakar Dem Dikk", "operator": "Dakar Dem Dikk", "public_transport": "platform", "shelter": "yes"}}, {"type": "node", "id": 4666430962, "lat": 14.6910578, "lon": -17.4597119, "tags": {"bench": "no", "bin": "no", "bus": "yes", "highway": "bus_stop", "lit": "no", "name": "Arret Bus Aftu", "network": "Dakar Dem Dikk", "operator": "Dakar Dem Dikk", "public_transport": "platform", "shelter": "no"}}, {"type": "node", "id": 4666430963, "lat": 14.6932398, "lon": -17.4620743, "tags": {"bus": "yes", "highway": "bus_stop", "name": "UCAD", "network": "Dakar Dem Dikk", "operator": "Dakar Dem Dikk", "public_transport": "platform"}}, {"type": "node", "id": 4666430964, "lat": 14.6930841, "lon": -17.4621614, "tags": {"bus": "yes", "highway": "bus_stop", "name": "UCAD", "network": "Dakar Dem Dikk", "operator": "Dakar Dem Dikk", "public_transport": "platform"}}, {"type": "node", "id": 4684869853, "lat": 14.7381331, "lon": -17.4091304, "tags": {"bus": "yes", "highway": "bus_stop", "network": "Dakar Dem Dikk", "operator": "Dakar Dem Dikk", "public_transport": "platform", "route_ref": "12;15;16B;232", "shelter": "no"}}, {"type": "node", "id": 4684869869, "lat": 14.7385715, "lon": -17.4065535, "tags": {"bus": "yes", "highway": "bus_stop", "network": "Dakar Dem Dikk", "operator": "Dakar Dem Dikk", "public_transport": "platform", "route_ref": "12;15;16B;232", "shelter": "no"}}, {"type": "node", "id": 4690360002, "lat": 14.6972263, "lon": -17.4359454, "tags": {"bus": "yes", "highway": "bus_stop", "network": "Dakar Dem Dikk", "operator": "Dakar Dem Dikk", "public_transport": "platform", "shelter": "no", "source": "bing;survey"}}, {"type": "node", "id": 4690360036, "lat": 14.6973736, "lon": -17.43604, "tags": {"bus": "yes", "highway": "bus_stop", "network": "Dakar Dem Dikk", "operator": "Dakar Dem Dikk", "public_transport": "platform", "shelter": "no", "source": "bing;survey"}}, {"type": "node", "id": 4697157995, "lat": 14.6729843, "lon": -17.4328434, "tags": {"bench": "no", "bin": "no", "bus": "yes", "highway": "bus_stop", "operator": "dakar-dem-dikk", "public_transport": "platform", "shelter": "no", "source": "survey"}}, {"type": "node", "id": 4697157996, "lat": 14.6750023, "lon": -17.4360339, "tags": {"bus": "yes", "highway": "bus_stop", "operator": "dakar-dem-dikk", "public_transport": "platform", "source": "survey"}}, {"type": "node", "id": 4697157997, "lat": 14.6756332, "lon": -17.4388467, "tags": {"bus": "yes", "highway": "bus_stop", "operator": "dakar-dem-dikk", "public_transport": "platform", "source": "survey"}}, {"type": "node", "id": 4697157998, "lat": 14.6756893, "lon": -17.4388825, "tags": {"bus": "yes", "highway": "bus_stop", "operator": "dakar-dem-dikk", "public_transport": "platform", "source": "survey"}}, {"type": "node", "id": 4697157999, "lat": 14.6780394, "lon": -17.4419173, "tags": {"bus": "yes", "highway": "bus_stop", "operator": "Dakar-dem-dikk", "public_transport": "platform", "source": "survey"}}, {"type": "node", "id": 4697158000, "lat": 14.6810538, "lon": -17.444821, "tags": {"bus": "yes", "highway": "bus_stop", "operator": "dakar-dem-dikk", "public_transport": "platform", "source": "survey"}}, {"type": "node", "id": 4697158001, "lat": 14.682665, "lon": -17.4467334, "tags": {"bus": "yes", "highway": "bus_stop", "operator": "dakar-dem-dikk", "public_transport": "platform", "source": "survey"}}, {"type": "node", "id": 4697158002, "lat": 14.6829158, "lon": -17.4470795, "tags": {"bus": "yes", "highway": "bus_stop", "operator": "dakar-dem-dikk", "public_transport": "platform", "source": "survey"}}, {"type": "node", "id": 4697158003, "lat": 14.6843202, "lon": -17.4484583, "tags": {"bus": "yes", "highway": "bus_stop", "operator": "Dakar-dem-dikk", "public_transport": "platform", "source": "survey"}}, {"type": "node", "id": 4697158004, "lat": 14.6846977, "lon": -17.4489326, "tags": {"bus": "yes", "highway": "bus_stop", "operator": "Dakar-dem-dikk", "public_transport": "platform", "source": "survey"}}, {"type": "node", "id": 4697158005, "lat": 14.6864249, "lon": -17.4506671, "tags": {"bus": "yes", "highway": "bus_stop", "operator": "Dakar-dem-dikk", "public_transport": "platform", "source": "survey"}}, {"type": "node", "id": 4697158006, "lat": 14.6866592, "lon": -17.451003, "tags": {"bus": "yes", "highway": "bus_stop", "operator": "Dakar-dem-dikk", "public_transport": "platform", "source": "survey"}}, {"type": "node", "id": 4697158007, "lat": 14.6893964, "lon": -17.4523333, "tags": {"bench": "no", "bin": "no", "bus": "yes", "highway": "bus_stop", "name": "121", "operator": "dakar-dem-dikk", "public_transport": "platform", "shelter": "no", "source": "survey"}}, {"type": "node", "id": 4697158008, "lat": 14.6929237, "lon": -17.4540848, "tags": {"bench": "no", "bin": "no", "bus": "yes", "highway": "bus_stop", "lit": "no", "name": "DDD 121", "operator": "dakar-dem-dikk", "public_transport": "platform", "shelter": "no", "source": "survey"}}, {"type": "node", "id": 4697158009, "lat": 14.6952652, "lon": -17.4533848, "tags": {"bench": "no", "bin": "no", "bus": "yes", "highway": "bus_stop", "operator": "dakar-dem-dikk", "public_transport": "platform", "shelter": "no", "source": "survey"}}, {"type": "node", "id": 4697158010, "lat": 14.7006292, "lon": -17.4545716, "tags": {"bus": "yes", "highway": "bus_stop", "name": "Tata", "network": "Dakar Dem Dikk", "operator": "GIE", "public_transport": "platform", "route_ref": "31"}}, {"type": "node", "id": 4697158011, "lat": 14.7036608, "lon": -17.4572002, "tags": {"bus": "yes", "highway": "bus_stop", "operator": "dakar-dem-dikk", "public_transport": "platform", "source": "survey"}}, {"type": "node", "id": 4697843990, "lat": 14.7427341, "lon": -17.435394, "tags": {"bus": "yes", "highway": "bus_stop", "name": "Arret de bus Dakar dem Dikk", "name:fr": "Arret de bus Dakar dem Dikk", "public_transport": "platform"}}, {"type": "node", "id": 4697854889, "lat": 14.7449355, "lon": -17.4259186, "tags": {"bus": "yes", "highway": "bus_stop", "name": "Arret de bus Dakar dem dikk", "name:fr": "Arret de bus Dakar dem dikk", "operator": "dakar dem dikk", "public_transport": "platform"}}, {"type": "node", "id": 4697855389, "lat": 14.742768, "lon": -17.4351768, "tags": {"bus": "yes", "highway": "bus_stop", "name": "Arret de bus Tata", "name:fr": "Arret de bus Tata", "operator": "Tata", "public_transport": "platform"}}, {"type": "node", "id": 4701929393, "lat": 14.6928647, "lon": -17.4321964, "tags": {"bus": "yes", "highway": "bus_stop", "network": "Dakar Dem Dikk", "operator": "Dakar Dem Dikk", "public_transport": "platform", "shelter": "no"}}, {"type": "node", "id": 4701929452, "lat": 14.6922887, "lon": -17.4324795, "tags": {"bench": "yes", "bus": "yes", "highway": "bus_stop", "network": "Dakar Dem Dikk", "operator": "Dakar Dem Dikk", "public_transport": "platform", "shelter": "yes"}}, {"type": "node", "id": 4704772330, "lat": 14.7177365, "lon": -17.4332636, "tags": {"bus": "yes", "highway": "bus_stop", "public_transport": "platform", "route_ref": "15;16B"}}, {"type": "node", "id": 4706167986, "lat": 14.6946909, "lon": -17.4320887, "tags": {"bus": "yes", "highway": "bus_stop", "network": "Dakar Dem Dikk", "operator": "Dakar Dem Dikk", "public_transport": "platform", "shelter": "no", "source": "bing;survey"}}, {"type": "node", "id": 4706172218, "lat": 14.6943947, "lon": -17.4318502, "tags": {"bus": "yes", "highway": "bus_stop", "network": "Dakar Dem Dikk", "operator": "Dakar Dem Dikk", "public_transport": "platform", "shelter": "no", "source": "bing;survey"}}, {"type": "node", "id": 4719975389, "lat": 14.7511909, "lon": -17.5022927, "tags": {"bench": "no", "bin": "no", "bus": "yes", "highway": "bus_stop", "public_transport": "platform", "shelter": "no"}}, {"type": "node", "id": 4719975489, "lat": 14.7509778, "lon": -17.5023916, "tags": {"bus": "yes", "highway": "bus_stop", "public_transport": "platform"}}, {"type": "node", "id": 4733980625, "lat": 14.7330019, "lon": -17.4558199, "tags": {"bus": "yes", "highway": "bus_stop", "public_transport": "platform"}}, {"type": "node", "id": 4733995121, "lat": 14.7339152, "lon": -17.4547518, "tags": {"bus": "yes", "highway": "bus_stop", "public_transport": "platform"}}, {"type": "node", "id": 4741882132, "lat": 14.7450271, "lon": -17.5241334, "tags": {"bench": "no", "bus": "yes", "highway": "bus_stop", "name": "47", "name:fr": "47", "public_transport": "platform", "shelter": "no"}}, {"type": "node", "id": 4744719732, "lat": 14.7429653, "lon": -17.511669, "tags": {"bus": "yes", "highway": "bus_stop", "name": "3, 47, 61", "name:fr": "3, 47, 61", "public_transport": "platform"}}, {"type": "node", "id": 4744745521, "lat": 14.742592, "lon": -17.5112728, "tags": {"bus": "yes", "highway": "bus_stop", "name": "217, 218", "name:fr": "217, 218", "public_transport": "platform"}}, {"type": "node", "id": 4744772223, "lat": 14.7373891, "lon": -17.5106769, "tags": {"bus": "yes", "highway": "bus_stop", "name": "47", "name:fr": "47", "public_transport": "platform"}}, {"type": "node", "id": 4747526721, "lat": 14.7489389, "lon": -17.5143999, "tags": {"bus": "yes", "highway": "bus_stop", "name": "Arr\u00eat bus rond point Ngor", "name:fr": "Arr\u00eat bus rond point Ngor", "public_transport": "platform"}}, {"type": "node", "id": 4754514478, "lat": 14.6742772, "lon": -17.4320345, "tags": {"bench": "no", "bin": "no", "highway": "bus_stop", "name": "Port de Dakar", "network": "Dakar Dem Dikk", "operator": "Dakar Dem Dikk", "public_transport": "platform", "shelter": "no"}}, {"type": "node", "id": 4754514479, "lat": 14.6728723, "lon": -17.4306741, "tags": {"bus": "yes", "highway": "bus_stop", "name": "Patisen", "network": "Dakar Dem Dikk", "operator": "Dakar Dem Dikk", "public_transport": "platform"}}, {"type": "node", "id": 4754535243, "lat": 14.6741073, "lon": -17.4324653, "tags": {"highway": "bus_stop", "network": "Dakar Dem Dikk", "operator": "Dakar Dem Dikk", "public_transport": "platform", "source": "survey;bing;Dakar Dem Dikk"}}, {"type": "node", "id": 4754553915, "lat": 14.7059066, "lon": -17.4785904, "tags": {"bus": "yes", "highway": "bus_stop", "network": "Dakar Dem Dikk", "operator": "Dakar Dem Dikk", "public_transport": "platform", "source": "survey;bing;Dakar Dem Dikk"}}, {"type": "node", "id": 4754561629, "lat": 14.6616769, "lon": -17.4369275, "tags": {"bus": "yes", "highway": "bus_stop", "name": "Arr\u00eat Cl\u00e9menceau", "network": "Dakar Dem Dikk", "operator": "Dakar Dem Dikk", "public_transport": "platform", "source": "survey;bing;Dakar Dem Dikk"}}, {"type": "node", "id": 4754561630, "lat": 14.6577489, "lon": -17.4353858, "tags": {"bus": "yes", "highway": "bus_stop", "network": "Dakar Dem Dikk", "operator": "Dakar Dem Dikk", "public_transport": "platform", "source": "survey;bing;Dakar Dem Dikk"}}, {"type": "node", "id": 4754568562, "lat": 14.6619157, "lon": -17.4371501, "tags": {"bus": "yes", "highway": "bus_stop", "network": "Dakar Dem Dikk", "operator": "Dakar Dem Dikk", "public_transport": "platform", "source": "survey;bing;Dakar Dem Dikk"}}, {"type": "node", "id": 4754571946, "lat": 14.6625583, "lon": -17.4349547, "tags": {"bus": "yes", "highway": "bus_stop", "name": "Arret Hopital Principal", "network": "Dakar Dem Dikk", "operator": "Dakar Dem Dikk", "public_transport": "platform"}}, {"type": "node", "id": 4754571947, "lat": 14.662483, "lon": -17.4351713, "tags": {"bus": "yes", "highway": "bus_stop", "network": "Dakar Dem Dikk", "operator": "Dakar Dem Dikk", "public_transport": "platform", "source": "survey;bing;Dakar Dem Dikk"}}, {"type": "node", "id": 4754577377, "lat": 14.6781277, "lon": -17.4447005, "tags": {"bus": "yes", "highway": "bus_stop", "network": "Dakar Dem Dikk", "operator": "Dakar Dem Dikk", "public_transport": "platform", "source": "survey;bing;Dakar Dem Dikk"}}, {"type": "node", "id": 4754577378, "lat": 14.6781381, "lon": -17.4448185, "tags": {"bus": "yes", "highway": "bus_stop", "network": "Dakar Dem Dikk", "operator": "Dakar Dem Dikk", "public_transport": "platform", "source": "survey;bing;Dakar Dem Dikk"}}, {"type": "node", "id": 4754581034, "lat": 14.6840752, "lon": -17.4448933, "tags": {"bus": "yes", "highway": "bus_stop", "network": "Dakar Dem Dikk", "operator": "Dakar Dem Dikk", "public_transport": "platform", "source": "survey;bing;Dakar Dem Dikk"}}, {"type": "node", "id": 4754581040, "lat": 14.6881643, "lon": -17.4460989, "tags": {"bus": "yes", "highway": "bus_stop", "network": "Dakar Dem Dikk", "operator": "Dakar Dem Dikk", "public_transport": "platform", "source": "survey;bing;Dakar Dem Dikk"}}, {"type": "node", "id": 4754585100, "lat": 14.6892547, "lon": -17.4466514, "tags": {"bus": "yes", "highway": "bus_stop", "network": "Dakar Dem Dikk", "operator": "Dakar Dem Dikk", "public_transport": "platform", "source": "survey;bing;Dakar Dem Dikk"}}, {"type": "node", "id": 4754586063, "lat": 14.6923086, "lon": -17.4476821, "tags": {"bus": "yes", "highway": "bus_stop", "network": "Dakar Dem Dikk", "operator": "Dakar Dem Dikk", "public_transport": "platform", "source": "survey;bing;Dakar Dem Dikk"}}, {"type": "node", "id": 4754586087, "lat": 14.652875, "lon": -17.433433, "tags": {"bus": "yes", "highway": "bus_stop", "name": "Gare Palais 2", "network": "Dakar Dem Dikk", "operator": "Dakar Dem Dikk", "public_transport": "platform"}}, {"type": "node", "id": 4754586185, "lat": 14.695937, "lon": -17.4506466, "tags": {"bus": "yes", "highway": "bus_stop", "network": "Dakar Dem Dikk", "operator": "Dakar Dem Dikk", "public_transport": "platform", "source": "survey;bing;Dakar Dem Dikk"}}, {"type": "node", "id": 4754586186, "lat": 14.6955841, "lon": -17.4501665, "tags": {"bus": "yes", "highway": "bus_stop", "network": "Dakar Dem Dikk", "operator": "Dakar Dem Dikk", "public_transport": "platform", "source": "survey;bing;Dakar Dem Dikk"}}, {"type": "node", "id": 4754588023, "lat": 14.6929663, "lon": -17.4479469, "tags": {"bus": "yes", "highway": "bus_stop", "network": "Dakar Dem Dikk", "operator": "Dakar Dem Dikk", "public_transport": "platform", "source": "survey;bing;Dakar Dem Dikk"}}, {"type": "node", "id": 4754590203, "lat": 14.6984972, "lon": -17.4528018, "tags": {"bus": "yes", "highway": "bus_stop", "network": "Dakar Dem Dikk", "operator": "Dakar Dem Dikk", "public_transport": "platform", "source": "survey;bing;Dakar Dem Dikk"}}, {"type": "node", "id": 4754600310, "lat": 14.701131, "lon": -17.4530898, "tags": {"bus": "yes", "highway": "bus_stop", "network": "Dakar Dem Dikk", "operator": "Dakar Dem Dikk", "public_transport": "platform", "source": "survey;bing;Dakar Dem Dikk"}}, {"type": "node", "id": 4754600893, "lat": 14.7014135, "lon": -17.453022, "tags": {"bus": "yes", "highway": "bus_stop", "network": "Dakar Dem Dikk", "operator": "Dakar Dem Dikk", "public_transport": "platform", "source": "survey;bing;Dakar Dem Dikk"}}, {"type": "node", "id": 4754607771, "lat": 14.6583678, "lon": -17.4357569, "tags": {"bus": "yes", "highway": "bus_stop", "network": "Dakar Dem Dikk", "operator": "Dakar Dem Dikk", "public_transport": "platform", "source": "survey;bing;Dakar Dem Dikk", "survey:date": "2014"}}, {"type": "node", "id": 4754619722, "lat": 14.6658079, "lon": -17.4372243, "tags": {"bus": "yes", "highway": "bus_stop", "network": "Dakar Dem Dikk", "operator": "Dakar Dem Dikk", "public_transport": "platform", "source": "survey;bing;Dakar Dem Dikk", "survey:date": "2014"}}, {"type": "node", "id": 4754633611, "lat": 14.6664995, "lon": -17.4395961, "tags": {"bench": "yes", "bin": "no", "bus": "yes", "highway": "bus_stop", "network": "Dakar Dem Dikk", "operator": "Dakar Dem Dikk", "public_transport": "platform", "shelter": "yes", "source": "survey;bing;Dakar Dem Dikk", "survey:date": "2014"}}, {"type": "node", "id": 4754647800, "lat": 14.6653104, "lon": -17.436093, "tags": {"bus": "yes", "highway": "bus_stop", "network": "Dakar Dem Dikk", "operator": "Dakar Dem Dikk", "public_transport": "platform", "source": "survey;bing;Dakar Dem Dikk", "survey:date": "2014"}}, {"type": "node", "id": 4754647801, "lat": 14.6668421, "lon": -17.4370024, "tags": {"bus": "yes", "highway": "bus_stop", "network": "Dakar Dem Dikk", "operator": "Dakar Dem Dikk", "public_transport": "platform", "source": "survey;bing;Dakar Dem Dikk", "survey:date": "2014"}}, {"type": "node", "id": 4754647802, "lat": 14.6850066, "lon": -17.4530551, "tags": {"bus": "yes", "highway": "bus_stop", "network": "Dakar Dem Dikk", "operator": "Dakar Dem Dikk", "public_transport": "platform", "source": "survey;bing;Dakar Dem Dikk", "survey:date": "2014"}}, {"type": "node", "id": 4754647803, "lat": 14.6855599, "lon": -17.4530967, "tags": {"bus": "yes", "highway": "bus_stop", "network": "Dakar Dem Dikk", "operator": "Dakar Dem Dikk", "public_transport": "platform", "source": "survey;bing;Dakar Dem Dikk", "survey:date": "2014"}}, {"type": "node", "id": 4754647804, "lat": 14.6893354, "lon": -17.4507672, "tags": {"bus": "yes", "highway": "bus_stop", "network": "Dakar Dem Dikk", "operator": "Dakar Dem Dikk", "public_transport": "platform", "source": "survey;bing;Dakar Dem Dikk", "survey:date": "2014"}}, {"type": "node", "id": 4754647805, "lat": 14.6903928, "lon": -17.4501972, "tags": {"bus": "yes", "highway": "bus_stop", "network": "Dakar Dem Dikk", "operator": "Dakar Dem Dikk", "public_transport": "platform", "source": "survey;bing;Dakar Dem Dikk", "survey:date": "2014"}}, {"type": "node", "id": 4754647807, "lat": 14.691956, "lon": -17.4498676, "tags": {"bus": "yes", "highway": "bus_stop", "network": "Dakar Dem Dikk", "operator": "Dakar Dem Dikk", "public_transport": "platform", "source": "survey;bing;Dakar Dem Dikk", "survey:date": "2014"}}, {"type": "node", "id": 4754647808, "lat": 14.6926515, "lon": -17.4516661, "tags": {"bus": "yes", "highway": "bus_stop", "network": "Dakar Dem Dikk", "operator": "Dakar Dem Dikk", "public_transport": "platform", "source": "survey;bing;Dakar Dem Dikk", "survey:date": "2014"}}, {"type": "node", "id": 4754647809, "lat": 14.6932871, "lon": -17.4529079, "tags": {"bus": "yes", "highway": "bus_stop", "network": "Dakar Dem Dikk", "operator": "Dakar Dem Dikk", "public_transport": "platform", "source": "survey;bing;Dakar Dem Dikk", "survey:date": "2014"}}, {"type": "node", "id": 4754647810, "lat": 14.6933481, "lon": -17.4532445, "tags": {"bus": "yes", "highway": "bus_stop", "network": "Dakar Dem Dikk", "operator": "Dakar Dem Dikk", "public_transport": "platform", "source": "survey;bing;Dakar Dem Dikk", "survey:date": "2014"}}, {"type": "node", "id": 4754647811, "lat": 14.6948195, "lon": -17.454821, "tags": {"bus": "yes", "highway": "bus_stop", "network": "Dakar Dem Dikk", "operator": "Dakar Dem Dikk", "public_transport": "platform", "source": "survey;bing;Dakar Dem Dikk", "survey:date": "2014"}}, {"type": "node", "id": 4754647812, "lat": 14.6954331, "lon": -17.4556646, "tags": {"bus": "yes", "highway": "bus_stop", "network": "Dakar Dem Dikk", "operator": "Dakar Dem Dikk", "public_transport": "platform", "source": "survey;bing;Dakar Dem Dikk", "survey:date": "2014"}}, {"type": "node", "id": 4754647813, "lat": 14.6959941, "lon": -17.4557175, "tags": {"bus": "yes", "highway": "bus_stop", "network": "Dakar Dem Dikk", "operator": "Dakar Dem Dikk", "public_transport": "platform", "source": "survey;bing;Dakar Dem Dikk", "survey:date": "2014"}}, {"type": "node", "id": 4754647814, "lat": 14.6983771, "lon": -17.4580444, "tags": {"bus": "yes", "highway": "bus_stop", "network": "Dakar Dem Dikk", "operator": "Dakar Dem Dikk", "public_transport": "platform", "source": "survey;bing;Dakar Dem Dikk", "survey:date": "2014"}}, {"type": "node", "id": 4754647815, "lat": 14.6985043, "lon": -17.4577453, "tags": {"bus": "yes", "highway": "bus_stop", "network": "Dakar Dem Dikk", "operator": "Dakar Dem Dikk", "public_transport": "platform", "source": "survey;bing;Dakar Dem Dikk", "survey:date": "2014"}}, {"type": "node", "id": 4754647816, "lat": 14.700057, "lon": -17.4595799, "tags": {"bus": "yes", "highway": "bus_stop", "network": "Dakar Dem Dikk", "operator": "Dakar Dem Dikk", "public_transport": "platform", "source": "survey;bing;Dakar Dem Dikk", "survey:date": "2014"}}, {"type": "node", "id": 4754647817, "lat": 14.7002335, "lon": -17.4592876, "tags": {"bus": "yes", "highway": "bus_stop", "network": "Dakar Dem Dikk", "operator": "Dakar Dem Dikk", "public_transport": "platform", "source": "survey;bing;Dakar Dem Dikk", "survey:date": "2014"}}, {"type": "node", "id": 4754647818, "lat": 14.7023881, "lon": -17.4616694, "tags": {"bench": "yes", "bus": "yes", "highway": "bus_stop", "network": "Dakar Dem Dikk", "operator": "Dakar Dem Dikk", "public_transport": "platform", "shelter": "yes", "source": "survey;bing;Dakar Dem Dikk", "survey:date": "2014"}}, {"type": "node", "id": 4754647819, "lat": 14.7032118, "lon": -17.4619885, "tags": {"bench": "no", "bus": "yes", "highway": "bus_stop", "network": "Dakar Dem Dikk", "operator": "Dakar Dem Dikk", "public_transport": "platform", "shelter": "no", "source": "survey;bing;Dakar Dem Dikk", "survey:date": "2014"}}, {"type": "node", "id": 4754647820, "lat": 14.7048148, "lon": -17.4634597, "tags": {"bus": "yes", "highway": "bus_stop", "network": "Dakar Dem Dikk", "operator": "Dakar Dem Dikk", "public_transport": "platform", "source": "survey;bing;Dakar Dem Dikk", "survey:date": "2014"}}, {"type": "node", "id": 4754647821, "lat": 14.7052827, "lon": -17.4642489, "tags": {"bus": "yes", "highway": "bus_stop", "network": "Dakar Dem Dikk", "operator": "Dakar Dem Dikk", "public_transport": "platform", "shelter": "no", "source": "bing;survey"}}, {"type": "node", "id": 4754667202, "lat": 14.7208777, "lon": -17.4533793, "tags": {"bus": "yes", "highway": "bus_stop", "network": "Dakar Dem Dikk", "operator": "Dakar Dem Dikk", "public_transport": "platform", "source": "survey;bing;Dakar Dem Dikk", "survey:date": "2014"}}, {"type": "node", "id": 4754667203, "lat": 14.7086102, "lon": -17.4588631, "tags": {"bus": "yes", "highway": "bus_stop", "network": "Dakar Dem Dikk", "operator": "Dakar Dem Dikk", "public_transport": "platform", "source": "survey;bing;Dakar Dem Dikk", "survey:date": "2014"}}, {"type": "node", "id": 4754667204, "lat": 14.7057843, "lon": -17.4612274, "tags": {"bus": "yes", "highway": "bus_stop", "network": "Dakar Dem Dikk", "operator": "Dakar Dem Dikk", "public_transport": "platform", "source": "survey;bing;Dakar Dem Dikk", "survey:date": "2014"}}, {"type": "node", "id": 4754667205, "lat": 14.7054951, "lon": -17.4616801, "tags": {"bus": "yes", "highway": "bus_stop", "network": "Dakar Dem Dikk", "operator": "Dakar Dem Dikk", "public_transport": "platform", "source": "survey;bing;Dakar Dem Dikk", "survey:date": "2014"}}, {"type": "node", "id": 4754667206, "lat": 14.702795, "lon": -17.4638989, "tags": {"bus": "yes", "highway": "bus_stop", "network": "Dakar Dem Dikk", "operator": "Dakar Dem Dikk", "public_transport": "platform", "source": "survey;bing;Dakar Dem Dikk", "survey:date": "2014"}}, {"type": "node", "id": 4754667207, "lat": 14.7020193, "lon": -17.4647277, "tags": {"bus": "yes", "highway": "bus_stop", "network": "Dakar Dem Dikk", "operator": "Dakar Dem Dikk", "public_transport": "platform", "source": "survey;bing;Dakar Dem Dikk", "survey:date": "2014"}}, {"type": "node", "id": 4754667208, "lat": 14.7004795, "lon": -17.4659562, "tags": {"bus": "yes", "highway": "bus_stop", "network": "Dakar Dem Dikk", "operator": "Dakar Dem Dikk", "public_transport": "platform", "source": "survey;bing;Dakar Dem Dikk", "survey:date": "2014"}}, {"type": "node", "id": 4754667209, "lat": 14.6996337, "lon": -17.4668621, "tags": {"bus": "yes", "highway": "bus_stop", "network": "Dakar Dem Dikk", "operator": "Dakar Dem Dikk", "public_transport": "platform", "source": "survey;bing;Dakar Dem Dikk", "survey:date": "2014"}}, {"type": "node", "id": 4754667210, "lat": 14.6980712, "lon": -17.4671048, "tags": {"bus": "yes", "highway": "bus_stop", "network": "Dakar Dem Dikk", "operator": "Dakar Dem Dikk", "public_transport": "platform", "source": "survey;bing;Dakar Dem Dikk", "survey:date": "2014"}}, {"type": "node", "id": 4754667211, "lat": 14.6960521, "lon": -17.4666133, "tags": {"bus": "yes", "highway": "bus_stop", "network": "Dakar Dem Dikk", "operator": "Dakar Dem Dikk", "public_transport": "platform", "source": "survey;bing;Dakar Dem Dikk", "survey:date": "2014"}}, {"type": "node", "id": 4754667212, "lat": 14.6958983, "lon": -17.4665875, "tags": {"bus": "yes", "highway": "bus_stop", "network": "Dakar Dem Dikk", "operator": "Dakar Dem Dikk", "public_transport": "platform", "source": "survey;bing;Dakar Dem Dikk", "survey:date": "2014"}}, {"type": "node", "id": 4754667213, "lat": 14.6938795, "lon": -17.4688691, "tags": {"bus": "yes", "highway": "bus_stop", "network": "Dakar Dem Dikk", "operator": "Dakar Dem Dikk", "public_transport": "platform", "source": "survey;bing;Dakar Dem Dikk", "survey:date": "2014"}}, {"type": "node", "id": 4754667214, "lat": 14.6938354, "lon": -17.4688215, "tags": {"bus": "yes", "highway": "bus_stop", "network": "Dakar Dem Dikk", "operator": "Dakar Dem Dikk", "public_transport": "platform", "source": "survey;bing;Dakar Dem Dikk", "survey:date": "2014"}}, {"type": "node", "id": 4754667215, "lat": 14.6926935, "lon": -17.4721454, "tags": {"bus": "yes", "highway": "bus_stop", "network": "Dakar Dem Dikk", "operator": "Dakar Dem Dikk", "public_transport": "platform", "source": "survey;bing;Dakar Dem Dikk", "survey:date": "2014"}}, {"type": "node", "id": 4754667216, "lat": 14.6924963, "lon": -17.4725343, "tags": {"bus": "yes", "highway": "bus_stop", "network": "Dakar Dem Dikk", "operator": "Dakar Dem Dikk", "public_transport": "platform", "source": "survey;bing;Dakar Dem Dikk", "survey:date": "2014"}}, {"type": "node", "id": 4754667217, "lat": 14.6845856, "lon": -17.4688235, "tags": {"bench": "yes", "bus": "yes", "highway": "bus_stop", "network": "Dakar Dem Dikk", "operator": "Dakar Dem Dikk", "public_transport": "platform", "shelter": "yes", "source": "survey;bing;Dakar Dem Dikk", "survey:date": "2014"}}, {"type": "node", "id": 4754667218, "lat": 14.6842742, "lon": -17.4684252, "tags": {"bench": "yes", "bin": "no", "bus": "yes", "highway": "bus_stop", "network": "Dakar Dem Dikk", "operator": "Dakar Dem Dikk", "public_transport": "platform", "shelter": "yes", "source": "survey;bing;Dakar Dem Dikk", "survey:date": "2014"}}, {"type": "node", "id": 4754667219, "lat": 14.6775748, "lon": -17.4655512, "tags": {"bench": "yes", "bin": "yes", "highway": "bus_stop", "lit": "yes", "name": "Arr\u00eat autobus DDD 10", "network": "Dakar Dem Dikk", "operator": "Dakar Dem Dikk", "public_transport": "platform", "shelter": "yes", "source": "survey;bing;Dakar Dem Dikk", "survey:date": "2014"}}, {"type": "node", "id": 4754667220, "lat": 14.678841, "lon": -17.4625806, "tags": {"bench": "yes", "bin": "yes", "bus": "yes", "highway": "bus_stop", "lit": "no", "name:signed": "no", "network": "Dakar Dem Dikk", "operator": "Dakar Dem Dikk", "public_transport": "platform", "shelter": "yes", "source": "survey;bing;Dakar Dem Dikk", "survey:date": "2014"}}, {"type": "node", "id": 4754669021, "lat": 14.6790006, "lon": -17.4620898, "tags": {"bench": "yes", "bin": "no", "bus": "yes", "highway": "bus_stop", "lit": "no", "name:signed": "no", "network": "Dakar Dem Dikk", "operator": "Dakar Dem Dikk", "public_transport": "platform", "shelter": "yes", "source": "survey;bing;Dakar Dem Dikk", "survey:date": "2014"}}, {"type": "node", "id": 4754669022, "lat": 14.6758935, "lon": -17.4536515, "tags": {"highway": "bus_stop", "network": "Dakar Dem Dikk", "operator": "Dakar Dem Dikk", "public_transport": "platform", "shelter": "yes", "source": "survey;bing;Dakar Dem Dikk", "survey:date": "2014"}}, {"type": "node", "id": 4754669023, "lat": 14.6753006, "lon": -17.4534437, "tags": {"bench": "yes", "highway": "bus_stop", "network": "Dakar Dem Dikk", "operator": "Dakar Dem Dikk", "public_transport": "platform", "shelter": "yes", "source": "survey;bing;Dakar Dem Dikk", "survey:date": "2014"}}, {"type": "node", "id": 4754669024, "lat": 14.6719994, "lon": -17.4473806, "tags": {"bench": "yes", "bin": "no", "bus": "yes", "highway": "bus_stop", "network": "Dakar Dem Dikk", "operator": "Dakar Dem Dikk", "public_transport": "platform", "shelter": "yes", "source": "survey;bing;Dakar Dem Dikk", "survey:date": "2014"}}, {"type": "node", "id": 4754669025, "lat": 14.6718379, "lon": -17.4469943, "tags": {"bench": "yes", "bin": "no", "bus": "yes", "highway": "bus_stop", "lit": "no", "network": "Dakar Dem Dikk", "operator": "Dakar Dem Dikk", "public_transport": "platform", "shelter": "yes", "source": "survey;bing;Dakar Dem Dikk", "survey:date": "2014"}}, {"type": "node", "id": 4755184494, "lat": 14.6810801, "lon": -17.455225, "tags": {"bus": "yes", "highway": "bus_stop", "network": "Dakar Dem Dikk", "operator": "Dakar Dem Dikk", "public_transport": "platform", "source": "survey;bing;Dakar Dem Dikk"}}, {"type": "node", "id": 4755184495, "lat": 14.6833349, "lon": -17.4542447, "tags": {"bus": "yes", "highway": "bus_stop", "network": "Dakar Dem Dikk", "operator": "Dakar Dem Dikk", "public_transport": "platform", "source": "survey;bing;Dakar Dem Dikk"}}, {"type": "node", "id": 4755184496, "lat": 14.6915549, "lon": -17.4603326, "tags": {"bench": "no", "bus": "yes", "highway": "bus_stop", "network": "Dakar Dem Dikk", "operator": "Dakar Dem Dikk", "public_transport": "platform", "shelter": "no"}}, {"type": "node", "id": 4755184497, "lat": 14.6959684, "lon": -17.4656057, "tags": {"bench": "yes", "bin": "no", "bus": "yes", "highway": "bus_stop", "network": "Dakar Dem Dikk", "operator": "Dakar Dem Dikk", "public_transport": "platform", "shelter": "no", "source": "survey;bing;Dakar Dem Dikk"}}, {"type": "node", "id": 4755184498, "lat": 14.7117265, "lon": -17.4561271, "tags": {"bus": "yes", "highway": "bus_stop", "network": "Dakar Dem Dikk", "operator": "Dakar Dem Dikk", "public_transport": "platform"}}, {"type": "node", "id": 4755189937, "lat": 14.6659395, "lon": -17.4380198, "tags": {"bench": "no", "bus": "yes", "highway": "bus_stop", "network": "Dakar Dem Dikk", "operator": "Dakar Dem Dikk", "public_transport": "platform", "shelter": "no", "source": "survey;bing;Dakar Dem Dikk"}}, {"type": "node", "id": 4755189938, "lat": 14.6678778, "lon": -17.4392884, "tags": {"bench": "no", "bus": "yes", "highway": "bus_stop", "network": "Dakar Dem Dikk", "operator": "Dakar Dem Dikk", "public_transport": "platform", "shelter": "no"}}, {"type": "node", "id": 4755189939, "lat": 14.6759812, "lon": -17.4471111, "tags": {"bus": "yes", "highway": "bus_stop", "network": "Dakar Dem Dikk", "operator": "Dakar Dem Dikk", "public_transport": "platform", "source": "survey;bing;Dakar Dem Dikk"}}, {"type": "node", "id": 4755189940, "lat": 14.6749524, "lon": -17.4498221, "tags": {"bus": "yes", "highway": "bus_stop", "network": "Dakar Dem Dikk", "operator": "Dakar Dem Dikk", "public_transport": "platform", "source": "survey;bing;Dakar Dem Dikk"}}, {"type": "node", "id": 4755189941, "lat": 14.6761317, "lon": -17.4510352, "tags": {"bus": "yes", "highway": "bus_stop", "network": "Dakar Dem Dikk", "operator": "Dakar Dem Dikk", "public_transport": "platform", "source": "survey;bing;Dakar Dem Dikk"}}, {"type": "node", "id": 4755189942, "lat": 14.6778533, "lon": -17.452843, "tags": {"bench": "no", "bin": "no", "bus": "yes", "highway": "bus_stop", "lit": "no", "name": "Arr\u00eat autobus DDD 23-20", "network": "Dakar Dem Dikk", "operator": "Dakar Dem Dikk", "public_transport": "platform", "shelter": "yes", "source": "survey;bing;Dakar Dem Dikk"}}, {"type": "node", "id": 4755189943, "lat": 14.6796911, "lon": -17.4547566, "tags": {"bus": "yes", "highway": "bus_stop", "network": "Dakar Dem Dikk", "operator": "Dakar Dem Dikk", "public_transport": "platform", "source": "survey;bing;Dakar Dem Dikk"}}, {"type": "node", "id": 4755191563, "lat": 14.6664818, "lon": -17.4369495, "tags": {"bus": "yes", "highway": "bus_stop", "network": "Dakar Dem Dikk", "operator": "Dakar Dem Dikk", "public_transport": "platform", "source": "survey;bing;Dakar Dem Dikk"}}, {"type": "node", "id": 4755191564, "lat": 14.6652129, "lon": -17.4354636, "tags": {"bench": "no", "bin": "no", "bus": "yes", "highway": "bus_stop", "network": "Dakar Dem Dikk", "operator": "Dakar Dem Dikk", "public_transport": "platform", "shelter": "no", "source": "survey;bing;Dakar Dem Dikk"}}, {"type": "node", "id": 4755215627, "lat": 14.7277425, "lon": -17.4504062, "tags": {"highway": "bus_stop", "name": "Arr\u00eat DDD Av Roi Fahd Ben Abdel Aziz", "network": "Dakar Dem Dikk", "operator": "Dakar Dem Dikk", "public_transport": "platform", "ref": "Ligne 23", "source": "survey;bing;Dakar Dem Dikk"}}, {"type": "node", "id": 4755215628, "lat": 14.7273015, "lon": -17.4471915, "tags": {"bus": "yes", "highway": "bus_stop", "network": "Dakar Dem Dikk", "operator": "Dakar Dem Dikk", "public_transport": "platform", "source": "survey;bing;Dakar Dem Dikk"}}, {"type": "node", "id": 4755215629, "lat": 14.6809811, "lon": -17.4550759, "tags": {"bench": "yes", "bin": "no", "bus": "yes", "highway": "bus_stop", "network": "Dakar Dem Dikk", "operator": "Dakar Dem Dikk", "public_transport": "platform", "shelter": "yes", "source": "survey;bing;Dakar Dem Dikk"}}, {"type": "node", "id": 4755215630, "lat": 14.678904, "lon": -17.4538474, "tags": {"highway": "bus_stop", "network": "Dakar Dem Dikk", "operator": "Dakar Dem Dikk", "public_transport": "platform", "source": "survey;bing;Dakar Dem Dikk"}}, {"type": "node", "id": 4755215631, "lat": 14.6768192, "lon": -17.4516198, "tags": {"bench": "no", "bin": "no", "bus": "yes", "highway": "bus_stop", "lit": "no", "name": "Arr\u00eat autobus DDD 23-18", "network": "Dakar Dem Dikk", "operator": "Dakar Dem Dikk", "public_transport": "platform", "shelter": "yes", "source": "survey;bing;Dakar Dem Dikk"}}, {"type": "node", "id": 4755215632, "lat": 14.6750367, "lon": -17.4497369, "tags": {"bench": "no", "bus": "yes", "highway": "bus_stop", "network": "Dakar Dem Dikk", "operator": "Dakar Dem Dikk", "public_transport": "platform", "shelter": "yes", "source": "survey;bing;Dakar Dem Dikk"}}, {"type": "node", "id": 4755215633, "lat": 14.6762954, "lon": -17.4469186, "tags": {"bus": "yes", "highway": "bus_stop", "network": "Dakar Dem Dikk", "operator": "Dakar Dem Dikk", "public_transport": "platform", "source": "survey;bing;Dakar Dem Dikk"}}, {"type": "node", "id": 4757628171, "lat": 14.7274063, "lon": -17.4602533, "tags": {"bus": "yes", "highway": "bus_stop", "name": "Terminus Libert\u00e9 6", "network": "Dakar Dem Dikk", "operator": "Dakar Dem Dikk", "public_transport": "stop_position", "ref": "9", "route_ref": "9"}}, {"type": "node", "id": 4758219965, "lat": 14.6825604, "lon": -17.444221, "tags": {"bus": "yes", "highway": "bus_stop", "network": "Dakar Dem Dikk", "operator": "Dakar Dem Dikk", "public_transport": "platform", "source": "survey;bing;Dakar Dem Dikk"}}, {"type": "node", "id": 4758221432, "lat": 14.669142, "lon": -17.4389448, "tags": {"bench": "yes", "bin": "no", "bus": "yes", "highway": "bus_stop", "network": "Dakar Dem Dikk", "operator": "Dakar Dem Dikk", "public_transport": "platform", "shelter": "yes", "source": "survey;bing;Dakar Dem Dikk"}}, {"type": "node", "id": 4758221433, "lat": 14.6813279, "lon": -17.4439633, "tags": {"bus": "yes", "highway": "bus_stop", "network": "Dakar Dem Dikk", "operator": "Dakar Dem Dikk", "public_transport": "platform", "source": "survey;bing;Dakar Dem Dikk"}}, {"type": "node", "id": 4758230178, "lat": 14.7138995, "lon": -17.455044, "tags": {"bench": "yes", "bus": "yes", "highway": "bus_stop", "network": "Dakar Dem Dikk", "operator": "Dakar Dem Dikk", "public_transport": "platform", "shelter": "yes", "source": "bing;survey"}}, {"type": "node", "id": 4758267167, "lat": 14.6940657, "lon": -17.4586364, "tags": {"bus": "yes", "highway": "bus_stop", "network": "Dakar Dem Dikk", "operator": "Dakar Dem Dikk", "public_transport": "platform", "source": "survey;bing;Dakar Dem Dikk"}}, {"type": "node", "id": 4758270571, "lat": 14.69669, "lon": -17.4570875, "tags": {"bus": "yes", "highway": "bus_stop", "network": "Dakar Dem Dikk", "operator": "Dakar Dem Dikk", "public_transport": "platform", "source": "survey;bing;Dakar Dem Dikk"}}, {"type": "node", "id": 4758271801, "lat": 14.6989174, "lon": -17.4549337, "tags": {"bus": "yes", "highway": "bus_stop", "network": "Dakar Dem Dikk", "operator": "Dakar Dem Dikk", "public_transport": "platform", "source": "survey;bing;Dakar Dem Dikk"}}, {"type": "node", "id": 4758273792, "lat": 14.7013778, "lon": -17.4550876, "tags": {"bus": "yes", "highway": "bus_stop", "network": "Dakar Dem Dikk", "operator": "Dakar Dem Dikk", "public_transport": "platform", "source": "survey;bing;Dakar Dem Dikk"}}, {"type": "node", "id": 4758287878, "lat": 14.7560389, "lon": -17.4701018, "tags": {"bench": "no", "bus": "yes", "highway": "bus_stop", "network": "Dakar Dem Dikk", "operator": "Dakar Dem Dikk", "public_transport": "platform", "shelter": "yes", "source": "survey;bing;Dakar Dem Dikk"}}, {"type": "node", "id": 4803658221, "lat": 14.7050674, "lon": -17.4583869, "tags": {"bench": "yes", "bus": "yes", "highway": "bus_stop", "public_transport": "platform", "shelter": "no"}}, {"type": "node", "id": 4803658321, "lat": 14.7069057, "lon": -17.4568327, "tags": {"bench": "no", "bus": "yes", "highway": "bus_stop", "name": "Tata", "public_transport": "platform", "shelter": "no"}}, {"type": "node", "id": 4818848417, "lat": 14.7624239, "lon": -17.4244938, "tags": {"bus": "yes", "highway": "bus_stop", "name": "ARRET LPA", "network": "DAKAR DEM DIK", "operator": "DAKAR DEM DIK", "public_transport": "platform", "ref": "L5"}}, {"type": "node", "id": 4825582737, "lat": 14.6885044, "lon": -17.4515247, "tags": {"bench": "yes", "bin": "yes", "bus": "yes", "highway": "bus_stop", "name": "DDD 4", "network": "Dakar Dem Dikk", "operator": "Dakar Dem Dikk", "public_transport": "platform", "shelter": "yes", "source": "survey;bing;Dakar Dem Dikk", "survey:date": "2014"}}, {"type": "node", "id": 4860786408, "lat": 14.7495028, "lon": -17.4085806, "tags": {"highway": "bus_stop"}}, {"type": "node", "id": 4874822083, "lat": 14.7467942, "lon": -17.4491853, "tags": {"bus": "yes", "highway": "bus_stop", "public_transport": "platform"}}, {"type": "node", "id": 5044774507, "lat": 14.6907051, "lon": -17.4503472, "tags": {"bus": "yes", "highway": "bus_stop", "network": "Dakar Dem Dikk", "operator": "Dakar Dem Dikk", "public_transport": "platform", "source": "survey;bing;Dakar Dem Dikk", "survey:date": "2014"}}, {"type": "node", "id": 5044774508, "lat": 14.7106418, "lon": -17.4644913, "tags": {"bus": "yes", "highway": "bus_stop", "network": "Dakar Dem Dikk", "operator": "Dakar Dem Dikk", "public_transport": "platform"}}, {"type": "node", "id": 5044842334, "lat": 14.698919, "lon": -17.4529279, "tags": {"bus": "yes", "highway": "bus_stop", "operator": "GIE;Dakar Dem Dikk", "public_transport": "platform"}}, {"type": "node", "id": 5049073085, "lat": 14.7547732, "lon": -17.4686124, "tags": {"bus": "yes", "highway": "bus_stop", "public_transport": "platform"}}, {"type": "node", "id": 5049073086, "lat": 14.7536121, "lon": -17.4671451, "tags": {"bus": "yes", "highway": "bus_stop", "operator": "Dakar Dem Dikk", "public_transport": "platform", "source": "OSMTracker", "tactile_paving": "no", "wheelchair": "no"}}, {"type": "node", "id": 5049073087, "lat": 14.7498647, "lon": -17.4640869, "tags": {"highway": "bus_stop"}}, {"type": "node", "id": 5049073089, "lat": 14.7444676, "lon": -17.4507444, "tags": {"highway": "bus_stop", "shelter": "no"}}, {"type": "node", "id": 5049073090, "lat": 14.7417683, "lon": -17.4487941, "tags": {"highway": "bus_stop"}}, {"type": "node", "id": 5049073091, "lat": 14.73861, "lon": -17.445329, "tags": {"highway": "bus_stop"}}, {"type": "node", "id": 5049073092, "lat": 14.7367004, "lon": -17.4452116, "tags": {"bus": "yes", "highway": "bus_stop", "public_transport": "platform"}}, {"type": "node", "id": 5049073093, "lat": 14.7339169, "lon": -17.446129, "tags": {"bus": "yes", "highway": "bus_stop", "public_transport": "platform"}}, {"type": "node", "id": 5049073094, "lat": 14.7314026, "lon": -17.4462101, "tags": {"bus": "yes", "highway": "bus_stop", "public_transport": "platform"}}, {"type": "node", "id": 5049073095, "lat": 14.7269571, "lon": -17.4449079, "tags": {"bus": "yes", "highway": "bus_stop", "public_transport": "platform"}}, {"type": "node", "id": 5049073096, "lat": 14.7254619, "lon": -17.4449495, "tags": {"bus": "yes", "highway": "bus_stop", "public_transport": "platform"}}, {"type": "node", "id": 5049073097, "lat": 14.7221885, "lon": -17.4469961, "tags": {"bus": "yes", "highway": "bus_stop", "public_transport": "platform"}}, {"type": "node", "id": 5049073098, "lat": 14.7181901, "lon": -17.4504292, "tags": {"bus": "yes", "highway": "bus_stop", "public_transport": "platform"}}, {"type": "node", "id": 5049073099, "lat": 14.7160071, "lon": -17.4523091, "tags": {"bus": "yes", "highway": "bus_stop", "public_transport": "platform"}}, {"type": "node", "id": 5049073100, "lat": 14.7142267, "lon": -17.4539263, "tags": {"highway": "bus_stop"}}, {"type": "node", "id": 5049096052, "lat": 14.6527633, "lon": -17.4335872, "tags": {"bus": "yes", "highway": "bus_stop", "network": "Dakar Dem Dik", "operator": "Dakar Dem Dikk", "public_transport": "platform", "source": "survey;Bing;Odette"}}, {"type": "node", "id": 5049096068, "lat": 14.6929156, "lon": -17.4605516, "tags": {"bus": "yes", "highway": "bus_stop", "network": "Dakar Dem Dikk", "operator": "Dakar Dem Dikk", "public_transport": "platform"}}, {"type": "node", "id": 5049096069, "lat": 14.6956291, "lon": -17.4578189, "tags": {"bus": "yes", "highway": "bus_stop", "network": "Dakar Dem Dikk", "operator": "Dakar Dem Dikk", "public_transport": "platform"}}, {"type": "node", "id": 5049096072, "lat": 14.7061291, "lon": -17.4592542, "tags": {"bus": "yes", "highway": "bus_stop", "network": "Dakar Dem Dikk", "operator": "Dakar Dem Dikk", "public_transport": "platform", "shelter": "no"}}, {"type": "node", "id": 5049096076, "lat": 14.7175222, "lon": -17.451052, "tags": {"bus": "yes", "highway": "bus_stop", "network": "Dakar Dem Dikk", "operator": "Dakar Dem Dikk", "public_transport": "platform"}}, {"type": "node", "id": 5049096077, "lat": 14.7189201, "lon": -17.4498275, "tags": {"bus": "yes", "highway": "bus_stop", "network": "Dakar Dem Dikk", "operator": "Dakar Dem Dikk", "public_transport": "platform"}}, {"type": "node", "id": 5049096078, "lat": 14.7204735, "lon": -17.4484624, "tags": {"bus": "yes", "highway": "bus_stop", "network": "Dakar Dem Dikk", "operator": "Dakar Dem Dikk", "public_transport": "platform"}}, {"type": "node", "id": 5049096085, "lat": 14.7396146, "lon": -17.4464167, "tags": {"bus": "yes", "highway": "bus_stop", "network": "Dakar Dem Dikk", "operator": "Dakar Dem Dikk", "public_transport": "platform"}}, {"type": "node", "id": 5049096086, "lat": 14.7415683, "lon": -17.4458411, "tags": {"bus": "yes", "highway": "bus_stop", "network": "Dakar Dem Dikk", "operator": "Dakar Dem Dikk", "public_transport": "platform"}}, {"type": "node", "id": 5049096090, "lat": 14.7524521, "lon": -17.4664489, "tags": {"bench": "yes", "bin": "no", "bus": "yes", "highway": "bus_stop", "network": "Dakar Dem Dikk", "operator": "Dakar Dem Dikk", "public_transport": "platform", "shelter": "yes"}}, {"type": "node", "id": 5049096091, "lat": 14.7538029, "lon": -17.4676789, "tags": {"bench": "yes", "bin": "no", "bus": "yes", "highway": "bus_stop", "network": "Dakar Dem Dikk", "operator": "Dakar Dem Dikk", "public_transport": "platform", "shelter": "yes"}}, {"type": "node", "id": 5049096092, "lat": 14.7550963, "lon": -17.469893, "tags": {"bench": "yes", "bus": "yes", "highway": "bus_stop", "network": "Dakar Dem Dikk", "operator": "Dakar Dem Dikk", "public_transport": "platform", "shelter": "yes"}}, {"type": "node", "id": 5049096093, "lat": 14.7555087, "lon": -17.4722572, "tags": {"bench": "no", "bin": "no", "bus": "yes", "highway": "bus_stop", "network": "Dakar Dem Dikk", "operator": "Dakar Dem Dikk", "public_transport": "platform", "shelter": "no"}}, {"type": "node", "id": 5049096094, "lat": 14.7553578, "lon": -17.4746264, "tags": {"bus": "yes", "highway": "bus_stop", "network": "Dakar Dem Dikk", "operator": "Dakar Dem Dikk", "public_transport": "platform"}}, {"type": "node", "id": 5049096098, "lat": 14.7462391, "lon": -17.4896314, "tags": {"bus": "yes", "highway": "bus_stop", "network": "Dakar Dem Dikk", "operator": "Dakar Dem Dikk", "public_transport": "platform"}}, {"type": "node", "id": 5052292969, "lat": 14.7100996, "lon": -17.4574397, "tags": {"bus": "yes", "highway": "bus_stop", "network": "Dakar Dem Dikk", "operator": "GIE;Dakar Dem Dikk", "public_transport": "platform"}}, {"type": "node", "id": 5056748481, "lat": 14.7604342, "lon": -17.439255, "tags": {"bus": "yes", "highway": "bus_stop", "name": "Terminus Parcelles-Assainies", "network": "Dakar Dem Dikk", "operator": "Dakar Dem Dikk", "public_transport": "platform"}}, {"type": "node", "id": 5057176328, "lat": 14.6718304, "lon": -17.4320506, "tags": {"highway": "bus_stop", "name": "H\u00f4tel de ville", "network": "Dakar Dem Dikk", "operator": "Dakar Dem Dikk", "public_transport": "platform"}}, {"type": "node", "id": 5454714722, "lat": 14.7463513, "lon": -17.4441678, "tags": {"bus": "yes", "highway": "bus_stop", "public_transport": "platform"}}, {"type": "node", "id": 5473145364, "lat": 14.7280907, "lon": -17.4366222, "tags": {"bus": "yes", "highway": "bus_stop", "note": "DDD 232", "public_transport": "platform"}}, {"type": "node", "id": 5486851321, "lat": 14.7288068, "lon": -17.4583535, "tags": {"highway": "bus_stop", "name": "Salamtransport DK - TC", "name:en": "Salamtransport DK - Tc", "operator": "Salamtransport"}}, {"type": "node", "id": 5706104491, "lat": 14.672134, "lon": -17.4275808, "tags": {"bench": "yes", "bus": "yes", "highway": "bus_stop", "lit": "yes", "name": "Gare Leclerc", "network": "Dakar Dem Dikk", "operator": "Dakar Dem Dikk", "public_transport": "platform"}}, {"type": "node", "id": 5746268862, "lat": 14.7602743, "lon": -17.4386574, "tags": {"bus": "yes", "highway": "bus_stop", "name:en": "GTSC Dakar-Banjul Start", "public_transport": "platform"}}, {"type": "node", "id": 5765948583, "lat": 14.7599112, "lon": -17.4389129, "tags": {"addr:street": "parcelle assainies", "bus": "yes", "highway": "bus_stop", "name": "Arr\u00eat bus GAMBIE", "phone": "778305204", "public_transport": "platform"}}, {"type": "node", "id": 5765956053, "lat": 14.7223903, "lon": -17.4575938, "tags": {"bus": "yes", "description": "arr\u00eat tata 1/ 30/ 46", "highway": "bus_stop", "name": "Arr\u00eat mini bus", "public_transport": "platform"}}, {"type": "node", "id": 5795723743, "lat": 14.7274328, "lon": -17.4602421, "tags": {"bus": "yes", "highway": "bus_stop", "name": "Terminus Dakar Dem Dikk Libert\u00e9 6", "network": "Dakar Dem Dikk", "operator": "Dakar Dem Dikk", "public_transport": "platform", "ref": "9", "route_ref": "9"}}, {"type": "node", "id": 6089850879, "lat": 14.7500451, "lon": -17.4516163, "tags": {"bus": "yes", "highway": "bus_stop", "public_transport": "platform"}}, {"type": "node", "id": 6567773037, "lat": 14.6989023, "lon": -17.4566304, "tags": {"bus": "yes", "highway": "bus_stop", "operator": "GIE", "public_transport": "platform", "source": "survey"}}, {"type": "node", "id": 6567816704, "lat": 14.6978412, "lon": -17.4561985, "tags": {"bus": "yes", "highway": "bus_stop", "operator": "GIE", "public_transport": "platform", "source": "survey"}}, {"type": "node", "id": 6570035552, "lat": 14.7004382, "lon": -17.4544269, "tags": {"bus": "yes", "highway": "bus_stop", "operator": "GIE", "public_transport": "platform", "source": "survey"}}, {"type": "node", "id": 6570035556, "lat": 14.700664, "lon": -17.4546066, "tags": {"bus": "yes", "highway": "bus_stop", "operator": "dakar-dem-dikk", "public_transport": "platform", "source": "surveil"}}, {"type": "node", "id": 6908480122, "lat": 14.7036158, "lon": -17.4469851, "tags": {"bus": "yes", "highway": "bus_stop", "public_transport": "platform", "source": "survey"}}, {"type": "node", "id": 6908480127, "lat": 14.7039641, "lon": -17.446961, "tags": {"bus": "yes", "highway": "bus_stop", "name": "Dakar Dem Dikk", "public_transport": "platform", "source": "survey"}}, {"type": "node", "id": 6909022558, "lat": 14.7023878, "lon": -17.4479826, "tags": {"bus": "yes", "highway": "bus_stop", "public_transport": "platform", "source": "survey"}}, {"type": "node", "id": 6957478714, "lat": 14.6953768, "lon": -17.4532125, "tags": {"bench": "no", "bin": "no", "bus": "yes", "highway": "bus_stop", "name": "ARRET BUS TATA", "public_transport": "platform", "shelter": "no"}}, {"type": "node", "id": 6957494011, "lat": 14.6963623, "lon": -17.4521895, "tags": {"bus": "yes", "highway": "bus_stop", "name": "ARRET DE BUS TATA", "public_transport": "platform"}}, {"type": "node", "id": 6957501646, "lat": 14.6973004, "lon": -17.4508275, "tags": {"bus": "yes", "highway": "bus_stop", "name": "ARRET DE BUS TATA", "public_transport": "platform"}}, {"type": "node", "id": 6957521517, "lat": 14.6983505, "lon": -17.4477144, "tags": {"bus": "yes", "highway": "bus_stop", "name": "ARRET DE BUS TATA", "public_transport": "platform"}}, {"type": "node", "id": 6960824385, "lat": 14.7185236, "lon": -17.4870129, "tags": {"bench": "no", "bus": "yes", "highway": "bus_stop", "name": "Arr\u00eat Autobus DDD", "note": "Arret autobus DDD(Dakar Dem Dikk) desservant les lignes 218; 7 et 219", "public_transport": "platform", "route_ref": "218; 7; 219", "shelter": "no", "source": "survey", "wheelchair": "yes"}}, {"type": "node", "id": 6973618124, "lat": 14.6859667, "lon": -17.4525717, "tags": {"bus": "yes", "highway": "bus_stop", "name": "Arret mini bus 32,31,1,8", "public_transport": "platform"}}, {"type": "node", "id": 6973640759, "lat": 14.6852883, "lon": -17.4529329, "tags": {"bus": "yes", "highway": "bus_stop", "name": "Arret taxi sham", "public_transport": "platform"}}, {"type": "node", "id": 6973642082, "lat": 14.6869421, "lon": -17.4523315, "tags": {"bench": "no", "bin": "no", "bus": "yes", "highway": "bus_stop", "name": "Arret autobus DDD", "public_transport": "platform", "shelter": "no"}}, {"type": "node", "id": 6973650357, "lat": 14.6856492, "lon": -17.4553789, "tags": {"bus": "yes", "highway": "bus_stop", "name": "Arret muni bus 39,71", "public_transport": "platform"}}, {"type": "node", "id": 6973650359, "lat": 14.683673, "lon": -17.4591764, "tags": {"bus": "yes", "highway": "bus_stop", "name": "Arret autobus ddd 20", "public_transport": "platform"}}, {"type": "node", "id": 6973663657, "lat": 14.6831364, "lon": -17.451861, "tags": {"bench": "no", "bin": "no", "bus": "yes", "highway": "bus_stop", "name": "Arret muni bud", "public_transport": "platform", "shelter": "no"}}, {"type": "node", "id": 6973684351, "lat": 14.6874417, "lon": -17.4520583, "tags": {"bench": "no", "bin": "no", "bus": "yes", "highway": "bus_stop", "name": "Arret mi'i bus 37 32 31 1", "public_transport": "platform", "shelter": "no"}}, {"type": "node", "id": 6973685937, "lat": 14.6859051, "lon": -17.4529131, "tags": {"bench": "no", "bin": "no", "bus": "yes", "highway": "bus_stop", "name": "Arret bus 38 58", "public_transport": "platform", "shelter": "no"}}, {"type": "node", "id": 6973695269, "lat": 14.688085, "lon": -17.4514467, "tags": {"bench": "no", "bin": "no", "bus": "yes", "highway": "bus_stop", "name": "Arret mini bus 37, 31,1,32", "public_transport": "platform", "shelter": "no"}}, {"type": "node", "id": 6973695826, "lat": 14.6868733, "lon": -17.452175, "tags": {"bench": "no", "bin": "no", "bus": "yes", "highway": "bus_stop", "name": "Arret autobus ddd 4", "public_transport": "platform", "shelter": "no"}}, {"type": "node", "id": 6973696943, "lat": 14.6852517, "lon": -17.4539183, "tags": {"bench": "no", "bin": "no", "bus": "yes", "highway": "bus_stop", "lit": "yes", "name": "Arret muni bus 29,71,25,4,5846,4", "public_transport": "platform", "shelter": "no"}}, {"type": "node", "id": 6973741265, "lat": 14.6855376, "lon": -17.4556801, "tags": {"bus": "yes", "highway": "bus_stop", "name": "Arr\u00eat mini bus 71", "public_transport": "platform"}}, {"type": "node", "id": 6974032377, "lat": 14.6784421, "lon": -17.453402, "tags": {"bench": "no", "bin": "no", "highway": "bus_stop", "lit": "no", "name": "Arr\u00eat autobus DDD 23-18", "shelter": "yes"}}, {"type": "node", "id": 6987732386, "lat": 14.7318467, "lon": -17.4599765, "tags": {"bench": "yes", "bin": "yes", "highway": "bus_stop", "passenger_information_display": "yes", "shelter": "yes"}}, {"type": "node", "id": 7523619073, "lat": 14.7536185, "lon": -17.4550143, "tags": {"highway": "bus_stop"}}, {"type": "node", "id": 7523643996, "lat": 14.7586192, "lon": -17.4525788, "tags": {"highway": "bus_stop"}}, {"type": "node", "id": 7523643997, "lat": 14.7585751, "lon": -17.4519593, "tags": {"bus": "yes", "highway": "bus_stop", "public_transport": "platform"}}, {"type": "node", "id": 7523643998, "lat": 14.7602999, "lon": -17.4516749, "tags": {"highway": "bus_stop"}}, {"type": "node", "id": 7523644000, "lat": 14.7617446, "lon": -17.4511707, "tags": {"highway": "bus_stop"}}, {"type": "node", "id": 7523644001, "lat": 14.7626161, "lon": -17.4505752, "tags": {"highway": "bus_stop"}}, {"type": "node", "id": 7920119833, "lat": 14.7435413, "lon": -17.4587343, "tags": {"bus": "yes", "departures_board": "no", "highway": "bus_stop", "name": "Arr\u00eat de bus", "network": "AFTU", "public_transport": "platform"}}, {"type": "node", "id": 7920335216, "lat": 14.7421297, "lon": -17.4599288, "tags": {"bus": "yes", "departures_board": "no", "highway": "bus_stop", "name": "Arr\u00eat de bus Tata", "network": "AFTU", "public_transport": "platform"}}, {"type": "node", "id": 7920517742, "lat": 14.740599, "lon": -17.4612062, "tags": {"bus": "yes", "departures_board": "no", "highway": "bus_stop", "name": "Arr\u00eat de bus Tata", "network": "AFTU", "public_transport": "platform"}}, {"type": "node", "id": 7920546766, "lat": 14.7394451, "lon": -17.4622184, "tags": {"bus": "yes", "departures_board": "no", "highway": "bus_stop", "name": "Arr\u00eat de bus Tata", "network": "AFTU", "public_transport": "platform", "shelter": "no"}}, {"type": "node", "id": 7920546767, "lat": 14.737453, "lon": -17.463919, "tags": {"bus": "yes", "departures_board": "no", "highway": "bus_stop", "name": "Arr\u00eat UNO", "network": "AFTU", "public_transport": "platform"}}, {"type": "node", "id": 7920819309, "lat": 14.7272407, "lon": -17.4566383, "tags": {"bus": "yes", "highway": "bus_stop", "name": "Centre Social", "network": "AFTU", "public_transport": "platform"}}, {"type": "node", "id": 7920914460, "lat": 14.7220227, "lon": -17.4578483, "tags": {"bus": "yes", "highway": "bus_stop", "name": "Arr\u00eat de bus Tata", "public_transport": "platform"}}, {"type": "node", "id": 7920914467, "lat": 14.7182068, "lon": -17.456633, "tags": {"bus": "yes", "departures_board": "no", "highway": "bus_stop", "name": "Arr\u00eat de bus Tata", "network": "AFTU", "public_transport": "platform"}}, {"type": "node", "id": 7920914472, "lat": 14.7162612, "lon": -17.4559678, "tags": {"bus": "yes", "highway": "bus_stop", "name": "Arr\u00eat de bus Tata", "public_transport": "platform"}}, {"type": "node", "id": 8541234823, "lat": 14.7231584, "lon": -17.4998261, "tags": {"bus": "yes", "highway": "bus_stop", "name": "Phare Shuttle Parking", "public_transport": "platform"}}, {"type": "node", "id": 9106121218, "lat": 14.7227606, "lon": -17.4581098, "tags": {"bus": "yes", "highway": "bus_stop", "public_transport": "platform"}}, {"type": "node", "id": 9562676804, "lat": 14.7347544, "lon": -17.5086293, "tags": {"addr:street": "arr\u00eat bus (217-218) DD", "bench": "yes", "bus": "yes", "highway": "bus_stop", "name": "Arr\u00eat autobus 217 et 218Dakar Dem Dikk", "public_transport": "platform", "shelter": "yes"}}, {"type": "node", "id": 11544739863, "lat": 14.7546646, "lon": -17.468856, "tags": {"bus": "yes", "highway": "bus_stop", "name": "35", "public_transport": "platform"}}, {"type": "node", "id": 11544801579, "lat": 14.7371068, "lon": -17.5091223, "tags": {"bus": "yes", "highway": "bus_stop", "name": "35", "public_transport": "platform"}}, {"type": "node", "id": 11544819776, "lat": 14.7440435, "lon": -17.5114247, "tags": {"bus": "yes", "highway": "bus_stop", "name": "35", "public_transport": "platform"}}, {"type": "node", "id": 11544819777, "lat": 14.7528476, "lon": -17.4937311, "tags": {"highway": "bus_stop", "name": "35"}}, {"type": "node", "id": 11739850111, "lat": 14.7643054, "lon": -17.4205183, "tags": {"bus": "yes", "highway": "bus_stop", "name": "Ndingala", "network": "SunuBRT", "public_transport": "platform"}}, {"type": "node", "id": 11739850112, "lat": 14.7646239, "lon": -17.4196902, "tags": {"bus": "yes", "highway": "bus_stop", "name": "Ndingala", "operator": "SunuBRT", "public_transport": "platform"}}, {"type": "node", "id": 12186408919, "lat": 14.7125362, "lon": -17.4765435, "tags": {"bus": "yes", "highway": "bus_stop", "public_transport": "platform"}}, {"type": "node", "id": 12475205384, "lat": 14.6770908, "lon": -17.451914, "tags": {"highway": "bus_stop", "name": "Arr\u00eat minibus 39"}}, {"type": "node", "id": 12477833020, "lat": 14.76618, "lon": -17.4154418, "tags": {"bus": "yes", "highway": "bus_stop", "name": "DDD 217 219 227", "public_transport": "platform"}}, {"type": "node", "id": 12495824870, "lat": 14.7640964, "lon": -17.4505726, "tags": {"bus": "yes", "highway": "bus_stop", "name": "terminus Diamalaye", "network": "AFTU", "public_transport": "platform"}}]}